<?xml version="1.0" encoding="UTF-8"?>
<gpx xmlns="http://www.topografix.com/GPX/1/1" xmlns:xsi="http://www.w3.org/2001/XMLSchema-instance" xsi:schemaLocation="http://www.topografix.com/GPX/1/1 http://www.topografix.com/GPX/1/1/gpx.xsd" version="1.1" creator="gpx.py -- https://github.com/tkrajina/gpxpy">
  <wpt lat="47.28256" lon="12.29226">
    <ele>2096.03</ele>
    <name>curve_1</name>
  </wpt>
  <wpt lat="47.28274" lon="12.29227">
    <ele>2096.07</ele>
    <name>curve_2</name>
  </wpt>
  <wpt lat="47.27999" lon="12.29641">
    <ele>1990.89</ele>
    <name>curve_1</name>
  </wpt>
  <wpt lat="47.27988" lon="12.29644">
    <ele>1989.06</ele>
    <name>curve_2</name>
  </wpt>
  <wpt lat="47.27986" lon="12.29647">
    <ele>1988.34</ele>
    <name>curve_3</name>
  </wpt>
  <wpt lat="47.27986" lon="12.29651">
    <ele>1987.63</ele>
    <name>curve_4</name>
  </wpt>
  <wpt lat="47.27988" lon="12.29656">
    <ele>1986.88</ele>
    <name>curve_5</name>
  </wpt>
  <wpt lat="47.2816" lon="12.31012">
    <ele>1850.56</ele>
    <name>curve_1</name>
  </wpt>
  <wpt lat="47.28166" lon="12.31026">
    <ele>1848.03</ele>
    <name>curve_2</name>
  </wpt>
  <wpt lat="47.28166" lon="12.31032">
    <ele>1845.84</ele>
    <name>curve_3</name>
  </wpt>
  <wpt lat="47.28163" lon="12.31036">
    <ele>1843.12</ele>
    <name>curve_4</name>
  </wpt>
  <wpt lat="47.28159" lon="12.31037">
    <ele>1841.17</ele>
    <name>curve_5</name>
  </wpt>
  <wpt lat="47.28032" lon="12.30867">
    <ele>1826.42</ele>
    <name>curve_1</name>
  </wpt>
  <wpt lat="47.28027" lon="12.30861">
    <ele>1825.62</ele>
    <name>curve_2</name>
  </wpt>
  <wpt lat="47.28023" lon="12.30861">
    <ele>1823.99</ele>
    <name>curve_3</name>
  </wpt>
  <wpt lat="47.28021" lon="12.30864">
    <ele>1822.58</ele>
    <name>curve_4</name>
  </wpt>
  <wpt lat="47.2802" lon="12.3087">
    <ele>1821.02</ele>
    <name>curve_5</name>
  </wpt>
  <wpt lat="47.28336" lon="12.3183">
    <ele>1739.4</ele>
    <name>curve_1</name>
  </wpt>
  <wpt lat="47.28338" lon="12.31836">
    <ele>1738.49</ele>
    <name>curve_2</name>
  </wpt>
  <wpt lat="47.28338" lon="12.31841">
    <ele>1737.31</ele>
    <name>curve_3</name>
  </wpt>
  <wpt lat="47.28335" lon="12.31845">
    <ele>1735.69</ele>
    <name>curve_4</name>
  </wpt>
  <wpt lat="47.28327" lon="12.31846">
    <ele>1733.25</ele>
    <name>curve_5</name>
  </wpt>
  <wpt lat="47.27645" lon="12.30986">
    <ele>1632.11</ele>
    <name>curve_1</name>
  </wpt>
  <wpt lat="47.2764" lon="12.30984">
    <ele>1631.97</ele>
    <name>curve_2</name>
  </wpt>
  <wpt lat="47.27636" lon="12.30985">
    <ele>1631.1</ele>
    <name>curve_3</name>
  </wpt>
  <wpt lat="47.27633" lon="12.30987">
    <ele>1630.14</ele>
    <name>curve_4</name>
  </wpt>
  <wpt lat="47.27632" lon="12.30991">
    <ele>1628.96</ele>
    <name>curve_5</name>
  </wpt>
  <wpt lat="47.27632" lon="12.30996">
    <ele>1627.7</ele>
    <name>curve_6</name>
  </wpt>
  <wpt lat="47.28076" lon="12.3237">
    <ele>1496.46</ele>
    <name>curve_1</name>
  </wpt>
  <wpt lat="47.28078" lon="12.32374">
    <ele>1496.07</ele>
    <name>curve_2</name>
  </wpt>
  <wpt lat="47.28078" lon="12.32379">
    <ele>1494.7</ele>
    <name>curve_3</name>
  </wpt>
  <wpt lat="47.28078" lon="12.32385">
    <ele>1493.01</ele>
    <name>curve_4</name>
  </wpt>
  <wpt lat="47.28074" lon="12.3239">
    <ele>1490.57</ele>
    <name>curve_5</name>
  </wpt>
  <wpt lat="47.28068" lon="12.32392">
    <ele>1488.58</ele>
    <name>curve_6</name>
  </wpt>
  <wpt lat="47.28058" lon="12.32391">
    <ele>1486.37</ele>
    <name>curve_7</name>
  </wpt>
  <wpt lat="47.27341" lon="12.31425">
    <ele>1383.63</ele>
    <name>curve_1</name>
  </wpt>
  <wpt lat="47.27335" lon="12.31422">
    <ele>1382.31</ele>
    <name>curve_2</name>
  </wpt>
  <wpt lat="47.27333" lon="12.31422">
    <ele>1381.72</ele>
    <name>curve_3</name>
  </wpt>
  <wpt lat="47.27329" lon="12.31424">
    <ele>1380.24</ele>
    <name>curve_4</name>
  </wpt>
  <wpt lat="47.27327" lon="12.31427">
    <ele>1379.12</ele>
    <name>curve_5</name>
  </wpt>
  <wpt lat="47.27327" lon="12.31431">
    <ele>1378.27</ele>
    <name>curve_6</name>
  </wpt>
  <wpt lat="47.26985" lon="12.31906">
    <ele>1170.14</ele>
    <name>curve_1</name>
  </wpt>
  <wpt lat="47.26978" lon="12.31904">
    <ele>1166.53</ele>
    <name>curve_2</name>
  </wpt>
  <wpt lat="47.26974" lon="12.31906">
    <ele>1163.75</ele>
    <name>curve_3</name>
  </wpt>
  <wpt lat="47.26973" lon="12.31911">
    <ele>1162.15</ele>
    <name>curve_4</name>
  </wpt>
  <wpt lat="47.26975" lon="12.31923">
    <ele>1161.08</ele>
    <name>curve_5</name>
  </wpt>
  <wpt lat="47.27223" lon="12.32896">
    <ele>1076.21</ele>
    <name>curve_1</name>
  </wpt>
  <wpt lat="47.27219" lon="12.32893">
    <ele>1075.16</ele>
    <name>curve_2</name>
  </wpt>
  <wpt lat="47.27214" lon="12.32894">
    <ele>1073.23</ele>
    <name>curve_3</name>
  </wpt>
  <wpt lat="47.27212" lon="12.32898">
    <ele>1071.95</ele>
    <name>curve_4</name>
  </wpt>
  <wpt lat="47.27211" lon="12.32904">
    <ele>1070.59</ele>
    <name>curve_5</name>
  </wpt>
  <wpt lat="47.27259" lon="12.32951">
    <ele>1070.74</ele>
    <name>curve_1</name>
  </wpt>
  <wpt lat="47.27269" lon="12.3295">
    <ele>1073.24</ele>
    <name>curve_2</name>
  </wpt>
  <wpt lat="47.27272" lon="12.32951">
    <ele>1073.38</ele>
    <name>curve_3</name>
  </wpt>
  <wpt lat="47.27273" lon="12.32956">
    <ele>1071.47</ele>
    <name>curve_4</name>
  </wpt>
  <wpt lat="47.27273" lon="12.32965">
    <ele>1067.64</ele>
    <name>curve_5</name>
  </wpt>
  <wpt lat="47.27005" lon="12.32741">
    <ele>1029.96</ele>
    <name>curve_1</name>
  </wpt>
  <wpt lat="47.27" lon="12.32736">
    <ele>1028.75</ele>
    <name>curve_2</name>
  </wpt>
  <wpt lat="47.26993" lon="12.32739">
    <ele>1025.18</ele>
    <name>curve_3</name>
  </wpt>
  <wpt lat="47.2699" lon="12.32742">
    <ele>1023.33</ele>
    <name>curve_4</name>
  </wpt>
  <wpt lat="47.26989" lon="12.32748">
    <ele>1021.73</ele>
    <name>curve_5</name>
  </wpt>
  <wpt lat="47.27133" lon="12.33001">
    <ele>1008.38</ele>
    <name>curve_1</name>
  </wpt>
  <wpt lat="47.27143" lon="12.33005">
    <ele>1009.57</ele>
    <name>curve_2</name>
  </wpt>
  <wpt lat="47.27147" lon="12.33008">
    <ele>1009.57</ele>
    <name>curve_3</name>
  </wpt>
  <wpt lat="47.27151" lon="12.33023">
    <ele>1005.4</ele>
    <name>curve_4</name>
  </wpt>
  <wpt lat="47.26973" lon="12.32869">
    <ele>986.41</ele>
    <name>curve_1</name>
  </wpt>
  <wpt lat="47.2696" lon="12.32855">
    <ele>983.7</ele>
    <name>curve_2</name>
  </wpt>
  <wpt lat="47.26956" lon="12.32865">
    <ele>980.31</ele>
    <name>curve_3</name>
  </wpt>
  <wpt lat="47.27212" lon="12.3329">
    <ele>937.63</ele>
    <name>curve_1</name>
  </wpt>
  <wpt lat="47.27219" lon="12.33297">
    <ele>935.96</ele>
    <name>curve_2</name>
  </wpt>
  <wpt lat="47.27221" lon="12.33305">
    <ele>933.27</ele>
    <name>curve_3</name>
  </wpt>
  <wpt lat="47.27217" lon="12.33312">
    <ele>930.24</ele>
    <name>curve_4</name>
  </wpt>
  <wpt lat="47.26789" lon="12.33032">
    <ele>893.22</ele>
    <name>curve_1</name>
  </wpt>
  <wpt lat="47.26785" lon="12.33021">
    <ele>894.0</ele>
    <name>curve_2</name>
  </wpt>
  <wpt lat="47.26781" lon="12.33016">
    <ele>893.53</ele>
    <name>curve_3</name>
  </wpt>
  <wpt lat="47.26777" lon="12.33016">
    <ele>892.08</ele>
    <name>curve_4</name>
  </wpt>
  <wpt lat="47.26772" lon="12.33019">
    <ele>889.64</ele>
    <name>curve_5</name>
  </wpt>
  <wpt lat="47.27028" lon="12.334942">
    <ele>852.0</ele>
    <name>curve_1</name>
  </wpt>
  <wpt lat="47.270278" lon="12.334944">
    <ele>852.0</ele>
    <name>curve_2</name>
  </wpt>
  <wpt lat="47.270239" lon="12.334997">
    <ele>850.75</ele>
    <name>curve_3</name>
  </wpt>
  <wpt lat="47.27024" lon="12.335">
    <ele>853.0</ele>
    <name>curve_4</name>
  </wpt>
  <wpt lat="47.27022" lon="12.3351">
    <ele>851.63</ele>
    <name>curve_5</name>
  </wpt>
  <wpt lat="47.27043916699549" lon="12.33616173013013">
    <ele>841.2161802647637</ele>
    <name>curve_1</name>
  </wpt>
  <wpt lat="47.27043916699549" lon="12.33616173013013">
    <ele>841.2161802647637</ele>
    <name>curve_2</name>
  </wpt>
  <wpt lat="47.2704047" lon="12.336219">
    <ele>840.4802874141906</ele>
    <name>curve_3</name>
  </wpt>
  <wpt lat="47.2704047" lon="12.336219">
    <ele>841.87</ele>
    <name>curve_4</name>
  </wpt>
</gpx>