<?xml version="1.0" encoding="UTF-8"?>
<gpx xmlns="http://www.topografix.com/GPX/1/1" xmlns:xsi="http://www.w3.org/2001/XMLSchema-instance" xsi:schemaLocation="http://www.topografix.com/GPX/1/1 http://www.topografix.com/GPX/1/1/gpx.xsd" version="1.1" creator="gpx.py -- https://github.com/tkrajina/gpxpy">
  <wpt lat="47.28062" lon="12.28147">
    <ele>2087.31</ele>
    <name>straight_1</name>
  </wpt>
  <wpt lat="47.28061" lon="12.28178">
    <ele>2084.99</ele>
    <name>straight_2</name>
  </wpt>
  <wpt lat="47.28104" lon="12.28254">
    <ele>2077.01</ele>
    <name>straight_3</name>
  </wpt>
  <wpt lat="47.28106" lon="12.28284">
    <ele>2075.38</ele>
    <name>straight_4</name>
  </wpt>
  <wpt lat="47.2811" lon="12.28305">
    <ele>2074.21</ele>
    <name>straight_5</name>
  </wpt>
  <wpt lat="47.28116" lon="12.28324">
    <ele>2074.02</ele>
    <name>straight_6</name>
  </wpt>
  <wpt lat="47.28135" lon="12.28354">
    <ele>2076.35</ele>
    <name>straight_7</name>
  </wpt>
  <wpt lat="47.28157" lon="12.28381">
    <ele>2083.12</ele>
    <name>straight_8</name>
  </wpt>
  <wpt lat="47.28175" lon="12.28406">
    <ele>2090.11</ele>
    <name>straight_9</name>
  </wpt>
  <wpt lat="47.28193" lon="12.28434">
    <ele>2093.43</ele>
    <name>straight_10</name>
  </wpt>
  <wpt lat="47.28199" lon="12.28445">
    <ele>2094.1</ele>
    <name>straight_11</name>
  </wpt>
  <wpt lat="47.28209" lon="12.28467">
    <ele>2095.75</ele>
    <name>straight_12</name>
  </wpt>
  <wpt lat="47.28225" lon="12.28501">
    <ele>2098.5</ele>
    <name>straight_13</name>
  </wpt>
  <wpt lat="47.28233" lon="12.28523">
    <ele>2100.31</ele>
    <name>straight_14</name>
  </wpt>
  <wpt lat="47.28237" lon="12.28538">
    <ele>2101.37</ele>
    <name>straight_15</name>
  </wpt>
  <wpt lat="47.28239" lon="12.28563">
    <ele>2103.68</ele>
    <name>straight_16</name>
  </wpt>
  <wpt lat="47.28238" lon="12.28588">
    <ele>2106.56</ele>
    <name>straight_17</name>
  </wpt>
  <wpt lat="47.28239" lon="12.28629">
    <ele>2109.84</ele>
    <name>straight_18</name>
  </wpt>
  <wpt lat="47.28242" lon="12.28658">
    <ele>2111.31</ele>
    <name>straight_19</name>
  </wpt>
  <wpt lat="47.28244" lon="12.28686">
    <ele>2113.63</ele>
    <name>straight_20</name>
  </wpt>
  <wpt lat="47.28251" lon="12.28709">
    <ele>2114.69</ele>
    <name>straight_21</name>
  </wpt>
  <wpt lat="47.28253" lon="12.2873">
    <ele>2116.28</ele>
    <name>straight_22</name>
  </wpt>
  <wpt lat="47.2826" lon="12.28776">
    <ele>2114.88</ele>
    <name>straight_23</name>
  </wpt>
  <wpt lat="47.28257" lon="12.28793">
    <ele>2114.58</ele>
    <name>straight_24</name>
  </wpt>
  <wpt lat="47.28253" lon="12.28801">
    <ele>2114.47</ele>
    <name>straight_25</name>
  </wpt>
  <wpt lat="47.28244" lon="12.28806">
    <ele>2114.83</ele>
    <name>straight_26</name>
  </wpt>
  <wpt lat="47.28231" lon="12.28811">
    <ele>2114.76</ele>
    <name>straight_27</name>
  </wpt>
  <wpt lat="47.282" lon="12.28813">
    <ele>2114.12</ele>
    <name>straight_28</name>
  </wpt>
  <wpt lat="47.28188" lon="12.28814">
    <ele>2113.46</ele>
    <name>straight_29</name>
  </wpt>
  <wpt lat="47.28176" lon="12.28819">
    <ele>2111.95</ele>
    <name>straight_30</name>
  </wpt>
  <wpt lat="47.28143" lon="12.28843">
    <ele>2107.38</ele>
    <name>straight_31</name>
  </wpt>
  <wpt lat="47.28129" lon="12.28856">
    <ele>2105.09</ele>
    <name>straight_32</name>
  </wpt>
  <wpt lat="47.28123" lon="12.28865">
    <ele>2103.08</ele>
    <name>straight_33</name>
  </wpt>
  <wpt lat="47.28119" lon="12.28886">
    <ele>2098.09</ele>
    <name>straight_34</name>
  </wpt>
  <wpt lat="47.28131" lon="12.28922">
    <ele>2092.97</ele>
    <name>straight_35</name>
  </wpt>
  <wpt lat="47.28157" lon="12.29012">
    <ele>2093.77</ele>
    <name>straight_36</name>
  </wpt>
  <wpt lat="47.28173" lon="12.29061">
    <ele>2096.05</ele>
    <name>straight_37</name>
  </wpt>
  <wpt lat="47.28182" lon="12.29081">
    <ele>2096.91</ele>
    <name>straight_38</name>
  </wpt>
  <wpt lat="47.28185" lon="12.29093">
    <ele>2096.95</ele>
    <name>straight_39</name>
  </wpt>
  <wpt lat="47.28203" lon="12.29126">
    <ele>2097.71</ele>
    <name>straight_40</name>
  </wpt>
  <wpt lat="47.28218" lon="12.29145">
    <ele>2097.68</ele>
    <name>straight_41</name>
  </wpt>
  <wpt lat="47.28238" lon="12.29189">
    <ele>2096.36</ele>
    <name>straight_42</name>
  </wpt>
  <wpt lat="47.28256" lon="12.29226">
    <ele>2096.03</ele>
    <name>straight_43</name>
  </wpt>
  <wpt lat="47.28274" lon="12.29227">
    <ele>2096.07</ele>
    <name>straight_1</name>
  </wpt>
  <wpt lat="47.28243" lon="12.29261">
    <ele>2091.71</ele>
    <name>straight_2</name>
  </wpt>
  <wpt lat="47.28243" lon="12.29272">
    <ele>2090.04</ele>
    <name>straight_3</name>
  </wpt>
  <wpt lat="47.28264" lon="12.29309">
    <ele>2087.9</ele>
    <name>straight_4</name>
  </wpt>
  <wpt lat="47.28264" lon="12.29326">
    <ele>2085.55</ele>
    <name>straight_5</name>
  </wpt>
  <wpt lat="47.28268" lon="12.29334">
    <ele>2085.71</ele>
    <name>straight_6</name>
  </wpt>
  <wpt lat="47.28271" lon="12.29343">
    <ele>2085.63</ele>
    <name>straight_7</name>
  </wpt>
  <wpt lat="47.28273" lon="12.29361">
    <ele>2084.38</ele>
    <name>straight_8</name>
  </wpt>
  <wpt lat="47.28272" lon="12.29388">
    <ele>2081.15</ele>
    <name>straight_9</name>
  </wpt>
  <wpt lat="47.28273" lon="12.29397">
    <ele>2080.47</ele>
    <name>straight_10</name>
  </wpt>
  <wpt lat="47.28276" lon="12.29406">
    <ele>2080.39</ele>
    <name>straight_11</name>
  </wpt>
  <wpt lat="47.28283" lon="12.2942">
    <ele>2080.91</ele>
    <name>straight_12</name>
  </wpt>
  <wpt lat="47.28285" lon="12.29427">
    <ele>2080.6</ele>
    <name>straight_13</name>
  </wpt>
  <wpt lat="47.28285" lon="12.29435">
    <ele>2079.45</ele>
    <name>straight_14</name>
  </wpt>
  <wpt lat="47.28283" lon="12.29446">
    <ele>2077.24</ele>
    <name>straight_15</name>
  </wpt>
  <wpt lat="47.28278" lon="12.29458">
    <ele>2074.22</ele>
    <name>straight_16</name>
  </wpt>
  <wpt lat="47.28273" lon="12.29465">
    <ele>2072.13</ele>
    <name>straight_17</name>
  </wpt>
  <wpt lat="47.28269" lon="12.2947">
    <ele>2070.64</ele>
    <name>straight_18</name>
  </wpt>
  <wpt lat="47.28264" lon="12.29472">
    <ele>2069.37</ele>
    <name>straight_19</name>
  </wpt>
  <wpt lat="47.28252" lon="12.29473">
    <ele>2066.73</ele>
    <name>straight_20</name>
  </wpt>
  <wpt lat="47.28232" lon="12.29462">
    <ele>2063.94</ele>
    <name>straight_21</name>
  </wpt>
  <wpt lat="47.2822" lon="12.29462">
    <ele>2062.03</ele>
    <name>straight_22</name>
  </wpt>
  <wpt lat="47.28215" lon="12.29465">
    <ele>2060.83</ele>
    <name>straight_23</name>
  </wpt>
  <wpt lat="47.28211" lon="12.29469">
    <ele>2059.56</ele>
    <name>straight_24</name>
  </wpt>
  <wpt lat="47.28209" lon="12.29477">
    <ele>2057.86</ele>
    <name>straight_25</name>
  </wpt>
  <wpt lat="47.28208" lon="12.29488">
    <ele>2055.7</ele>
    <name>straight_26</name>
  </wpt>
  <wpt lat="47.28209" lon="12.29506">
    <ele>2052.57</ele>
    <name>straight_27</name>
  </wpt>
  <wpt lat="47.28209" lon="12.29528">
    <ele>2047.87</ele>
    <name>straight_28</name>
  </wpt>
  <wpt lat="47.28208" lon="12.29533">
    <ele>2046.47</ele>
    <name>straight_29</name>
  </wpt>
  <wpt lat="47.28207" lon="12.29536">
    <ele>2045.51</ele>
    <name>straight_30</name>
  </wpt>
  <wpt lat="47.28202" lon="12.29541">
    <ele>2042.98</ele>
    <name>straight_31</name>
  </wpt>
  <wpt lat="47.28196" lon="12.2954">
    <ele>2041.61</ele>
    <name>straight_32</name>
  </wpt>
  <wpt lat="47.28193" lon="12.29534">
    <ele>2042.28</ele>
    <name>straight_33</name>
  </wpt>
  <wpt lat="47.2819" lon="12.29527">
    <ele>2043.22</ele>
    <name>straight_34</name>
  </wpt>
  <wpt lat="47.28181" lon="12.29501">
    <ele>2047.11</ele>
    <name>straight_35</name>
  </wpt>
  <wpt lat="47.28175" lon="12.29487">
    <ele>2048.86</ele>
    <name>straight_36</name>
  </wpt>
  <wpt lat="47.28167" lon="12.29473">
    <ele>2050.23</ele>
    <name>straight_37</name>
  </wpt>
  <wpt lat="47.28139" lon="12.29438">
    <ele>2048.84</ele>
    <name>straight_38</name>
  </wpt>
  <wpt lat="47.28122" lon="12.29411">
    <ele>2045.49</ele>
    <name>straight_39</name>
  </wpt>
  <wpt lat="47.28118" lon="12.2941">
    <ele>2043.88</ele>
    <name>straight_40</name>
  </wpt>
  <wpt lat="47.28114" lon="12.29413">
    <ele>2041.89</ele>
    <name>straight_41</name>
  </wpt>
  <wpt lat="47.28113" lon="12.29419">
    <ele>2040.86</ele>
    <name>straight_42</name>
  </wpt>
  <wpt lat="47.28113" lon="12.29437">
    <ele>2038.77</ele>
    <name>straight_43</name>
  </wpt>
  <wpt lat="47.2811" lon="12.29471">
    <ele>2033.33</ele>
    <name>straight_44</name>
  </wpt>
  <wpt lat="47.28105" lon="12.29471">
    <ele>2031.74</ele>
    <name>straight_45</name>
  </wpt>
  <wpt lat="47.28094" lon="12.29505">
    <ele>2026.16</ele>
    <name>straight_46</name>
  </wpt>
  <wpt lat="47.28093" lon="12.29517">
    <ele>2025.84</ele>
    <name>straight_47</name>
  </wpt>
  <wpt lat="47.2809" lon="12.29528">
    <ele>2025.55</ele>
    <name>straight_48</name>
  </wpt>
  <wpt lat="47.28083" lon="12.29535">
    <ele>2024.62</ele>
    <name>straight_49</name>
  </wpt>
  <wpt lat="47.28075" lon="12.29539">
    <ele>2023.37</ele>
    <name>straight_50</name>
  </wpt>
  <wpt lat="47.28068" lon="12.29541">
    <ele>2022.14</ele>
    <name>straight_51</name>
  </wpt>
  <wpt lat="47.28065" lon="12.29545">
    <ele>2021.65</ele>
    <name>straight_52</name>
  </wpt>
  <wpt lat="47.28064" lon="12.29559">
    <ele>2021.4</ele>
    <name>straight_53</name>
  </wpt>
  <wpt lat="47.28061" lon="12.29567">
    <ele>2020.31</ele>
    <name>straight_54</name>
  </wpt>
  <wpt lat="47.28056" lon="12.29569">
    <ele>2018.89</ele>
    <name>straight_55</name>
  </wpt>
  <wpt lat="47.28047" lon="12.29563">
    <ele>2016.94</ele>
    <name>straight_56</name>
  </wpt>
  <wpt lat="47.28013" lon="12.29528">
    <ele>2010.69</ele>
    <name>straight_57</name>
  </wpt>
  <wpt lat="47.28004" lon="12.29525">
    <ele>2008.49</ele>
    <name>straight_58</name>
  </wpt>
  <wpt lat="47.27999" lon="12.29527">
    <ele>2006.9</ele>
    <name>straight_59</name>
  </wpt>
  <wpt lat="47.27991" lon="12.29538">
    <ele>2003.76</ele>
    <name>straight_60</name>
  </wpt>
  <wpt lat="47.27989" lon="12.29545">
    <ele>2002.65</ele>
    <name>straight_61</name>
  </wpt>
  <wpt lat="47.27989" lon="12.29554">
    <ele>2001.85</ele>
    <name>straight_62</name>
  </wpt>
  <wpt lat="47.27992" lon="12.29561">
    <ele>2001.86</ele>
    <name>straight_63</name>
  </wpt>
  <wpt lat="47.28" lon="12.29586">
    <ele>2000.64</ele>
    <name>straight_64</name>
  </wpt>
  <wpt lat="47.28007" lon="12.29597">
    <ele>2000.66</ele>
    <name>straight_65</name>
  </wpt>
  <wpt lat="47.28009" lon="12.296">
    <ele>2000.64</ele>
    <name>straight_66</name>
  </wpt>
  <wpt lat="47.28014" lon="12.29604">
    <ele>2001.16</ele>
    <name>straight_67</name>
  </wpt>
  <wpt lat="47.28028" lon="12.29613">
    <ele>2002.81</ele>
    <name>straight_68</name>
  </wpt>
  <wpt lat="47.28031" lon="12.29621">
    <ele>2001.53</ele>
    <name>straight_69</name>
  </wpt>
  <wpt lat="47.28031" lon="12.29625">
    <ele>2000.46</ele>
    <name>straight_70</name>
  </wpt>
  <wpt lat="47.28029" lon="12.29628">
    <ele>1999.23</ele>
    <name>straight_71</name>
  </wpt>
  <wpt lat="47.28025" lon="12.29629">
    <ele>1998.13</ele>
    <name>straight_72</name>
  </wpt>
  <wpt lat="47.27999" lon="12.29641">
    <ele>1990.89</ele>
    <name>straight_73</name>
  </wpt>
  <wpt lat="47.27988" lon="12.29656">
    <ele>1986.88</ele>
    <name>straight_1</name>
  </wpt>
  <wpt lat="47.27991" lon="12.29658">
    <ele>1986.77</ele>
    <name>straight_2</name>
  </wpt>
  <wpt lat="47.27999" lon="12.29657">
    <ele>1987.76</ele>
    <name>straight_3</name>
  </wpt>
  <wpt lat="47.28026" lon="12.29656">
    <ele>1991.31</ele>
    <name>straight_4</name>
  </wpt>
  <wpt lat="47.28031" lon="12.29658">
    <ele>1991.41</ele>
    <name>straight_5</name>
  </wpt>
  <wpt lat="47.28036" lon="12.29664">
    <ele>1990.34</ele>
    <name>straight_6</name>
  </wpt>
  <wpt lat="47.28047" lon="12.2968">
    <ele>1986.76</ele>
    <name>straight_7</name>
  </wpt>
  <wpt lat="47.28054" lon="12.29687">
    <ele>1985.02</ele>
    <name>straight_8</name>
  </wpt>
  <wpt lat="47.28096" lon="12.29713">
    <ele>1980.41</ele>
    <name>straight_9</name>
  </wpt>
  <wpt lat="47.28096" lon="12.29713">
    <ele>1974.7404117086114</ele>
    <name>straight_10</name>
  </wpt>
  <wpt lat="47.28105564923456" lon="12.297229584521062">
    <ele>1973.6041512993984</ele>
    <name>straight_11</name>
  </wpt>
  <wpt lat="47.28121260391663" lon="12.297520733597253">
    <ele>1969.876387276036</ele>
    <name>straight_12</name>
  </wpt>
  <wpt lat="47.28121260391663" lon="12.297520733597253">
    <ele>1969.876387276036</ele>
    <name>straight_13</name>
  </wpt>
  <wpt lat="47.28121260391663" lon="12.297520733597253">
    <ele>1969.876387276036</ele>
    <name>straight_14</name>
  </wpt>
  <wpt lat="47.28134538945096" lon="12.297841245236128">
    <ele>1966.2422360570408</ele>
    <name>straight_15</name>
  </wpt>
  <wpt lat="47.28139" lon="12.29797">
    <ele>1965.1631233823955</ele>
    <name>straight_16</name>
  </wpt>
  <wpt lat="47.28139" lon="12.29797">
    <ele>1971.34</ele>
    <name>straight_17</name>
  </wpt>
  <wpt lat="47.2814" lon="12.29806">
    <ele>1969.55</ele>
    <name>straight_18</name>
  </wpt>
  <wpt lat="47.28136" lon="12.29849">
    <ele>1960.69</ele>
    <name>straight_19</name>
  </wpt>
  <wpt lat="47.28136" lon="12.29883">
    <ele>1958.57</ele>
    <name>straight_20</name>
  </wpt>
  <wpt lat="47.28138" lon="12.29907">
    <ele>1958.26</ele>
    <name>straight_21</name>
  </wpt>
  <wpt lat="47.28136" lon="12.29954">
    <ele>1955.36</ele>
    <name>straight_22</name>
  </wpt>
  <wpt lat="47.28131" lon="12.30007">
    <ele>1949.87</ele>
    <name>straight_23</name>
  </wpt>
  <wpt lat="47.28131" lon="12.3002">
    <ele>1948.21</ele>
    <name>straight_24</name>
  </wpt>
  <wpt lat="47.28133" lon="12.30036">
    <ele>1946.57</ele>
    <name>straight_25</name>
  </wpt>
  <wpt lat="47.28145" lon="12.30076">
    <ele>1945.0</ele>
    <name>straight_26</name>
  </wpt>
  <wpt lat="47.28148" lon="12.30096">
    <ele>1943.9</ele>
    <name>straight_27</name>
  </wpt>
  <wpt lat="47.28151" lon="12.3012">
    <ele>1943.0</ele>
    <name>straight_28</name>
  </wpt>
  <wpt lat="47.28147" lon="12.30154">
    <ele>1938.22</ele>
    <name>straight_29</name>
  </wpt>
  <wpt lat="47.2815" lon="12.30207">
    <ele>1933.89</ele>
    <name>straight_30</name>
  </wpt>
  <wpt lat="47.28154" lon="12.30261">
    <ele>1930.14</ele>
    <name>straight_31</name>
  </wpt>
  <wpt lat="47.28154" lon="12.30289">
    <ele>1927.6</ele>
    <name>straight_32</name>
  </wpt>
  <wpt lat="47.28151" lon="12.30328">
    <ele>1923.13</ele>
    <name>straight_33</name>
  </wpt>
  <wpt lat="47.28151" lon="12.30362">
    <ele>1921.5</ele>
    <name>straight_34</name>
  </wpt>
  <wpt lat="47.28148" lon="12.30386">
    <ele>1919.2</ele>
    <name>straight_35</name>
  </wpt>
  <wpt lat="47.2814" lon="12.3043">
    <ele>1913.57</ele>
    <name>straight_36</name>
  </wpt>
  <wpt lat="47.28138" lon="12.30444">
    <ele>1912.08</ele>
    <name>straight_37</name>
  </wpt>
  <wpt lat="47.28138" lon="12.30468">
    <ele>1911.39</ele>
    <name>straight_38</name>
  </wpt>
  <wpt lat="47.28133" lon="12.30495">
    <ele>1908.71</ele>
    <name>straight_39</name>
  </wpt>
  <wpt lat="47.28126" lon="12.30519">
    <ele>1905.87</ele>
    <name>straight_40</name>
  </wpt>
  <wpt lat="47.28117" lon="12.30558">
    <ele>1902.92</ele>
    <name>straight_41</name>
  </wpt>
  <wpt lat="47.28105" lon="12.30585">
    <ele>1897.96</ele>
    <name>straight_42</name>
  </wpt>
  <wpt lat="47.28102" lon="12.30601">
    <ele>1896.59</ele>
    <name>straight_43</name>
  </wpt>
  <wpt lat="47.28088" lon="12.30645">
    <ele>1890.11</ele>
    <name>straight_44</name>
  </wpt>
  <wpt lat="47.2809" lon="12.30662">
    <ele>1890.16</ele>
    <name>straight_45</name>
  </wpt>
  <wpt lat="47.28085" lon="12.30702">
    <ele>1884.3</ele>
    <name>straight_46</name>
  </wpt>
  <wpt lat="47.28087" lon="12.30717">
    <ele>1883.21</ele>
    <name>straight_47</name>
  </wpt>
  <wpt lat="47.28091" lon="12.30736">
    <ele>1882.06</ele>
    <name>straight_48</name>
  </wpt>
  <wpt lat="47.28102" lon="12.30791">
    <ele>1874.65</ele>
    <name>straight_49</name>
  </wpt>
  <wpt lat="47.2811" lon="12.30816">
    <ele>1871.43</ele>
    <name>straight_50</name>
  </wpt>
  <wpt lat="47.28121" lon="12.30863">
    <ele>1865.59</ele>
    <name>straight_51</name>
  </wpt>
  <wpt lat="47.28123" lon="12.30874">
    <ele>1864.26</ele>
    <name>straight_52</name>
  </wpt>
  <wpt lat="47.28126" lon="12.30885">
    <ele>1863.53</ele>
    <name>straight_53</name>
  </wpt>
  <wpt lat="47.28129" lon="12.30898">
    <ele>1862.51</ele>
    <name>straight_54</name>
  </wpt>
  <wpt lat="47.28129" lon="12.30917">
    <ele>1858.88</ele>
    <name>straight_55</name>
  </wpt>
  <wpt lat="47.2813" lon="12.30938">
    <ele>1855.87</ele>
    <name>straight_56</name>
  </wpt>
  <wpt lat="47.28133" lon="12.30957">
    <ele>1854.24</ele>
    <name>straight_57</name>
  </wpt>
  <wpt lat="47.28136" lon="12.30977">
    <ele>1851.78</ele>
    <name>straight_58</name>
  </wpt>
  <wpt lat="47.28144" lon="12.3099">
    <ele>1851.49</ele>
    <name>straight_59</name>
  </wpt>
  <wpt lat="47.2816" lon="12.31012">
    <ele>1850.56</ele>
    <name>straight_60</name>
  </wpt>
  <wpt lat="47.28159" lon="12.31037">
    <ele>1841.17</ele>
    <name>straight_1</name>
  </wpt>
  <wpt lat="47.28154" lon="12.31031">
    <ele>1841.58</ele>
    <name>straight_2</name>
  </wpt>
  <wpt lat="47.2815" lon="12.31022">
    <ele>1843.54</ele>
    <name>straight_3</name>
  </wpt>
  <wpt lat="47.28146" lon="12.31017">
    <ele>1844.04</ele>
    <name>straight_4</name>
  </wpt>
  <wpt lat="47.28142" lon="12.31013">
    <ele>1844.19</ele>
    <name>straight_5</name>
  </wpt>
  <wpt lat="47.28131" lon="12.31011">
    <ele>1841.65</ele>
    <name>straight_6</name>
  </wpt>
  <wpt lat="47.28116" lon="12.31003">
    <ele>1839.77</ele>
    <name>straight_7</name>
  </wpt>
  <wpt lat="47.2811" lon="12.30999">
    <ele>1838.97</ele>
    <name>straight_8</name>
  </wpt>
  <wpt lat="47.28096" lon="12.30987">
    <ele>1836.52</ele>
    <name>straight_9</name>
  </wpt>
  <wpt lat="47.28087" lon="12.30978">
    <ele>1834.02</ele>
    <name>straight_10</name>
  </wpt>
  <wpt lat="47.28083" lon="12.3097">
    <ele>1832.94</ele>
    <name>straight_11</name>
  </wpt>
  <wpt lat="47.28078" lon="12.30958">
    <ele>1831.38</ele>
    <name>straight_12</name>
  </wpt>
  <wpt lat="47.28076" lon="12.30946">
    <ele>1831.07</ele>
    <name>straight_13</name>
  </wpt>
  <wpt lat="47.28074" lon="12.30934">
    <ele>1830.98</ele>
    <name>straight_14</name>
  </wpt>
  <wpt lat="47.28072" lon="12.30926">
    <ele>1830.89</ele>
    <name>straight_15</name>
  </wpt>
  <wpt lat="47.28067" lon="12.30921">
    <ele>1829.47</ele>
    <name>straight_16</name>
  </wpt>
  <wpt lat="47.28047" lon="12.30913">
    <ele>1823.08</ele>
    <name>straight_17</name>
  </wpt>
  <wpt lat="47.28043" lon="12.30908">
    <ele>1822.51</ele>
    <name>straight_18</name>
  </wpt>
  <wpt lat="47.28039" lon="12.30899">
    <ele>1822.73</ele>
    <name>straight_19</name>
  </wpt>
  <wpt lat="47.28032" lon="12.30867">
    <ele>1826.42</ele>
    <name>straight_20</name>
  </wpt>
  <wpt lat="47.2802" lon="12.3087">
    <ele>1821.02</ele>
    <name>straight_1</name>
  </wpt>
  <wpt lat="47.28025" lon="12.3092">
    <ele>1813.37</ele>
    <name>straight_2</name>
  </wpt>
  <wpt lat="47.28028" lon="12.30937">
    <ele>1811.59</ele>
    <name>straight_3</name>
  </wpt>
  <wpt lat="47.28032" lon="12.3095">
    <ele>1811.27</ele>
    <name>straight_4</name>
  </wpt>
  <wpt lat="47.28035" lon="12.30967">
    <ele>1810.1</ele>
    <name>straight_5</name>
  </wpt>
  <wpt lat="47.28037" lon="12.30979">
    <ele>1809.2</ele>
    <name>straight_6</name>
  </wpt>
  <wpt lat="47.2804" lon="12.3099">
    <ele>1808.83</ele>
    <name>straight_7</name>
  </wpt>
  <wpt lat="47.28047" lon="12.31007">
    <ele>1808.89</ele>
    <name>straight_8</name>
  </wpt>
  <wpt lat="47.28056" lon="12.31022">
    <ele>1809.41</ele>
    <name>straight_9</name>
  </wpt>
  <wpt lat="47.28074" lon="12.31048">
    <ele>1808.58</ele>
    <name>straight_10</name>
  </wpt>
  <wpt lat="47.28082" lon="12.31061">
    <ele>1806.73</ele>
    <name>straight_11</name>
  </wpt>
  <wpt lat="47.28103" lon="12.31093">
    <ele>1803.12</ele>
    <name>straight_12</name>
  </wpt>
  <wpt lat="47.28119" lon="12.3112">
    <ele>1801.72</ele>
    <name>straight_13</name>
  </wpt>
  <wpt lat="47.28124" lon="12.3113">
    <ele>1801.58</ele>
    <name>straight_14</name>
  </wpt>
  <wpt lat="47.28128" lon="12.31142">
    <ele>1800.93</ele>
    <name>straight_15</name>
  </wpt>
  <wpt lat="47.28133" lon="12.31169">
    <ele>1798.09</ele>
    <name>straight_16</name>
  </wpt>
  <wpt lat="47.28133" lon="12.31173">
    <ele>1797.3</ele>
    <name>straight_17</name>
  </wpt>
  <wpt lat="47.28132" lon="12.31204">
    <ele>1791.11</ele>
    <name>straight_18</name>
  </wpt>
  <wpt lat="47.28135" lon="12.31223">
    <ele>1789.0</ele>
    <name>straight_19</name>
  </wpt>
  <wpt lat="47.28141" lon="12.31264">
    <ele>1782.69</ele>
    <name>straight_20</name>
  </wpt>
  <wpt lat="47.28146" lon="12.31279">
    <ele>1781.39</ele>
    <name>straight_21</name>
  </wpt>
  <wpt lat="47.28179" lon="12.31333">
    <ele>1782.31</ele>
    <name>straight_22</name>
  </wpt>
  <wpt lat="47.28211" lon="12.31372">
    <ele>1778.57</ele>
    <name>straight_23</name>
  </wpt>
  <wpt lat="47.28217" lon="12.31381">
    <ele>1776.93</ele>
    <name>straight_24</name>
  </wpt>
  <wpt lat="47.28222" lon="12.31395">
    <ele>1773.16</ele>
    <name>straight_25</name>
  </wpt>
  <wpt lat="47.28227" lon="12.31415">
    <ele>1768.18</ele>
    <name>straight_26</name>
  </wpt>
  <wpt lat="47.28231" lon="12.31427">
    <ele>1766.46</ele>
    <name>straight_27</name>
  </wpt>
  <wpt lat="47.28253" lon="12.31469">
    <ele>1766.21</ele>
    <name>straight_28</name>
  </wpt>
  <wpt lat="47.28263" lon="12.31499">
    <ele>1763.84</ele>
    <name>straight_29</name>
  </wpt>
  <wpt lat="47.28269" lon="12.31512">
    <ele>1763.07</ele>
    <name>straight_30</name>
  </wpt>
  <wpt lat="47.28275" lon="12.3152">
    <ele>1763.61</ele>
    <name>straight_31</name>
  </wpt>
  <wpt lat="47.2828" lon="12.31528">
    <ele>1763.66</ele>
    <name>straight_32</name>
  </wpt>
  <wpt lat="47.28285" lon="12.31539">
    <ele>1762.76</ele>
    <name>straight_33</name>
  </wpt>
  <wpt lat="47.28288" lon="12.3155">
    <ele>1760.88</ele>
    <name>straight_34</name>
  </wpt>
  <wpt lat="47.28292" lon="12.31571">
    <ele>1756.89</ele>
    <name>straight_35</name>
  </wpt>
  <wpt lat="47.28294" lon="12.31596">
    <ele>1752.43</ele>
    <name>straight_36</name>
  </wpt>
  <wpt lat="47.28297" lon="12.31615">
    <ele>1751.02</ele>
    <name>straight_37</name>
  </wpt>
  <wpt lat="47.28302" lon="12.31638">
    <ele>1750.89</ele>
    <name>straight_38</name>
  </wpt>
  <wpt lat="47.2831" lon="12.31712">
    <ele>1746.09</ele>
    <name>straight_39</name>
  </wpt>
  <wpt lat="47.28311" lon="12.31725">
    <ele>1745.04</ele>
    <name>straight_40</name>
  </wpt>
  <wpt lat="47.28313" lon="12.31738">
    <ele>1744.5</ele>
    <name>straight_41</name>
  </wpt>
  <wpt lat="47.28325" lon="12.31778">
    <ele>1745.06</ele>
    <name>straight_42</name>
  </wpt>
  <wpt lat="47.28326" lon="12.31785">
    <ele>1744.44</ele>
    <name>straight_43</name>
  </wpt>
  <wpt lat="47.28325" lon="12.3181">
    <ele>1739.98</ele>
    <name>straight_44</name>
  </wpt>
  <wpt lat="47.28327" lon="12.31818">
    <ele>1739.25</ele>
    <name>straight_45</name>
  </wpt>
  <wpt lat="47.28336" lon="12.3183">
    <ele>1739.4</ele>
    <name>straight_46</name>
  </wpt>
  <wpt lat="47.28327" lon="12.31846">
    <ele>1733.25</ele>
    <name>straight_1</name>
  </wpt>
  <wpt lat="47.28319" lon="12.31839">
    <ele>1732.04</ele>
    <name>straight_2</name>
  </wpt>
  <wpt lat="47.28316" lon="12.31831">
    <ele>1732.52</ele>
    <name>straight_3</name>
  </wpt>
  <wpt lat="47.28314" lon="12.31822">
    <ele>1733.36</ele>
    <name>straight_4</name>
  </wpt>
  <wpt lat="47.28312" lon="12.31798">
    <ele>1736.18</ele>
    <name>straight_5</name>
  </wpt>
  <wpt lat="47.28307" lon="12.31785">
    <ele>1735.26</ele>
    <name>straight_6</name>
  </wpt>
  <wpt lat="47.28294" lon="12.3177">
    <ele>1729.45</ele>
    <name>straight_7</name>
  </wpt>
  <wpt lat="47.28291" lon="12.31759">
    <ele>1728.79</ele>
    <name>straight_8</name>
  </wpt>
  <wpt lat="47.28288" lon="12.31722">
    <ele>1731.5</ele>
    <name>straight_9</name>
  </wpt>
  <wpt lat="47.28284" lon="12.31709">
    <ele>1730.72</ele>
    <name>straight_10</name>
  </wpt>
  <wpt lat="47.28278" lon="12.31696">
    <ele>1728.84</ele>
    <name>straight_11</name>
  </wpt>
  <wpt lat="47.28261" lon="12.31674">
    <ele>1722.4</ele>
    <name>straight_12</name>
  </wpt>
  <wpt lat="47.28253" lon="12.31653">
    <ele>1721.72</ele>
    <name>straight_13</name>
  </wpt>
  <wpt lat="47.28247" lon="12.31644">
    <ele>1720.52</ele>
    <name>straight_14</name>
  </wpt>
  <wpt lat="47.28227" lon="12.31621">
    <ele>1718.44</ele>
    <name>straight_15</name>
  </wpt>
  <wpt lat="47.28217" lon="12.31613">
    <ele>1718.27</ele>
    <name>straight_16</name>
  </wpt>
  <wpt lat="47.2821" lon="12.31612">
    <ele>1717.19</ele>
    <name>straight_17</name>
  </wpt>
  <wpt lat="47.28189" lon="12.31617">
    <ele>1711.09</ele>
    <name>straight_18</name>
  </wpt>
  <wpt lat="47.28181" lon="12.31618">
    <ele>1708.61</ele>
    <name>straight_19</name>
  </wpt>
  <wpt lat="47.28175" lon="12.31617">
    <ele>1707.23</ele>
    <name>straight_20</name>
  </wpt>
  <wpt lat="47.28153" lon="12.31604">
    <ele>1704.28</ele>
    <name>straight_21</name>
  </wpt>
  <wpt lat="47.28146" lon="12.31597">
    <ele>1703.95</ele>
    <name>straight_22</name>
  </wpt>
  <wpt lat="47.28138" lon="12.31586">
    <ele>1704.05</ele>
    <name>straight_23</name>
  </wpt>
  <wpt lat="47.28128" lon="12.3157">
    <ele>1703.55</ele>
    <name>straight_24</name>
  </wpt>
  <wpt lat="47.28109" lon="12.31536">
    <ele>1700.95</ele>
    <name>straight_25</name>
  </wpt>
  <wpt lat="47.2809" lon="12.31507">
    <ele>1696.86</ele>
    <name>straight_26</name>
  </wpt>
  <wpt lat="47.28076" lon="12.3148">
    <ele>1695.51</ele>
    <name>straight_27</name>
  </wpt>
  <wpt lat="47.28068" lon="12.3146">
    <ele>1695.22</ele>
    <name>straight_28</name>
  </wpt>
  <wpt lat="47.28052" lon="12.31432">
    <ele>1691.3</ele>
    <name>straight_29</name>
  </wpt>
  <wpt lat="47.28032" lon="12.31391">
    <ele>1689.22</ele>
    <name>straight_30</name>
  </wpt>
  <wpt lat="47.28022" lon="12.31375">
    <ele>1688.73</ele>
    <name>straight_31</name>
  </wpt>
  <wpt lat="47.28014" lon="12.31367">
    <ele>1687.36</ele>
    <name>straight_32</name>
  </wpt>
  <wpt lat="47.27995" lon="12.31358">
    <ele>1681.58</ele>
    <name>straight_33</name>
  </wpt>
  <wpt lat="47.27965" lon="12.31341">
    <ele>1673.37</ele>
    <name>straight_34</name>
  </wpt>
  <wpt lat="47.27957" lon="12.31333">
    <ele>1671.98</ele>
    <name>straight_35</name>
  </wpt>
  <wpt lat="47.27947" lon="12.31321">
    <ele>1670.75</ele>
    <name>straight_36</name>
  </wpt>
  <wpt lat="47.27928" lon="12.31295">
    <ele>1669.58</ele>
    <name>straight_37</name>
  </wpt>
  <wpt lat="47.27917" lon="12.31273">
    <ele>1670.98</ele>
    <name>straight_38</name>
  </wpt>
  <wpt lat="47.27911" lon="12.31263">
    <ele>1671.17</ele>
    <name>straight_39</name>
  </wpt>
  <wpt lat="47.27892" lon="12.31242">
    <ele>1668.71</ele>
    <name>straight_40</name>
  </wpt>
  <wpt lat="47.27883" lon="12.31229">
    <ele>1668.12</ele>
    <name>straight_41</name>
  </wpt>
  <wpt lat="47.27876" lon="12.31224">
    <ele>1666.38</ele>
    <name>straight_42</name>
  </wpt>
  <wpt lat="47.27869" lon="12.31219">
    <ele>1664.59</ele>
    <name>straight_43</name>
  </wpt>
  <wpt lat="47.27852" lon="12.31214">
    <ele>1658.57</ele>
    <name>straight_44</name>
  </wpt>
  <wpt lat="47.27845" lon="12.31211">
    <ele>1656.27</ele>
    <name>straight_45</name>
  </wpt>
  <wpt lat="47.27831" lon="12.31195">
    <ele>1653.71</ele>
    <name>straight_46</name>
  </wpt>
  <wpt lat="47.27821" lon="12.31179">
    <ele>1652.82</ele>
    <name>straight_47</name>
  </wpt>
  <wpt lat="47.27811" lon="12.3116">
    <ele>1652.68</ele>
    <name>straight_48</name>
  </wpt>
  <wpt lat="47.27806" lon="12.31151">
    <ele>1652.66</ele>
    <name>straight_49</name>
  </wpt>
  <wpt lat="47.2779" lon="12.31131">
    <ele>1650.75</ele>
    <name>straight_50</name>
  </wpt>
  <wpt lat="47.27782" lon="12.3112">
    <ele>1650.16</ele>
    <name>straight_51</name>
  </wpt>
  <wpt lat="47.27774" lon="12.31107">
    <ele>1650.11</ele>
    <name>straight_52</name>
  </wpt>
  <wpt lat="47.27769" lon="12.311">
    <ele>1649.77</ele>
    <name>straight_53</name>
  </wpt>
  <wpt lat="47.27762" lon="12.31094">
    <ele>1648.33</ele>
    <name>straight_54</name>
  </wpt>
  <wpt lat="47.27754" lon="12.31091">
    <ele>1645.8</ele>
    <name>straight_55</name>
  </wpt>
  <wpt lat="47.27744" lon="12.31092">
    <ele>1641.65</ele>
    <name>straight_56</name>
  </wpt>
  <wpt lat="47.27731" lon="12.31089">
    <ele>1637.54</ele>
    <name>straight_57</name>
  </wpt>
  <wpt lat="47.27714" lon="12.31079">
    <ele>1633.62</ele>
    <name>straight_58</name>
  </wpt>
  <wpt lat="47.27704" lon="12.31071">
    <ele>1631.6</ele>
    <name>straight_59</name>
  </wpt>
  <wpt lat="47.27688" lon="12.31054">
    <ele>1628.69</ele>
    <name>straight_60</name>
  </wpt>
  <wpt lat="47.27677" lon="12.31031">
    <ele>1628.49</ele>
    <name>straight_61</name>
  </wpt>
  <wpt lat="47.27673" lon="12.3102">
    <ele>1629.22</ele>
    <name>straight_62</name>
  </wpt>
  <wpt lat="47.27667" lon="12.31009">
    <ele>1629.87</ele>
    <name>straight_63</name>
  </wpt>
  <wpt lat="47.27659" lon="12.31">
    <ele>1630.25</ele>
    <name>straight_64</name>
  </wpt>
  <wpt lat="47.27645" lon="12.30986">
    <ele>1632.11</ele>
    <name>straight_65</name>
  </wpt>
  <wpt lat="47.27632" lon="12.30996">
    <ele>1627.7</ele>
    <name>straight_1</name>
  </wpt>
  <wpt lat="47.27636" lon="12.31002">
    <ele>1626.62</ele>
    <name>straight_2</name>
  </wpt>
  <wpt lat="47.27644" lon="12.31012">
    <ele>1625.04</ele>
    <name>straight_3</name>
  </wpt>
  <wpt lat="47.2765" lon="12.3102">
    <ele>1624.04</ele>
    <name>straight_4</name>
  </wpt>
  <wpt lat="47.27653" lon="12.31029">
    <ele>1622.69</ele>
    <name>straight_5</name>
  </wpt>
  <wpt lat="47.27655" lon="12.3105">
    <ele>1619.23</ele>
    <name>straight_6</name>
  </wpt>
  <wpt lat="47.27662" lon="12.31073">
    <ele>1617.32</ele>
    <name>straight_7</name>
  </wpt>
  <wpt lat="47.27664" lon="12.31078">
    <ele>1617.09</ele>
    <name>straight_8</name>
  </wpt>
  <wpt lat="47.27685" lon="12.31119">
    <ele>1616.63</ele>
    <name>straight_9</name>
  </wpt>
  <wpt lat="47.27688" lon="12.31131">
    <ele>1615.35</ele>
    <name>straight_10</name>
  </wpt>
  <wpt lat="47.27693" lon="12.31163">
    <ele>1610.57</ele>
    <name>straight_11</name>
  </wpt>
  <wpt lat="47.27695" lon="12.31172">
    <ele>1609.25</ele>
    <name>straight_12</name>
  </wpt>
  <wpt lat="47.27707" lon="12.31191">
    <ele>1608.38</ele>
    <name>straight_13</name>
  </wpt>
  <wpt lat="47.27719" lon="12.31214">
    <ele>1607.06</ele>
    <name>straight_14</name>
  </wpt>
  <wpt lat="47.27723" lon="12.31228">
    <ele>1605.74</ele>
    <name>straight_15</name>
  </wpt>
  <wpt lat="47.27725" lon="12.31239">
    <ele>1604.57</ele>
    <name>straight_16</name>
  </wpt>
  <wpt lat="47.27724" lon="12.31251">
    <ele>1602.37</ele>
    <name>straight_17</name>
  </wpt>
  <wpt lat="47.27722" lon="12.31258">
    <ele>1600.78</ele>
    <name>straight_18</name>
  </wpt>
  <wpt lat="47.27721" lon="12.31265">
    <ele>1599.73</ele>
    <name>straight_19</name>
  </wpt>
  <wpt lat="47.27726" lon="12.31294">
    <ele>1599.65</ele>
    <name>straight_20</name>
  </wpt>
  <wpt lat="47.27724" lon="12.31321">
    <ele>1596.05</ele>
    <name>straight_21</name>
  </wpt>
  <wpt lat="47.27726" lon="12.31328">
    <ele>1595.48</ele>
    <name>straight_22</name>
  </wpt>
  <wpt lat="47.27735" lon="12.31342">
    <ele>1595.09</ele>
    <name>straight_23</name>
  </wpt>
  <wpt lat="47.27758" lon="12.31372">
    <ele>1592.0</ele>
    <name>straight_24</name>
  </wpt>
  <wpt lat="47.27789" lon="12.31419">
    <ele>1587.26</ele>
    <name>straight_25</name>
  </wpt>
  <wpt lat="47.27793" lon="12.31429">
    <ele>1586.41</ele>
    <name>straight_26</name>
  </wpt>
  <wpt lat="47.27797" lon="12.31446">
    <ele>1584.14</ele>
    <name>straight_27</name>
  </wpt>
  <wpt lat="47.27799" lon="12.31464">
    <ele>1581.05</ele>
    <name>straight_28</name>
  </wpt>
  <wpt lat="47.27808" lon="12.31514">
    <ele>1573.03</ele>
    <name>straight_29</name>
  </wpt>
  <wpt lat="47.27813" lon="12.31529">
    <ele>1571.25</ele>
    <name>straight_30</name>
  </wpt>
  <wpt lat="47.27819" lon="12.31542">
    <ele>1570.17</ele>
    <name>straight_31</name>
  </wpt>
  <wpt lat="47.27834" lon="12.31565">
    <ele>1568.91</ele>
    <name>straight_32</name>
  </wpt>
  <wpt lat="47.27848" lon="12.3158">
    <ele>1568.14</ele>
    <name>straight_33</name>
  </wpt>
  <wpt lat="47.27864" lon="12.31594">
    <ele>1566.93</ele>
    <name>straight_34</name>
  </wpt>
  <wpt lat="47.27891" lon="12.31609">
    <ele>1567.5</ele>
    <name>straight_35</name>
  </wpt>
  <wpt lat="47.27896" lon="12.31616">
    <ele>1566.27</ele>
    <name>straight_36</name>
  </wpt>
  <wpt lat="47.27903" lon="12.3163">
    <ele>1563.36</ele>
    <name>straight_37</name>
  </wpt>
  <wpt lat="47.27919" lon="12.3167">
    <ele>1557.1</ele>
    <name>straight_38</name>
  </wpt>
  <wpt lat="47.27935" lon="12.31712">
    <ele>1556.17</ele>
    <name>straight_39</name>
  </wpt>
  <wpt lat="47.27937" lon="12.31725">
    <ele>1555.14</ele>
    <name>straight_40</name>
  </wpt>
  <wpt lat="47.27937" lon="12.31751">
    <ele>1550.7</ele>
    <name>straight_41</name>
  </wpt>
  <wpt lat="47.27939" lon="12.31765">
    <ele>1548.89</ele>
    <name>straight_42</name>
  </wpt>
  <wpt lat="47.27949" lon="12.31806">
    <ele>1545.92</ele>
    <name>straight_43</name>
  </wpt>
  <wpt lat="47.27956" lon="12.31854">
    <ele>1542.48</ele>
    <name>straight_44</name>
  </wpt>
  <wpt lat="47.27957" lon="12.31875">
    <ele>1540.46</ele>
    <name>straight_45</name>
  </wpt>
  <wpt lat="47.27958" lon="12.31895">
    <ele>1538.28</ele>
    <name>straight_46</name>
  </wpt>
  <wpt lat="47.27956" lon="12.31925">
    <ele>1532.29</ele>
    <name>straight_47</name>
  </wpt>
  <wpt lat="47.27957" lon="12.31938">
    <ele>1529.84</ele>
    <name>straight_48</name>
  </wpt>
  <wpt lat="47.27961" lon="12.31954">
    <ele>1527.56</ele>
    <name>straight_49</name>
  </wpt>
  <wpt lat="47.27971" lon="12.31978">
    <ele>1525.58</ele>
    <name>straight_50</name>
  </wpt>
  <wpt lat="47.2799" lon="12.32012">
    <ele>1524.69</ele>
    <name>straight_51</name>
  </wpt>
  <wpt lat="47.28015" lon="12.32067">
    <ele>1519.58</ele>
    <name>straight_52</name>
  </wpt>
  <wpt lat="47.28018" lon="12.32075">
    <ele>1519.04</ele>
    <name>straight_53</name>
  </wpt>
  <wpt lat="47.28019" lon="12.32085">
    <ele>1517.33</ele>
    <name>straight_54</name>
  </wpt>
  <wpt lat="47.2802" lon="12.32122">
    <ele>1512.17</ele>
    <name>straight_55</name>
  </wpt>
  <wpt lat="47.28022" lon="12.32137">
    <ele>1511.32</ele>
    <name>straight_56</name>
  </wpt>
  <wpt lat="47.28026" lon="12.3215">
    <ele>1511.62</ele>
    <name>straight_57</name>
  </wpt>
  <wpt lat="47.28038" lon="12.32184">
    <ele>1510.72</ele>
    <name>straight_58</name>
  </wpt>
  <wpt lat="47.28046" lon="12.32218">
    <ele>1504.5</ele>
    <name>straight_59</name>
  </wpt>
  <wpt lat="47.28058" lon="12.32249">
    <ele>1503.42</ele>
    <name>straight_60</name>
  </wpt>
  <wpt lat="47.28062" lon="12.32262">
    <ele>1503.78</ele>
    <name>straight_61</name>
  </wpt>
  <wpt lat="47.28063" lon="12.32292">
    <ele>1501.82</ele>
    <name>straight_62</name>
  </wpt>
  <wpt lat="47.28061" lon="12.3231">
    <ele>1499.54</ele>
    <name>straight_63</name>
  </wpt>
  <wpt lat="47.28057" lon="12.32334">
    <ele>1494.96</ele>
    <name>straight_64</name>
  </wpt>
  <wpt lat="47.28057" lon="12.32344">
    <ele>1493.6</ele>
    <name>straight_65</name>
  </wpt>
  <wpt lat="47.28058" lon="12.32351">
    <ele>1493.1</ele>
    <name>straight_66</name>
  </wpt>
  <wpt lat="47.28063" lon="12.32358">
    <ele>1494.17</ele>
    <name>straight_67</name>
  </wpt>
  <wpt lat="47.28076" lon="12.3237">
    <ele>1496.46</ele>
    <name>straight_68</name>
  </wpt>
  <wpt lat="47.28058" lon="12.32391">
    <ele>1486.37</ele>
    <name>straight_1</name>
  </wpt>
  <wpt lat="47.28044" lon="12.32387">
    <ele>1483.18</ele>
    <name>straight_2</name>
  </wpt>
  <wpt lat="47.2804" lon="12.32381">
    <ele>1482.52</ele>
    <name>straight_3</name>
  </wpt>
  <wpt lat="47.28036" lon="12.32367">
    <ele>1481.9</ele>
    <name>straight_4</name>
  </wpt>
  <wpt lat="47.28032" lon="12.32328">
    <ele>1481.9</ele>
    <name>straight_5</name>
  </wpt>
  <wpt lat="47.28028" lon="12.32308">
    <ele>1480.61</ele>
    <name>straight_6</name>
  </wpt>
  <wpt lat="47.28019" lon="12.32271">
    <ele>1478.04</ele>
    <name>straight_7</name>
  </wpt>
  <wpt lat="47.28017" lon="12.32255">
    <ele>1479.14</ele>
    <name>straight_8</name>
  </wpt>
  <wpt lat="47.28012" lon="12.32239">
    <ele>1479.69</ele>
    <name>straight_9</name>
  </wpt>
  <wpt lat="47.28001" lon="12.32221">
    <ele>1478.75</ele>
    <name>straight_10</name>
  </wpt>
  <wpt lat="47.27993" lon="12.32209">
    <ele>1477.96</ele>
    <name>straight_11</name>
  </wpt>
  <wpt lat="47.27963" lon="12.32171">
    <ele>1470.16</ele>
    <name>straight_12</name>
  </wpt>
  <wpt lat="47.2796" lon="12.32162">
    <ele>1470.66</ele>
    <name>straight_13</name>
  </wpt>
  <wpt lat="47.27955" lon="12.3214">
    <ele>1474.39</ele>
    <name>straight_14</name>
  </wpt>
  <wpt lat="47.2795" lon="12.32132">
    <ele>1474.56</ele>
    <name>straight_15</name>
  </wpt>
  <wpt lat="47.27937" lon="12.32126">
    <ele>1470.8</ele>
    <name>straight_16</name>
  </wpt>
  <wpt lat="47.27903" lon="12.32111">
    <ele>1463.75</ele>
    <name>straight_17</name>
  </wpt>
  <wpt lat="47.27891" lon="12.32105">
    <ele>1461.57</ele>
    <name>straight_18</name>
  </wpt>
  <wpt lat="47.27849" lon="12.3207">
    <ele>1456.1</ele>
    <name>straight_19</name>
  </wpt>
  <wpt lat="47.27834" lon="12.32055">
    <ele>1455.23</ele>
    <name>straight_20</name>
  </wpt>
  <wpt lat="47.27824" lon="12.32042">
    <ele>1455.9</ele>
    <name>straight_21</name>
  </wpt>
  <wpt lat="47.27803" lon="12.32022">
    <ele>1455.1</ele>
    <name>straight_22</name>
  </wpt>
  <wpt lat="47.2776" lon="12.31996">
    <ele>1446.62</ele>
    <name>straight_23</name>
  </wpt>
  <wpt lat="47.2775" lon="12.31988">
    <ele>1444.19</ele>
    <name>straight_24</name>
  </wpt>
  <wpt lat="47.27725" lon="12.31957">
    <ele>1438.42</ele>
    <name>straight_25</name>
  </wpt>
  <wpt lat="47.27694" lon="12.31914">
    <ele>1434.42</ele>
    <name>straight_26</name>
  </wpt>
  <wpt lat="47.27665" lon="12.31881">
    <ele>1427.93</ele>
    <name>straight_27</name>
  </wpt>
  <wpt lat="47.27644" lon="12.31849">
    <ele>1423.32</ele>
    <name>straight_28</name>
  </wpt>
  <wpt lat="47.27622" lon="12.31811">
    <ele>1422.35</ele>
    <name>straight_29</name>
  </wpt>
  <wpt lat="47.27605" lon="12.31785">
    <ele>1421.0</ele>
    <name>straight_30</name>
  </wpt>
  <wpt lat="47.27597" lon="12.31777">
    <ele>1419.68</ele>
    <name>straight_31</name>
  </wpt>
  <wpt lat="47.27577" lon="12.31764">
    <ele>1415.09</ele>
    <name>straight_32</name>
  </wpt>
  <wpt lat="47.27567" lon="12.31756">
    <ele>1413.12</ele>
    <name>straight_33</name>
  </wpt>
  <wpt lat="47.27556" lon="12.3174">
    <ele>1412.43</ele>
    <name>straight_34</name>
  </wpt>
  <wpt lat="47.27554" lon="12.31735">
    <ele>1412.69</ele>
    <name>straight_35</name>
  </wpt>
  <wpt lat="47.27547" lon="12.31723">
    <ele>1412.67</ele>
    <name>straight_36</name>
  </wpt>
  <wpt lat="47.27527" lon="12.31695">
    <ele>1410.82</ele>
    <name>straight_37</name>
  </wpt>
  <wpt lat="47.27518" lon="12.31678">
    <ele>1410.66</ele>
    <name>straight_38</name>
  </wpt>
  <wpt lat="47.27505" lon="12.31662">
    <ele>1409.11</ele>
    <name>straight_39</name>
  </wpt>
  <wpt lat="47.27492" lon="12.31651">
    <ele>1406.85</ele>
    <name>straight_40</name>
  </wpt>
  <wpt lat="47.27482" lon="12.31645">
    <ele>1404.47</ele>
    <name>straight_41</name>
  </wpt>
  <wpt lat="47.27472" lon="12.31637">
    <ele>1402.65</ele>
    <name>straight_42</name>
  </wpt>
  <wpt lat="47.27453" lon="12.31618">
    <ele>1400.1</ele>
    <name>straight_43</name>
  </wpt>
  <wpt lat="47.27442" lon="12.31606">
    <ele>1398.65</ele>
    <name>straight_44</name>
  </wpt>
  <wpt lat="47.27432" lon="12.31587">
    <ele>1399.17</ele>
    <name>straight_45</name>
  </wpt>
  <wpt lat="47.27422" lon="12.31575">
    <ele>1397.91</ele>
    <name>straight_46</name>
  </wpt>
  <wpt lat="47.27411" lon="12.31569">
    <ele>1395.15</ele>
    <name>straight_47</name>
  </wpt>
  <wpt lat="47.27401" lon="12.31561">
    <ele>1393.38</ele>
    <name>straight_48</name>
  </wpt>
  <wpt lat="47.27381" lon="12.31531">
    <ele>1390.44</ele>
    <name>straight_49</name>
  </wpt>
  <wpt lat="47.27375" lon="12.31517">
    <ele>1389.06</ele>
    <name>straight_50</name>
  </wpt>
  <wpt lat="47.27373" lon="12.31508">
    <ele>1388.87</ele>
    <name>straight_51</name>
  </wpt>
  <wpt lat="47.27369" lon="12.31475">
    <ele>1389.7</ele>
    <name>straight_52</name>
  </wpt>
  <wpt lat="47.27365" lon="12.31464">
    <ele>1388.59</ele>
    <name>straight_53</name>
  </wpt>
  <wpt lat="47.2736" lon="12.31451">
    <ele>1387.46</ele>
    <name>straight_54</name>
  </wpt>
  <wpt lat="47.27354" lon="12.3144">
    <ele>1386.15</ele>
    <name>straight_55</name>
  </wpt>
  <wpt lat="47.27341" lon="12.31425">
    <ele>1383.63</ele>
    <name>straight_56</name>
  </wpt>
  <wpt lat="47.27327" lon="12.31431">
    <ele>1378.27</ele>
    <name>straight_1</name>
  </wpt>
  <wpt lat="47.27332" lon="12.3144">
    <ele>1377.9</ele>
    <name>straight_2</name>
  </wpt>
  <wpt lat="47.27339" lon="12.3145">
    <ele>1378.67</ele>
    <name>straight_3</name>
  </wpt>
  <wpt lat="47.27343" lon="12.31456">
    <ele>1379.42</ele>
    <name>straight_4</name>
  </wpt>
  <wpt lat="47.27345" lon="12.3147">
    <ele>1378.66</ele>
    <name>straight_5</name>
  </wpt>
  <wpt lat="47.27346" lon="12.31484">
    <ele>1377.81</ele>
    <name>straight_6</name>
  </wpt>
  <wpt lat="47.27345" lon="12.31505">
    <ele>1375.75</ele>
    <name>straight_7</name>
  </wpt>
  <wpt lat="47.27339" lon="12.31545">
    <ele>1373.1</ele>
    <name>straight_8</name>
  </wpt>
  <wpt lat="47.27333" lon="12.31563">
    <ele>1370.84</ele>
    <name>straight_9</name>
  </wpt>
  <wpt lat="47.27329" lon="12.31574">
    <ele>1368.87</ele>
    <name>straight_10</name>
  </wpt>
  <wpt lat="47.27327" lon="12.31586">
    <ele>1367.11</ele>
    <name>straight_11</name>
  </wpt>
  <wpt lat="47.27326" lon="12.316">
    <ele>1365.04</ele>
    <name>straight_12</name>
  </wpt>
  <wpt lat="47.27327" lon="12.31614">
    <ele>1363.39</ele>
    <name>straight_13</name>
  </wpt>
  <wpt lat="47.27338" lon="12.31641">
    <ele>1362.16</ele>
    <name>straight_14</name>
  </wpt>
  <wpt lat="47.27345" lon="12.31655">
    <ele>1360.97</ele>
    <name>straight_15</name>
  </wpt>
  <wpt lat="47.2736" lon="12.31671">
    <ele>1360.5</ele>
    <name>straight_16</name>
  </wpt>
  <wpt lat="47.27366" lon="12.3168">
    <ele>1359.28</ele>
    <name>straight_17</name>
  </wpt>
  <wpt lat="47.27371" lon="12.31696">
    <ele>1355.6</ele>
    <name>straight_18</name>
  </wpt>
  <wpt lat="47.27379" lon="12.31711">
    <ele>1352.58</ele>
    <name>straight_19</name>
  </wpt>
  <wpt lat="47.27389" lon="12.31721">
    <ele>1351.7</ele>
    <name>straight_20</name>
  </wpt>
  <wpt lat="47.27399" lon="12.31726">
    <ele>1352.72</ele>
    <name>straight_21</name>
  </wpt>
  <wpt lat="47.27405" lon="12.31731">
    <ele>1353.08</ele>
    <name>straight_22</name>
  </wpt>
  <wpt lat="47.27409" lon="12.31751">
    <ele>1350.16</ele>
    <name>straight_23</name>
  </wpt>
  <wpt lat="47.27409" lon="12.31768">
    <ele>1347.97</ele>
    <name>straight_24</name>
  </wpt>
  <wpt lat="47.27409" lon="12.31774">
    <ele>1347.44</ele>
    <name>straight_25</name>
  </wpt>
  <wpt lat="47.27406" lon="12.31784">
    <ele>1345.55</ele>
    <name>straight_26</name>
  </wpt>
  <wpt lat="47.27404" lon="12.31795">
    <ele>1344.01</ele>
    <name>straight_27</name>
  </wpt>
  <wpt lat="47.27404" lon="12.31803">
    <ele>1343.5</ele>
    <name>straight_28</name>
  </wpt>
  <wpt lat="47.27418" lon="12.3189">
    <ele>1339.02</ele>
    <name>straight_29</name>
  </wpt>
  <wpt lat="47.27425" lon="12.31926">
    <ele>1335.61</ele>
    <name>straight_30</name>
  </wpt>
  <wpt lat="47.27431" lon="12.31948">
    <ele>1333.85</ele>
    <name>straight_31</name>
  </wpt>
  <wpt lat="47.27442" lon="12.32002">
    <ele>1329.23</ele>
    <name>straight_32</name>
  </wpt>
  <wpt lat="47.27444" lon="12.32019">
    <ele>1328.52</ele>
    <name>straight_33</name>
  </wpt>
  <wpt lat="47.27446" lon="12.32057">
    <ele>1327.6</ele>
    <name>straight_34</name>
  </wpt>
  <wpt lat="47.27445" lon="12.32103">
    <ele>1323.24</ele>
    <name>straight_35</name>
  </wpt>
  <wpt lat="47.27446" lon="12.32116">
    <ele>1321.95</ele>
    <name>straight_36</name>
  </wpt>
  <wpt lat="47.27448" lon="12.32131">
    <ele>1320.46</ele>
    <name>straight_37</name>
  </wpt>
  <wpt lat="47.27459" lon="12.32178">
    <ele>1315.58</ele>
    <name>straight_38</name>
  </wpt>
  <wpt lat="47.27468" lon="12.32197">
    <ele>1314.41</ele>
    <name>straight_39</name>
  </wpt>
  <wpt lat="47.27478" lon="12.32207">
    <ele>1315.19</ele>
    <name>straight_40</name>
  </wpt>
  <wpt lat="47.27485" lon="12.32213">
    <ele>1316.09</ele>
    <name>straight_41</name>
  </wpt>
  <wpt lat="47.27489" lon="12.32218">
    <ele>1316.41</ele>
    <name>straight_42</name>
  </wpt>
  <wpt lat="47.27493" lon="12.32228">
    <ele>1316.0</ele>
    <name>straight_43</name>
  </wpt>
  <wpt lat="47.27496" lon="12.32248">
    <ele>1313.9</ele>
    <name>straight_44</name>
  </wpt>
  <wpt lat="47.275" lon="12.32264">
    <ele>1313.35</ele>
    <name>straight_45</name>
  </wpt>
  <wpt lat="47.27502" lon="12.3228">
    <ele>1312.75</ele>
    <name>straight_46</name>
  </wpt>
  <wpt lat="47.27503" lon="12.32297">
    <ele>1311.78</ele>
    <name>straight_47</name>
  </wpt>
  <wpt lat="47.27501" lon="12.32325">
    <ele>1307.25</ele>
    <name>straight_48</name>
  </wpt>
  <wpt lat="47.27502" lon="12.32336">
    <ele>1305.04</ele>
    <name>straight_49</name>
  </wpt>
  <wpt lat="47.27505" lon="12.32345">
    <ele>1303.34</ele>
    <name>straight_50</name>
  </wpt>
  <wpt lat="47.27508" lon="12.32352">
    <ele>1301.85</ele>
    <name>straight_51</name>
  </wpt>
  <wpt lat="47.27529" lon="12.3237">
    <ele>1301.13</ele>
    <name>straight_52</name>
  </wpt>
  <wpt lat="47.27552" lon="12.32389">
    <ele>1300.26</ele>
    <name>straight_53</name>
  </wpt>
  <wpt lat="47.2756" lon="12.32398">
    <ele>1299.59</ele>
    <name>straight_54</name>
  </wpt>
  <wpt lat="47.27575" lon="12.32424">
    <ele>1298.62</ele>
    <name>straight_55</name>
  </wpt>
  <wpt lat="47.27579" lon="12.32432">
    <ele>1299.3</ele>
    <name>straight_56</name>
  </wpt>
  <wpt lat="47.27581" lon="12.32439">
    <ele>1299.66</ele>
    <name>straight_57</name>
  </wpt>
  <wpt lat="47.2758" lon="12.32447">
    <ele>1299.05</ele>
    <name>straight_58</name>
  </wpt>
  <wpt lat="47.27578" lon="12.32456">
    <ele>1298.21</ele>
    <name>straight_59</name>
  </wpt>
  <wpt lat="47.27563" lon="12.32481">
    <ele>1291.21</ele>
    <name>straight_60</name>
  </wpt>
  <wpt lat="47.27559" lon="12.3249">
    <ele>1288.7</ele>
    <name>straight_61</name>
  </wpt>
  <wpt lat="47.27557" lon="12.325">
    <ele>1286.73</ele>
    <name>straight_62</name>
  </wpt>
  <wpt lat="47.27556" lon="12.3251">
    <ele>1285.01</ele>
    <name>straight_63</name>
  </wpt>
  <wpt lat="47.27558" lon="12.32538">
    <ele>1282.05</ele>
    <name>straight_64</name>
  </wpt>
  <wpt lat="47.27555" lon="12.32546">
    <ele>1279.61</ele>
    <name>straight_65</name>
  </wpt>
  <wpt lat="47.27549" lon="12.32556">
    <ele>1275.96</ele>
    <name>straight_66</name>
  </wpt>
  <wpt lat="47.27544" lon="12.32554">
    <ele>1274.41</ele>
    <name>straight_67</name>
  </wpt>
  <wpt lat="47.27526" lon="12.32537">
    <ele>1267.94</ele>
    <name>straight_68</name>
  </wpt>
  <wpt lat="47.27521" lon="12.32527">
    <ele>1265.6</ele>
    <name>straight_69</name>
  </wpt>
  <wpt lat="47.27514" lon="12.32524">
    <ele>1262.11</ele>
    <name>straight_70</name>
  </wpt>
  <wpt lat="47.27517" lon="12.32507">
    <ele>1264.01</ele>
    <name>straight_71</name>
  </wpt>
  <wpt lat="47.27518" lon="12.32493">
    <ele>1265.8</ele>
    <name>straight_72</name>
  </wpt>
  <wpt lat="47.27516" lon="12.32484">
    <ele>1265.74</ele>
    <name>straight_73</name>
  </wpt>
  <wpt lat="47.27514" lon="12.32472">
    <ele>1266.28</ele>
    <name>straight_74</name>
  </wpt>
  <wpt lat="47.27509" lon="12.32459">
    <ele>1266.09</ele>
    <name>straight_75</name>
  </wpt>
  <wpt lat="47.27505" lon="12.32452">
    <ele>1265.8</ele>
    <name>straight_76</name>
  </wpt>
  <wpt lat="47.27501" lon="12.32449">
    <ele>1264.91</ele>
    <name>straight_77</name>
  </wpt>
  <wpt lat="47.27492" lon="12.32444">
    <ele>1262.8</ele>
    <name>straight_78</name>
  </wpt>
  <wpt lat="47.27482" lon="12.32439">
    <ele>1260.62</ele>
    <name>straight_79</name>
  </wpt>
  <wpt lat="47.27462" lon="12.32429">
    <ele>1257.03</ele>
    <name>straight_80</name>
  </wpt>
  <wpt lat="47.27452" lon="12.32425">
    <ele>1255.25</ele>
    <name>straight_81</name>
  </wpt>
  <wpt lat="47.27444" lon="12.32426">
    <ele>1252.67</ele>
    <name>straight_82</name>
  </wpt>
  <wpt lat="47.27432" lon="12.32429">
    <ele>1248.6</ele>
    <name>straight_83</name>
  </wpt>
  <wpt lat="47.27429" lon="12.32427">
    <ele>1248.52</ele>
    <name>straight_84</name>
  </wpt>
  <wpt lat="47.27424" lon="12.32424">
    <ele>1248.33</ele>
    <name>straight_85</name>
  </wpt>
  <wpt lat="47.2742" lon="12.32418">
    <ele>1249.28</ele>
    <name>straight_86</name>
  </wpt>
  <wpt lat="47.27412" lon="12.32398">
    <ele>1253.05</ele>
    <name>straight_87</name>
  </wpt>
  <wpt lat="47.27407" lon="12.32391">
    <ele>1253.95</ele>
    <name>straight_88</name>
  </wpt>
  <wpt lat="47.27403" lon="12.32387">
    <ele>1254.37</ele>
    <name>straight_89</name>
  </wpt>
  <wpt lat="47.27396" lon="12.32388">
    <ele>1253.48</ele>
    <name>straight_90</name>
  </wpt>
  <wpt lat="47.27375" lon="12.32392">
    <ele>1251.53</ele>
    <name>straight_91</name>
  </wpt>
  <wpt lat="47.27368" lon="12.32394">
    <ele>1250.8</ele>
    <name>straight_92</name>
  </wpt>
  <wpt lat="47.27363" lon="12.32397">
    <ele>1249.82</ele>
    <name>straight_93</name>
  </wpt>
  <wpt lat="47.27348" lon="12.32421">
    <ele>1241.55</ele>
    <name>straight_94</name>
  </wpt>
  <wpt lat="47.27346" lon="12.32423">
    <ele>1240.65</ele>
    <name>straight_95</name>
  </wpt>
  <wpt lat="47.27334" lon="12.32428">
    <ele>1237.2</ele>
    <name>straight_96</name>
  </wpt>
  <wpt lat="47.27326" lon="12.32428">
    <ele>1235.8</ele>
    <name>straight_97</name>
  </wpt>
  <wpt lat="47.27314" lon="12.32424">
    <ele>1234.97</ele>
    <name>straight_98</name>
  </wpt>
  <wpt lat="47.27292" lon="12.32413">
    <ele>1233.59</ele>
    <name>straight_99</name>
  </wpt>
  <wpt lat="47.27279" lon="12.32402">
    <ele>1233.2</ele>
    <name>straight_100</name>
  </wpt>
  <wpt lat="47.27261" lon="12.32397">
    <ele>1229.02</ele>
    <name>straight_101</name>
  </wpt>
  <wpt lat="47.27232" lon="12.32369">
    <ele>1226.06</ele>
    <name>straight_102</name>
  </wpt>
  <wpt lat="47.27224" lon="12.32364">
    <ele>1224.5</ele>
    <name>straight_103</name>
  </wpt>
  <wpt lat="47.272" lon="12.32359">
    <ele>1217.0</ele>
    <name>straight_104</name>
  </wpt>
  <wpt lat="47.27193" lon="12.32353">
    <ele>1216.14</ele>
    <name>straight_105</name>
  </wpt>
  <wpt lat="47.27172" lon="12.32325">
    <ele>1214.44</ele>
    <name>straight_106</name>
  </wpt>
  <wpt lat="47.27145" lon="12.32277">
    <ele>1209.17</ele>
    <name>straight_107</name>
  </wpt>
  <wpt lat="47.27139" lon="12.32264">
    <ele>1208.81</ele>
    <name>straight_108</name>
  </wpt>
  <wpt lat="47.27134" lon="12.32257">
    <ele>1207.88</ele>
    <name>straight_109</name>
  </wpt>
  <wpt lat="47.27123" lon="12.32247">
    <ele>1204.61</ele>
    <name>straight_110</name>
  </wpt>
  <wpt lat="47.2712" lon="12.32242">
    <ele>1203.69</ele>
    <name>straight_111</name>
  </wpt>
  <wpt lat="47.27118" lon="12.32237">
    <ele>1202.97</ele>
    <name>straight_112</name>
  </wpt>
  <wpt lat="47.27117" lon="12.3222">
    <ele>1201.8</ele>
    <name>straight_113</name>
  </wpt>
  <wpt lat="47.27117" lon="12.32201">
    <ele>1199.78</ele>
    <name>straight_114</name>
  </wpt>
  <wpt lat="47.27115" lon="12.32152">
    <ele>1197.55</ele>
    <name>straight_115</name>
  </wpt>
  <wpt lat="47.27114" lon="12.32145">
    <ele>1197.76</ele>
    <name>straight_116</name>
  </wpt>
  <wpt lat="47.27113" lon="12.32143">
    <ele>1197.44</ele>
    <name>straight_117</name>
  </wpt>
  <wpt lat="47.2711" lon="12.3214">
    <ele>1196.16</ele>
    <name>straight_118</name>
  </wpt>
  <wpt lat="47.27096" lon="12.32131">
    <ele>1190.44</ele>
    <name>straight_119</name>
  </wpt>
  <wpt lat="47.27091" lon="12.32125">
    <ele>1189.45</ele>
    <name>straight_120</name>
  </wpt>
  <wpt lat="47.27085" lon="12.32115">
    <ele>1189.29</ele>
    <name>straight_121</name>
  </wpt>
  <wpt lat="47.27081" lon="12.32102">
    <ele>1190.74</ele>
    <name>straight_122</name>
  </wpt>
  <wpt lat="47.27078" lon="12.32088">
    <ele>1192.11</ele>
    <name>straight_123</name>
  </wpt>
  <wpt lat="47.27071" lon="12.32054">
    <ele>1190.68</ele>
    <name>straight_124</name>
  </wpt>
  <wpt lat="47.27069" lon="12.3204">
    <ele>1189.33</ele>
    <name>straight_125</name>
  </wpt>
  <wpt lat="47.27053" lon="12.31979">
    <ele>1184.91</ele>
    <name>straight_126</name>
  </wpt>
  <wpt lat="47.27046" lon="12.31961">
    <ele>1185.5</ele>
    <name>straight_127</name>
  </wpt>
  <wpt lat="47.27042" lon="12.31952">
    <ele>1185.89</ele>
    <name>straight_128</name>
  </wpt>
  <wpt lat="47.27032" lon="12.31941">
    <ele>1184.44</ele>
    <name>straight_129</name>
  </wpt>
  <wpt lat="47.27016" lon="12.31937">
    <ele>1178.79</ele>
    <name>straight_130</name>
  </wpt>
  <wpt lat="47.26998" lon="12.31926">
    <ele>1173.01</ele>
    <name>straight_131</name>
  </wpt>
  <wpt lat="47.26993" lon="12.31923">
    <ele>1171.07</ele>
    <name>straight_132</name>
  </wpt>
  <wpt lat="47.26985" lon="12.31906">
    <ele>1170.14</ele>
    <name>straight_133</name>
  </wpt>
  <wpt lat="47.26975" lon="12.31923">
    <ele>1161.08</ele>
    <name>straight_1</name>
  </wpt>
  <wpt lat="47.26981" lon="12.31933">
    <ele>1162.44</ele>
    <name>straight_2</name>
  </wpt>
  <wpt lat="47.27002" lon="12.3196">
    <ele>1166.65</ele>
    <name>straight_3</name>
  </wpt>
  <wpt lat="47.27006" lon="12.31968">
    <ele>1166.55</ele>
    <name>straight_4</name>
  </wpt>
  <wpt lat="47.27008" lon="12.31979">
    <ele>1164.98</ele>
    <name>straight_5</name>
  </wpt>
  <wpt lat="47.27009" lon="12.31991">
    <ele>1163.17</ele>
    <name>straight_6</name>
  </wpt>
  <wpt lat="47.27007" lon="12.32006">
    <ele>1160.45</ele>
    <name>straight_7</name>
  </wpt>
  <wpt lat="47.27002" lon="12.32015">
    <ele>1157.8</ele>
    <name>straight_8</name>
  </wpt>
  <wpt lat="47.26985" lon="12.32044">
    <ele>1151.35</ele>
    <name>straight_9</name>
  </wpt>
  <wpt lat="47.26983" lon="12.32049">
    <ele>1150.8</ele>
    <name>straight_10</name>
  </wpt>
  <wpt lat="47.26982" lon="12.32054">
    <ele>1150.61</ele>
    <name>straight_11</name>
  </wpt>
  <wpt lat="47.26982" lon="12.3206">
    <ele>1150.77</ele>
    <name>straight_12</name>
  </wpt>
  <wpt lat="47.26984" lon="12.32069">
    <ele>1151.58</ele>
    <name>straight_13</name>
  </wpt>
  <wpt lat="47.27002" lon="12.321">
    <ele>1155.96</ele>
    <name>straight_14</name>
  </wpt>
  <wpt lat="47.27018" lon="12.32116">
    <ele>1159.61</ele>
    <name>straight_15</name>
  </wpt>
  <wpt lat="47.27024" lon="12.32124">
    <ele>1160.33</ele>
    <name>straight_16</name>
  </wpt>
  <wpt lat="47.27027" lon="12.3213">
    <ele>1160.18</ele>
    <name>straight_17</name>
  </wpt>
  <wpt lat="47.2703" lon="12.32149">
    <ele>1157.16</ele>
    <name>straight_18</name>
  </wpt>
  <wpt lat="47.27035" lon="12.32205">
    <ele>1153.9</ele>
    <name>straight_19</name>
  </wpt>
  <wpt lat="47.27035" lon="12.3221">
    <ele>1153.81</ele>
    <name>straight_20</name>
  </wpt>
  <wpt lat="47.27021" lon="12.32245">
    <ele>1142.07</ele>
    <name>straight_21</name>
  </wpt>
  <wpt lat="47.27021" lon="12.32254">
    <ele>1140.83</ele>
    <name>straight_22</name>
  </wpt>
  <wpt lat="47.27022" lon="12.32268">
    <ele>1139.22</ele>
    <name>straight_23</name>
  </wpt>
  <wpt lat="47.27024" lon="12.32284">
    <ele>1137.43</ele>
    <name>straight_24</name>
  </wpt>
  <wpt lat="47.27028" lon="12.32299">
    <ele>1136.45</ele>
    <name>straight_25</name>
  </wpt>
  <wpt lat="47.27044" lon="12.32334">
    <ele>1136.18</ele>
    <name>straight_26</name>
  </wpt>
  <wpt lat="47.27045" lon="12.32343">
    <ele>1135.67</ele>
    <name>straight_27</name>
  </wpt>
  <wpt lat="47.27041" lon="12.32431">
    <ele>1129.87</ele>
    <name>straight_28</name>
  </wpt>
  <wpt lat="47.27042" lon="12.32439">
    <ele>1128.08</ele>
    <name>straight_29</name>
  </wpt>
  <wpt lat="47.27044" lon="12.32447">
    <ele>1126.29</ele>
    <name>straight_30</name>
  </wpt>
  <wpt lat="47.27049" lon="12.32456">
    <ele>1124.65</ele>
    <name>straight_31</name>
  </wpt>
  <wpt lat="47.27086" lon="12.32478">
    <ele>1125.16</ele>
    <name>straight_32</name>
  </wpt>
  <wpt lat="47.27098" lon="12.32491">
    <ele>1123.67</ele>
    <name>straight_33</name>
  </wpt>
  <wpt lat="47.27108" lon="12.32505">
    <ele>1122.6</ele>
    <name>straight_34</name>
  </wpt>
  <wpt lat="47.27123" lon="12.32533">
    <ele>1118.82</ele>
    <name>straight_35</name>
  </wpt>
  <wpt lat="47.27139" lon="12.32551">
    <ele>1116.54</ele>
    <name>straight_36</name>
  </wpt>
  <wpt lat="47.27154" lon="12.3257">
    <ele>1112.88</ele>
    <name>straight_37</name>
  </wpt>
  <wpt lat="47.27173" lon="12.32607">
    <ele>1110.23</ele>
    <name>straight_38</name>
  </wpt>
  <wpt lat="47.2718" lon="12.32621">
    <ele>1111.7</ele>
    <name>straight_39</name>
  </wpt>
  <wpt lat="47.27185" lon="12.32634">
    <ele>1112.18</ele>
    <name>straight_40</name>
  </wpt>
  <wpt lat="47.27192" lon="12.32674">
    <ele>1106.57</ele>
    <name>straight_41</name>
  </wpt>
  <wpt lat="47.27209" lon="12.32739">
    <ele>1100.34</ele>
    <name>straight_42</name>
  </wpt>
  <wpt lat="47.27225" lon="12.3278">
    <ele>1098.12</ele>
    <name>straight_43</name>
  </wpt>
  <wpt lat="47.27254" lon="12.32833">
    <ele>1094.77</ele>
    <name>straight_44</name>
  </wpt>
  <wpt lat="47.2727" lon="12.32874">
    <ele>1094.07</ele>
    <name>straight_45</name>
  </wpt>
  <wpt lat="47.27277" lon="12.32885">
    <ele>1094.3</ele>
    <name>straight_46</name>
  </wpt>
  <wpt lat="47.27282" lon="12.32891">
    <ele>1094.35</ele>
    <name>straight_47</name>
  </wpt>
  <wpt lat="47.27291" lon="12.32898">
    <ele>1094.6</ele>
    <name>straight_48</name>
  </wpt>
  <wpt lat="47.27292" lon="12.32902">
    <ele>1093.68</ele>
    <name>straight_49</name>
  </wpt>
  <wpt lat="47.27291" lon="12.32911">
    <ele>1090.84</ele>
    <name>straight_50</name>
  </wpt>
  <wpt lat="47.27289" lon="12.32915">
    <ele>1089.26</ele>
    <name>straight_51</name>
  </wpt>
  <wpt lat="47.27285" lon="12.32918">
    <ele>1087.68</ele>
    <name>straight_52</name>
  </wpt>
  <wpt lat="47.27276" lon="12.32919">
    <ele>1085.94</ele>
    <name>straight_53</name>
  </wpt>
  <wpt lat="47.27244" lon="12.32917">
    <ele>1079.15</ele>
    <name>straight_54</name>
  </wpt>
  <wpt lat="47.2724" lon="12.32914">
    <ele>1078.7</ele>
    <name>straight_55</name>
  </wpt>
  <wpt lat="47.27233" lon="12.32909">
    <ele>1077.54</ele>
    <name>straight_56</name>
  </wpt>
  <wpt lat="47.27223" lon="12.32896">
    <ele>1076.21</ele>
    <name>straight_57</name>
  </wpt>
  <wpt lat="47.27211" lon="12.32904">
    <ele>1070.59</ele>
    <name>straight_1</name>
  </wpt>
  <wpt lat="47.27213" lon="12.3291">
    <ele>1070.16</ele>
    <name>straight_2</name>
  </wpt>
  <wpt lat="47.2722" lon="12.32921">
    <ele>1069.92</ele>
    <name>straight_3</name>
  </wpt>
  <wpt lat="47.27234" lon="12.32936">
    <ele>1069.69</ele>
    <name>straight_4</name>
  </wpt>
  <wpt lat="47.27253" lon="12.3295">
    <ele>1069.69</ele>
    <name>straight_5</name>
  </wpt>
  <wpt lat="47.27259" lon="12.32951">
    <ele>1070.74</ele>
    <name>straight_6</name>
  </wpt>
  <wpt lat="47.27273" lon="12.32965">
    <ele>1067.64</ele>
    <name>straight_1</name>
  </wpt>
  <wpt lat="47.2727" lon="12.32968">
    <ele>1065.75</ele>
    <name>straight_2</name>
  </wpt>
  <wpt lat="47.27266" lon="12.3297">
    <ele>1064.02</ele>
    <name>straight_3</name>
  </wpt>
  <wpt lat="47.2724" lon="12.32964">
    <ele>1059.7</ele>
    <name>straight_4</name>
  </wpt>
  <wpt lat="47.27214" lon="12.32954">
    <ele>1055.02</ele>
    <name>straight_5</name>
  </wpt>
  <wpt lat="47.27208" lon="12.32952">
    <ele>1053.6</ele>
    <name>straight_6</name>
  </wpt>
  <wpt lat="47.27199" lon="12.32944">
    <ele>1053.48</ele>
    <name>straight_7</name>
  </wpt>
  <wpt lat="47.27187" lon="12.32934">
    <ele>1052.61</ele>
    <name>straight_8</name>
  </wpt>
  <wpt lat="47.27177" lon="12.32922">
    <ele>1052.64</ele>
    <name>straight_9</name>
  </wpt>
  <wpt lat="47.27167" lon="12.32907">
    <ele>1052.5</ele>
    <name>straight_10</name>
  </wpt>
  <wpt lat="47.27163" lon="12.32897">
    <ele>1052.85</ele>
    <name>straight_11</name>
  </wpt>
  <wpt lat="47.27156" lon="12.32888">
    <ele>1051.39</ele>
    <name>straight_12</name>
  </wpt>
  <wpt lat="47.27151" lon="12.32883">
    <ele>1049.96</ele>
    <name>straight_13</name>
  </wpt>
  <wpt lat="47.27142" lon="12.32871">
    <ele>1047.64</ele>
    <name>straight_14</name>
  </wpt>
  <wpt lat="47.27137" lon="12.32859">
    <ele>1047.09</ele>
    <name>straight_15</name>
  </wpt>
  <wpt lat="47.27135" lon="12.32844">
    <ele>1048.52</ele>
    <name>straight_16</name>
  </wpt>
  <wpt lat="47.27132" lon="12.32834">
    <ele>1049.05</ele>
    <name>straight_17</name>
  </wpt>
  <wpt lat="47.27128" lon="12.32824">
    <ele>1049.46</ele>
    <name>straight_18</name>
  </wpt>
  <wpt lat="47.27122" lon="12.32816">
    <ele>1048.92</ele>
    <name>straight_19</name>
  </wpt>
  <wpt lat="47.27114" lon="12.32811">
    <ele>1047.23</ele>
    <name>straight_20</name>
  </wpt>
  <wpt lat="47.27106" lon="12.32811">
    <ele>1044.39</ele>
    <name>straight_21</name>
  </wpt>
  <wpt lat="47.27095" lon="12.32809">
    <ele>1041.14</ele>
    <name>straight_22</name>
  </wpt>
  <wpt lat="47.27066" lon="12.32801">
    <ele>1033.98</ele>
    <name>straight_23</name>
  </wpt>
  <wpt lat="47.27057" lon="12.32796">
    <ele>1032.77</ele>
    <name>straight_24</name>
  </wpt>
  <wpt lat="47.27037" lon="12.32779">
    <ele>1031.9</ele>
    <name>straight_25</name>
  </wpt>
  <wpt lat="47.27021" lon="12.32763">
    <ele>1031.07</ele>
    <name>straight_26</name>
  </wpt>
  <wpt lat="47.27014" lon="12.32755">
    <ele>1030.51</ele>
    <name>straight_27</name>
  </wpt>
  <wpt lat="47.27005" lon="12.32741">
    <ele>1029.96</ele>
    <name>straight_28</name>
  </wpt>
  <wpt lat="47.26989" lon="12.32748">
    <ele>1021.73</ele>
    <name>straight_1</name>
  </wpt>
  <wpt lat="47.26992" lon="12.32756">
    <ele>1021.26</ele>
    <name>straight_2</name>
  </wpt>
  <wpt lat="47.26998" lon="12.32766">
    <ele>1021.23</ele>
    <name>straight_3</name>
  </wpt>
  <wpt lat="47.27005" lon="12.32773">
    <ele>1022.03</ele>
    <name>straight_4</name>
  </wpt>
  <wpt lat="47.27031" lon="12.32807">
    <ele>1020.66</ele>
    <name>straight_5</name>
  </wpt>
  <wpt lat="47.27052" lon="12.32838">
    <ele>1018.48</ele>
    <name>straight_6</name>
  </wpt>
  <wpt lat="47.2706" lon="12.32852">
    <ele>1017.89</ele>
    <name>straight_7</name>
  </wpt>
  <wpt lat="47.27066" lon="12.32869">
    <ele>1016.61</ele>
    <name>straight_8</name>
  </wpt>
  <wpt lat="47.27074" lon="12.32895">
    <ele>1014.78</ele>
    <name>straight_9</name>
  </wpt>
  <wpt lat="47.27088" lon="12.32953">
    <ele>1008.23</ele>
    <name>straight_10</name>
  </wpt>
  <wpt lat="47.27092" lon="12.32963">
    <ele>1007.43</ele>
    <name>straight_11</name>
  </wpt>
  <wpt lat="47.27102" lon="12.32974">
    <ele>1008.04</ele>
    <name>straight_12</name>
  </wpt>
  <wpt lat="47.27126" lon="12.32996">
    <ele>1008.25</ele>
    <name>straight_13</name>
  </wpt>
  <wpt lat="47.27133" lon="12.33001">
    <ele>1008.38</ele>
    <name>straight_14</name>
  </wpt>
  <wpt lat="47.27151" lon="12.33023">
    <ele>1005.4</ele>
    <name>straight_1</name>
  </wpt>
  <wpt lat="47.27114" lon="12.33009">
    <ele>1000.89</ele>
    <name>straight_2</name>
  </wpt>
  <wpt lat="47.27079" lon="12.32988">
    <ele>996.92</ele>
    <name>straight_3</name>
  </wpt>
  <wpt lat="47.27015" lon="12.3293">
    <ele>989.7</ele>
    <name>straight_4</name>
  </wpt>
  <wpt lat="47.26994" lon="12.32904">
    <ele>988.55</ele>
    <name>straight_5</name>
  </wpt>
  <wpt lat="47.26973" lon="12.32869">
    <ele>986.41</ele>
    <name>straight_6</name>
  </wpt>
  <wpt lat="47.26956" lon="12.32865">
    <ele>980.31</ele>
    <name>straight_1</name>
  </wpt>
  <wpt lat="47.26965" lon="12.3289">
    <ele>979.59</ele>
    <name>straight_2</name>
  </wpt>
  <wpt lat="47.26981" lon="12.32917">
    <ele>980.65</ele>
    <name>straight_3</name>
  </wpt>
  <wpt lat="47.27" lon="12.3296">
    <ele>975.79</ele>
    <name>straight_4</name>
  </wpt>
  <wpt lat="47.27011" lon="12.32994">
    <ele>969.01</ele>
    <name>straight_5</name>
  </wpt>
  <wpt lat="47.27024" lon="12.33019">
    <ele>965.73</ele>
    <name>straight_6</name>
  </wpt>
  <wpt lat="47.27032" lon="12.33027">
    <ele>965.99</ele>
    <name>straight_7</name>
  </wpt>
  <wpt lat="47.27049" lon="12.33046">
    <ele>965.35</ele>
    <name>straight_8</name>
  </wpt>
  <wpt lat="47.271" lon="12.33133">
    <ele>956.62</ele>
    <name>straight_9</name>
  </wpt>
  <wpt lat="47.2712" lon="12.33165">
    <ele>954.27</ele>
    <name>straight_10</name>
  </wpt>
  <wpt lat="47.27155" lon="12.3323">
    <ele>945.96</ele>
    <name>straight_11</name>
  </wpt>
  <wpt lat="47.27174" lon="12.33262">
    <ele>940.99</ele>
    <name>straight_12</name>
  </wpt>
  <wpt lat="47.27184" lon="12.33276">
    <ele>938.51</ele>
    <name>straight_13</name>
  </wpt>
  <wpt lat="47.27197" lon="12.33284">
    <ele>937.82</ele>
    <name>straight_14</name>
  </wpt>
  <wpt lat="47.27212" lon="12.3329">
    <ele>937.63</ele>
    <name>straight_15</name>
  </wpt>
  <wpt lat="47.27217" lon="12.33312">
    <ele>930.24</ele>
    <name>straight_1</name>
  </wpt>
  <wpt lat="47.27211" lon="12.33313">
    <ele>929.22</ele>
    <name>straight_2</name>
  </wpt>
  <wpt lat="47.27168" lon="12.33295">
    <ele>929.91</ele>
    <name>straight_3</name>
  </wpt>
  <wpt lat="47.27139" lon="12.3328">
    <ele>928.48</ele>
    <name>straight_4</name>
  </wpt>
  <wpt lat="47.27091" lon="12.33266">
    <ele>920.78</ele>
    <name>straight_5</name>
  </wpt>
  <wpt lat="47.27082" lon="12.33262">
    <ele>919.34</ele>
    <name>straight_6</name>
  </wpt>
  <wpt lat="47.27076" lon="12.33256">
    <ele>919.15</ele>
    <name>straight_7</name>
  </wpt>
  <wpt lat="47.27067" lon="12.33247">
    <ele>918.59</ele>
    <name>straight_8</name>
  </wpt>
  <wpt lat="47.2705" lon="12.33236">
    <ele>915.32</ele>
    <name>straight_9</name>
  </wpt>
  <wpt lat="47.27044" lon="12.33229">
    <ele>914.83</ele>
    <name>straight_10</name>
  </wpt>
  <wpt lat="47.27029" lon="12.33206">
    <ele>914.96</ele>
    <name>straight_11</name>
  </wpt>
  <wpt lat="47.2702" lon="12.33196">
    <ele>914.21</ele>
    <name>straight_12</name>
  </wpt>
  <wpt lat="47.27009" lon="12.33186">
    <ele>912.97</ele>
    <name>straight_13</name>
  </wpt>
  <wpt lat="47.27001" lon="12.33181">
    <ele>911.7</ele>
    <name>straight_14</name>
  </wpt>
  <wpt lat="47.26974" lon="12.33171">
    <ele>906.68</ele>
    <name>straight_15</name>
  </wpt>
  <wpt lat="47.26965" lon="12.33165">
    <ele>905.87</ele>
    <name>straight_16</name>
  </wpt>
  <wpt lat="47.26935" lon="12.33131">
    <ele>906.11</ele>
    <name>straight_17</name>
  </wpt>
  <wpt lat="47.26919" lon="12.33115">
    <ele>905.6</ele>
    <name>straight_18</name>
  </wpt>
  <wpt lat="47.26908" lon="12.33108">
    <ele>904.64</ele>
    <name>straight_19</name>
  </wpt>
  <wpt lat="47.26899" lon="12.33105">
    <ele>903.55</ele>
    <name>straight_20</name>
  </wpt>
  <wpt lat="47.26887" lon="12.33104">
    <ele>901.71</ele>
    <name>straight_21</name>
  </wpt>
  <wpt lat="47.26862" lon="12.33099">
    <ele>898.68</ele>
    <name>straight_22</name>
  </wpt>
  <wpt lat="47.26846" lon="12.33093">
    <ele>896.91</ele>
    <name>straight_23</name>
  </wpt>
  <wpt lat="47.26833" lon="12.33085">
    <ele>895.54</ele>
    <name>straight_24</name>
  </wpt>
  <wpt lat="47.26821" lon="12.33075">
    <ele>894.35</ele>
    <name>straight_25</name>
  </wpt>
  <wpt lat="47.26797" lon="12.33045">
    <ele>893.25</ele>
    <name>straight_26</name>
  </wpt>
  <wpt lat="47.26789" lon="12.33032">
    <ele>893.22</ele>
    <name>straight_27</name>
  </wpt>
  <wpt lat="47.26772" lon="12.33019">
    <ele>889.64</ele>
    <name>straight_1</name>
  </wpt>
  <wpt lat="47.26771" lon="12.33025">
    <ele>888.07</ele>
    <name>straight_2</name>
  </wpt>
  <wpt lat="47.26772" lon="12.33035">
    <ele>886.4</ele>
    <name>straight_3</name>
  </wpt>
  <wpt lat="47.26778" lon="12.33045">
    <ele>886.54</ele>
    <name>straight_4</name>
  </wpt>
  <wpt lat="47.26786" lon="12.33064">
    <ele>885.29</ele>
    <name>straight_5</name>
  </wpt>
  <wpt lat="47.26796" lon="12.33089">
    <ele>883.25</ele>
    <name>straight_6</name>
  </wpt>
  <wpt lat="47.268" lon="12.33109">
    <ele>880.07</ele>
    <name>straight_7</name>
  </wpt>
  <wpt lat="47.26806" lon="12.33123">
    <ele>878.8</ele>
    <name>straight_8</name>
  </wpt>
  <wpt lat="47.26813" lon="12.33136">
    <ele>877.93</ele>
    <name>straight_9</name>
  </wpt>
  <wpt lat="47.26827" lon="12.33155">
    <ele>877.37</ele>
    <name>straight_10</name>
  </wpt>
  <wpt lat="47.26835" lon="12.33163">
    <ele>877.45</ele>
    <name>straight_11</name>
  </wpt>
  <wpt lat="47.26851" lon="12.33175">
    <ele>877.98</ele>
    <name>straight_12</name>
  </wpt>
  <wpt lat="47.26861" lon="12.33183">
    <ele>877.78</ele>
    <name>straight_13</name>
  </wpt>
  <wpt lat="47.26872" lon="12.33197">
    <ele>875.76</ele>
    <name>straight_14</name>
  </wpt>
  <wpt lat="47.26936" lon="12.33285">
    <ele>865.95</ele>
    <name>straight_15</name>
  </wpt>
  <wpt lat="47.26943" lon="12.33295">
    <ele>865.65</ele>
    <name>straight_16</name>
  </wpt>
  <wpt lat="47.26952" lon="12.3331">
    <ele>865.19</ele>
    <name>straight_17</name>
  </wpt>
  <wpt lat="47.26974" lon="12.33355">
    <ele>863.35</ele>
    <name>straight_18</name>
  </wpt>
  <wpt lat="47.26991" lon="12.33385">
    <ele>862.07</ele>
    <name>straight_19</name>
  </wpt>
  <wpt lat="47.27006" lon="12.33405">
    <ele>861.54</ele>
    <name>straight_20</name>
  </wpt>
  <wpt lat="47.27018" lon="12.33419">
    <ele>861.31</ele>
    <name>straight_21</name>
  </wpt>
  <wpt lat="47.27043" lon="12.33442">
    <ele>862.01</ele>
    <name>straight_22</name>
  </wpt>
  <wpt lat="47.27048" lon="12.33449">
    <ele>861.98</ele>
    <name>straight_23</name>
  </wpt>
  <wpt lat="47.27051" lon="12.33456">
    <ele>861.74</ele>
    <name>straight_24</name>
  </wpt>
  <wpt lat="47.27051" lon="12.33465">
    <ele>860.91</ele>
    <name>straight_25</name>
  </wpt>
  <wpt lat="47.2705" lon="12.33473">
    <ele>860.04</ele>
    <name>straight_26</name>
  </wpt>
  <wpt lat="47.27046" lon="12.33481">
    <ele>858.65</ele>
    <name>straight_27</name>
  </wpt>
  <wpt lat="47.27028" lon="12.33494">
    <ele>854.3</ele>
    <name>straight_28</name>
  </wpt>
  <wpt lat="47.27028" lon="12.334942">
    <ele>852.0</ele>
    <name>straight_29</name>
  </wpt>
  <wpt lat="47.27022" lon="12.3351">
    <ele>851.63</ele>
    <name>straight_1</name>
  </wpt>
  <wpt lat="47.27022" lon="12.3351">
    <ele>847.1399857937365</ele>
    <name>straight_2</name>
  </wpt>
  <wpt lat="47.27023418495986" lon="12.3355922428062">
    <ele>843.5281056839509</ele>
    <name>straight_3</name>
  </wpt>
  <wpt lat="47.27043916699549" lon="12.33616173013013">
    <ele>841.2161802647637</ele>
    <name>straight_4</name>
  </wpt>
  <wpt lat="47.2704047" lon="12.336219">
    <ele>841.87</ele>
    <name>straight_1</name>
  </wpt>
  <wpt lat="47.2703545" lon="12.3362675">
    <ele>841.29</ele>
    <name>straight_2</name>
  </wpt>
  <wpt lat="47.2703356" lon="12.336279">
    <ele>841.16</ele>
    <name>straight_3</name>
  </wpt>
  <wpt lat="47.2702753" lon="12.3363024">
    <ele>840.86</ele>
    <name>straight_4</name>
  </wpt>
  <wpt lat="47.2702462" lon="12.3363032">
    <ele>840.81</ele>
    <name>straight_5</name>
  </wpt>
  <wpt lat="47.2701807" lon="12.3362903">
    <ele>840.77</ele>
    <name>straight_6</name>
  </wpt>
  <wpt lat="47.2701291" lon="12.3362613">
    <ele>840.82</ele>
    <name>straight_7</name>
  </wpt>
  <wpt lat="47.2700602" lon="12.3361897">
    <ele>840.99</ele>
    <name>straight_8</name>
  </wpt>
  <wpt lat="47.2699763" lon="12.3361253">
    <ele>840.77</ele>
    <name>straight_9</name>
  </wpt>
  <wpt lat="47.2699026" lon="12.3360893">
    <ele>840.29</ele>
    <name>straight_10</name>
  </wpt>
  <wpt lat="47.2697999" lon="12.3360746">
    <ele>839.26</ele>
    <name>straight_11</name>
  </wpt>
  <wpt lat="47.2697017" lon="12.3360783">
    <ele>838.08</ele>
    <name>straight_12</name>
  </wpt>
  <wpt lat="47.2696278" lon="12.3361417">
    <ele>836.76</ele>
    <name>straight_13</name>
  </wpt>
  <wpt lat="47.269508" lon="12.3362203">
    <ele>834.72</ele>
    <name>straight_14</name>
  </wpt>
  <wpt lat="47.2693214" lon="12.3363447">
    <ele>831.56</ele>
    <name>straight_15</name>
  </wpt>
  <wpt lat="47.2692096" lon="12.3363979">
    <ele>829.98</ele>
    <name>straight_16</name>
  </wpt>
  <wpt lat="47.2691077" lon="12.3364164">
    <ele>828.92</ele>
    <name>straight_17</name>
  </wpt>
  <wpt lat="47.2690544" lon="12.3364207">
    <ele>828.44</ele>
    <name>straight_18</name>
  </wpt>
  <wpt lat="47.2689833" lon="12.3364744">
    <ele>827.56</ele>
    <name>straight_19</name>
  </wpt>
  <wpt lat="47.2689215" lon="12.3365228">
    <ele>826.83</ele>
    <name>straight_20</name>
  </wpt>
  <wpt lat="47.2688723" lon="12.3365571">
    <ele>826.32</ele>
    <name>straight_21</name>
  </wpt>
  <wpt lat="47.268816" lon="12.3365771">
    <ele>825.86</ele>
    <name>straight_22</name>
  </wpt>
  <wpt lat="47.2687725" lon="12.3365957">
    <ele>825.5</ele>
    <name>straight_23</name>
  </wpt>
  <wpt lat="47.268727" lon="12.3366499">
    <ele>825.0</ele>
    <name>straight_24</name>
  </wpt>
</gpx>