<?xml version="1.0" encoding="utf-8" standalone="yes"?>
<gpx version="1.1" creator="Locus Map, Android"
 xmlns="http://www.topografix.com/GPX/1/1"
 xmlns:xsi="http://www.w3.org/2001/XMLSchema-instance"
 xsi:schemaLocation="http://www.topografix.com/GPX/1/1 http://www.topografix.com/GPX/1/1/gpx.xsd"
 xmlns:gpxx="http://www.garmin.com/xmlschemas/GpxExtensions/v3"
 xmlns:gpxtrkx="http://www.garmin.com/xmlschemas/TrackStatsExtension/v1"
 xmlns:gpxtpx="http://www.garmin.com/xmlschemas/TrackPointExtension/v2"
 xmlns:locus="http://www.locusmap.eu">
	<metadata>
		<desc>File with points/tracks from Locus Map Classic/3.70.5</desc>
		<time>2025-03-20T10:52:39.499Z</time>
	</metadata>
<trk>
<name>Glingezer</name>
	<extensions>
		<line xmlns="http://www.topografix.com/GPX/gpx_style/0/2">
			<color>00FFFF</color>
			<opacity>0.59</opacity>
			<width>2.0</width>
			<extensions>
				<locus:lsColorBase>#9600FFFF</locus:lsColorBase>
				<locus:lsWidth>2.0</locus:lsWidth>
				<locus:lsUnits>PIXELS</locus:lsUnits>
			</extensions>
		</line>
		<locus:activity>walking</locus:activity>
		<locus:rteComputeType>3</locus:rteComputeType>
		<locus:rteSimpleRoundabouts>1</locus:rteSimpleRoundabouts>
	</extensions>
<trkseg>
<trkpt lat="47.2245700" lon="11.5282100">
	<ele>2037.41</ele>
</trkpt>
<trkpt lat="47.2246300" lon="11.5281800">
	<ele>2035.86</ele>
</trkpt>
<trkpt lat="47.2246900" lon="11.5281700">
	<ele>2034.73</ele>
</trkpt>
<trkpt lat="47.2247400" lon="11.5281900">
	<ele>2034.32</ele>
</trkpt>
<trkpt lat="47.2249300" lon="11.5283200">
	<ele>2033.79</ele>
</trkpt>
<trkpt lat="47.2249800" lon="11.5283300">
	<ele>2033.23</ele>
</trkpt>
<trkpt lat="47.2250300" lon="11.5283100">
	<ele>2032.07</ele>
</trkpt>
<trkpt lat="47.2250500" lon="11.5282900">
	<ele>2031.37</ele>
</trkpt>
<trkpt lat="47.2250700" lon="11.5282200">
	<ele>2029.80</ele>
</trkpt>
<trkpt lat="47.2250600" lon="11.5281700">
	<ele>2029.13</ele>
</trkpt>
<trkpt lat="47.2248200" lon="11.5277600">
	<ele>2026.30</ele>
</trkpt>
<trkpt lat="47.2248000" lon="11.5277000">
	<ele>2025.57</ele>
</trkpt>
<trkpt lat="47.2248000" lon="11.5276600">
	<ele>2024.95</ele>
</trkpt>
<trkpt lat="47.2248100" lon="11.5276500">
	<ele>2024.73</ele>
</trkpt>
<trkpt lat="47.2248300" lon="11.5276400">
	<ele>2024.43</ele>
</trkpt>
<trkpt lat="47.2248500" lon="11.5276500">
	<ele>2024.43</ele>
</trkpt>
<trkpt lat="47.2250100" lon="11.5278500">
	<ele>2025.58</ele>
</trkpt>
<trkpt lat="47.2251900" lon="11.5280000">
	<ele>2025.17</ele>
</trkpt>
<trkpt lat="47.2253400" lon="11.5281400">
	<ele>2024.75</ele>
</trkpt>
<trkpt lat="47.2254100" lon="11.5281700">
	<ele>2024.14</ele>
</trkpt>
<trkpt lat="47.2255300" lon="11.5281700">
	<ele>2022.46</ele>
</trkpt>
<trkpt lat="47.2255800" lon="11.5281900">
	<ele>2022.01</ele>
</trkpt>
<trkpt lat="47.2256600" lon="11.5282500">
	<ele>2021.76</ele>
</trkpt>
<trkpt lat="47.2257600" lon="11.5283300">
	<ele>2021.91</ele>
</trkpt>
<trkpt lat="47.2258400" lon="11.5283900">
	<ele>2022.26</ele>
</trkpt>
<trkpt lat="47.2260100" lon="11.5284000">
	<ele>2020.58</ele>
</trkpt>
<trkpt lat="47.2260700" lon="11.5284100">
	<ele>2020.23</ele>
</trkpt>
<trkpt lat="47.2261700" lon="11.5284600">
	<ele>2020.49</ele>
</trkpt>
<trkpt lat="47.2264000" lon="11.5285700">
	<ele>2020.19</ele>
</trkpt>
<trkpt lat="47.2264500" lon="11.5286000">
	<ele>2019.99</ele>
</trkpt>
<trkpt lat="47.2265000" lon="11.5286700">
	<ele>2020.39</ele>
</trkpt>
<trkpt lat="47.2265700" lon="11.5288400">
	<ele>2021.76</ele>
</trkpt>
<trkpt lat="47.2266100" lon="11.5289000">
	<ele>2021.75</ele>
</trkpt>
<trkpt lat="47.2268100" lon="11.5291900">
	<ele>2021.64</ele>
</trkpt>
<trkpt lat="47.2268800" lon="11.5292400">
	<ele>2020.83</ele>
</trkpt>
<trkpt lat="47.2270400" lon="11.5293100">
	<ele>2018.11</ele>
</trkpt>
<trkpt lat="47.2271000" lon="11.5293600">
	<ele>2017.50</ele>
</trkpt>
<trkpt lat="47.2271700" lon="11.5294400">
	<ele>2017.09</ele>
</trkpt>
<trkpt lat="47.2274200" lon="11.5298500">
	<ele>2015.76</ele>
</trkpt>
<trkpt lat="47.2274800" lon="11.5299800">
	<ele>2015.47</ele>
</trkpt>
<trkpt lat="47.2275300" lon="11.5302000">
	<ele>2017.01</ele>
</trkpt>
<trkpt lat="47.2275500" lon="11.5302500">
	<ele>2017.03</ele>
</trkpt>
<trkpt lat="47.2275800" lon="11.5302900">
	<ele>2016.49</ele>
</trkpt>
<trkpt lat="47.2277800" lon="11.5304900">
	<ele>2012.02</ele>
</trkpt>
<trkpt lat="47.2279800" lon="11.5307600">
	<ele>2009.39</ele>
</trkpt>
<trkpt lat="47.2281700" lon="11.5309700">
	<ele>2005.58</ele>
</trkpt>
<trkpt lat="47.2284400" lon="11.5312900">
	<ele>1999.57</ele>
</trkpt>
<trkpt lat="47.2285100" lon="11.5313600">
	<ele>1998.05</ele>
</trkpt>
<trkpt lat="47.2286700" lon="11.5315100">
	<ele>1995.25</ele>
</trkpt>
<trkpt lat="47.2289400" lon="11.5317200">
	<ele>1991.33</ele>
</trkpt>
<trkpt lat="47.2292100" lon="11.5319800">
	<ele>1987.28</ele>
</trkpt>
<trkpt lat="47.2294500" lon="11.5322300">
	<ele>1982.15</ele>
</trkpt>
<trkpt lat="47.2295100" lon="11.5322500">
	<ele>1980.09</ele>
</trkpt>
<trkpt lat="47.2295600" lon="11.5321900">
	<ele>1977.18</ele>
</trkpt>
<trkpt lat="47.2291600" lon="11.5312400">
	<ele>1972.52</ele>
</trkpt>
<trkpt lat="47.2291400" lon="11.5310300">
	<ele>1967.62</ele>
</trkpt>
<trkpt lat="47.2292600" lon="11.5311500">
	<ele>1966.79</ele>
</trkpt>
<trkpt lat="47.2295100" lon="11.5313000">
	<ele>1962.89</ele>
</trkpt>
<trkpt lat="47.2298000" lon="11.5316500">
	<ele>1958.82</ele>
</trkpt>
<trkpt lat="47.2300400" lon="11.5319300">
	<ele>1953.41</ele>
</trkpt>
<trkpt lat="47.2301100" lon="11.5321000">
	<ele>1953.15</ele>
</trkpt>
<trkpt lat="47.2301800" lon="11.5322700">
	<ele>1952.85</ele>
</trkpt>
<trkpt lat="47.2305100" lon="11.5326700">
	<ele>1945.12</ele>
</trkpt>
<trkpt lat="47.2307500" lon="11.5329300">
	<ele>1940.29</ele>
</trkpt>
<trkpt lat="47.2308600" lon="11.5330700">
	<ele>1938.52</ele>
</trkpt>
<trkpt lat="47.2308900" lon="11.5328300">
	<ele>1933.04</ele>
</trkpt>
<trkpt lat="47.2307000" lon="11.5324100">
	<ele>1932.72</ele>
</trkpt>
<trkpt lat="47.2308000" lon="11.5324000">
	<ele>1928.60</ele>
</trkpt>
<trkpt lat="47.2308900" lon="11.5325100">
	<ele>1927.09</ele>
</trkpt>
<trkpt lat="47.2310400" lon="11.5329200">
	<ele>1929.45</ele>
</trkpt>
<trkpt lat="47.2314800" lon="11.5334100">
	<ele>1919.47</ele>
</trkpt>
<trkpt lat="47.2315700" lon="11.5337100">
	<ele>1917.58</ele>
</trkpt>
<trkpt lat="47.2316700" lon="11.5339200">
	<ele>1914.45</ele>
</trkpt>
<trkpt lat="47.2318000" lon="11.5339700">
	<ele>1909.21</ele>
</trkpt>
<trkpt lat="47.2318000" lon="11.5338300">
	<ele>1908.53</ele>
</trkpt>
<trkpt lat="47.2318200" lon="11.5336600">
	<ele>1906.43</ele>
</trkpt>
<trkpt lat="47.2318800" lon="11.5333700">
	<ele>1900.78</ele>
</trkpt>
<trkpt lat="47.2318700" lon="11.5332500">
	<ele>1900.13</ele>
</trkpt>
<trkpt lat="47.2318000" lon="11.5326800">
	<ele>1896.96</ele>
</trkpt>
<trkpt lat="47.2318000" lon="11.5326300">
	<ele>1896.30</ele>
</trkpt>
<trkpt lat="47.2318200" lon="11.5325900">
	<ele>1894.73</ele>
</trkpt>
<trkpt lat="47.2318400" lon="11.5325800">
	<ele>1893.53</ele>
</trkpt>
<trkpt lat="47.2318800" lon="11.5325900">
	<ele>1891.46</ele>
</trkpt>
<trkpt lat="47.2319100" lon="11.5326100">
	<ele>1890.04</ele>
</trkpt>
<trkpt lat="47.2319500" lon="11.5326700">
	<ele>1888.53</ele>
</trkpt>
<trkpt lat="47.2320600" lon="11.5329100">
	<ele>1885.31</ele>
</trkpt>
<trkpt lat="47.2322200" lon="11.5330700">
	<ele>1878.35</ele>
</trkpt>
<trkpt lat="47.2322400" lon="11.5331100">
	<ele>1877.80</ele>
</trkpt>
<trkpt lat="47.2322800" lon="11.5332100">
	<ele>1877.01</ele>
</trkpt>
<trkpt lat="47.2323300" lon="11.5335000">
	<ele>1878.42</ele>
</trkpt>
<trkpt lat="47.2323600" lon="11.5336100">
	<ele>1878.64</ele>
</trkpt>
<trkpt lat="47.2323800" lon="11.5336500">
	<ele>1878.30</ele>
</trkpt>
<trkpt lat="47.2325700" lon="11.5338800">
	<ele>1873.16</ele>
</trkpt>
<trkpt lat="47.2326300" lon="11.5339900">
	<ele>1871.81</ele>
</trkpt>
<trkpt lat="47.2326700" lon="11.5341100">
	<ele>1871.08</ele>
</trkpt>
<trkpt lat="47.2327000" lon="11.5341700">
	<ele>1870.09</ele>
</trkpt>
<trkpt lat="47.2328400" lon="11.5343600">
	<ele>1864.59</ele>
</trkpt>
<trkpt lat="47.2329300" lon="11.5345100">
	<ele>1861.40</ele>
</trkpt>
<trkpt lat="47.2330200" lon="11.5346400">
	<ele>1858.61</ele>
</trkpt>
<trkpt lat="47.2331200" lon="11.5347700">
	<ele>1855.91</ele>
</trkpt>
<trkpt lat="47.2331900" lon="11.5348800">
	<ele>1854.24</ele>
</trkpt>
<trkpt lat="47.2332300" lon="11.5349800">
	<ele>1853.35</ele>
</trkpt>
<trkpt lat="47.2332700" lon="11.5351500">
	<ele>1852.20</ele>
</trkpt>
<trkpt lat="47.2333000" lon="11.5352200">
	<ele>1851.11</ele>
</trkpt>
<trkpt lat="47.2333200" lon="11.5352500">
	<ele>1850.38</ele>
</trkpt>
<trkpt lat="47.2334300" lon="11.5353300">
	<ele>1846.30</ele>
</trkpt>
<trkpt lat="47.2334800" lon="11.5351900">
	<ele>1844.81</ele>
</trkpt>
<trkpt lat="47.2335500" lon="11.5350000">
	<ele>1842.10</ele>
</trkpt>
<trkpt lat="47.2337000" lon="11.5347300">
	<ele>1835.32</ele>
</trkpt>
<trkpt lat="47.2337500" lon="11.5345100">
	<ele>1832.43</ele>
</trkpt>
<trkpt lat="47.2336700" lon="11.5339900">
	<ele>1831.93</ele>
</trkpt>
<trkpt lat="47.2337800" lon="11.5338200">
	<ele>1828.49</ele>
</trkpt>
<trkpt lat="47.2339800" lon="11.5336800">
	<ele>1822.84</ele>
</trkpt>
<trkpt lat="47.2340100" lon="11.5334700">
	<ele>1820.75</ele>
</trkpt>
<trkpt lat="47.2340100" lon="11.5334500">
	<ele>1820.61</ele>
</trkpt>
<trkpt lat="47.2338800" lon="11.5328700">
	<ele>1819.40</ele>
</trkpt>
<trkpt lat="47.2339800" lon="11.5328100">
	<ele>1815.36</ele>
</trkpt>
<trkpt lat="47.2342600" lon="11.5333200">
	<ele>1811.84</ele>
</trkpt>
<trkpt lat="47.2344300" lon="11.5335200">
	<ele>1807.80</ele>
</trkpt>
<trkpt lat="47.2348500" lon="11.5339000">
	<ele>1798.88</ele>
</trkpt>
<trkpt lat="47.2349300" lon="11.5342200">
	<ele>1799.93</ele>
</trkpt>
<trkpt lat="47.2349800" lon="11.5345500">
	<ele>1798.91</ele>
</trkpt>
<trkpt lat="47.2349100" lon="11.5350800">
	<ele>1797.79</ele>
</trkpt>
<trkpt lat="47.2349000" lon="11.5355700">
	<ele>1792.12</ele>
</trkpt>
<trkpt lat="47.2350100" lon="11.5355600">
	<ele>1789.04</ele>
</trkpt>
<trkpt lat="47.2351600" lon="11.5355700">
	<ele>1785.25</ele>
</trkpt>
<trkpt lat="47.2354200" lon="11.5356300">
	<ele>1779.79</ele>
</trkpt>
<trkpt lat="47.2355200" lon="11.5356400">
	<ele>1778.01</ele>
</trkpt>
<trkpt lat="47.2356200" lon="11.5356200">
	<ele>1776.24</ele>
</trkpt>
<trkpt lat="47.2356800" lon="11.5355700">
	<ele>1775.18</ele>
</trkpt>
<trkpt lat="47.2357000" lon="11.5355500">
	<ele>1774.80</ele>
</trkpt>
<trkpt lat="47.2358100" lon="11.5352500">
	<ele>1773.28</ele>
</trkpt>
<trkpt lat="47.2364200" lon="11.5345700">
	<ele>1759.22</ele>
</trkpt>
<trkpt lat="47.2364400" lon="11.5344100">
	<ele>1758.31</ele>
</trkpt>
<trkpt lat="47.2363900" lon="11.5341200">
	<ele>1758.43</ele>
</trkpt>
<trkpt lat="47.2364200" lon="11.5337400">
	<ele>1748.62</ele>
</trkpt>
<trkpt lat="47.2363800" lon="11.5332300">
	<ele>1741.58</ele>
</trkpt>
<trkpt lat="47.2367000" lon="11.5326800">
	<ele>1735.23</ele>
</trkpt>
<trkpt lat="47.2367300" lon="11.5325800">
	<ele>1734.42</ele>
</trkpt>
<trkpt lat="47.2367400" lon="11.5324400">
	<ele>1733.65</ele>
</trkpt>
<trkpt lat="47.2367400" lon="11.5323500">
	<ele>1732.92</ele>
</trkpt>
<trkpt lat="47.2367000" lon="11.5322000">
	<ele>1732.83</ele>
</trkpt>
<trkpt lat="47.2366700" lon="11.5320000">
	<ele>1731.01</ele>
</trkpt>
<trkpt lat="47.2366800" lon="11.5319500">
	<ele>1729.86</ele>
</trkpt>
<trkpt lat="47.2367100" lon="11.5319300">
	<ele>1728.34</ele>
</trkpt>
<trkpt lat="47.2367500" lon="11.5319400">
	<ele>1726.76</ele>
</trkpt>
<trkpt lat="47.2368000" lon="11.5320400">
	<ele>1725.93</ele>
</trkpt>
<trkpt lat="47.2369300" lon="11.5323900">
	<ele>1723.74</ele>
</trkpt>
<trkpt lat="47.2369800" lon="11.5325100">
	<ele>1721.80</ele>
</trkpt>
<trkpt lat="47.2371600" lon="11.5329000">
	<ele>1712.13</ele>
</trkpt>
<trkpt lat="47.2373500" lon="11.5332200">
	<ele>1704.75</ele>
</trkpt>
<trkpt lat="47.2374400" lon="11.5334500">
	<ele>1703.71</ele>
</trkpt>
<trkpt lat="47.2375600" lon="11.5338600">
	<ele>1705.30</ele>
</trkpt>
<trkpt lat="47.2376000" lon="11.5339500">
	<ele>1704.96</ele>
</trkpt>
<trkpt lat="47.2380200" lon="11.5344800">
	<ele>1690.69</ele>
</trkpt>
<trkpt lat="47.2381800" lon="11.5347400">
	<ele>1683.71</ele>
</trkpt>
<trkpt lat="47.2383300" lon="11.5353500">
	<ele>1677.82</ele>
</trkpt>
<trkpt lat="47.2385100" lon="11.5356900">
	<ele>1672.93</ele>
</trkpt>
<trkpt lat="47.2386600" lon="11.5359700">
	<ele>1670.65</ele>
</trkpt>
<trkpt lat="47.2387900" lon="11.5360800">
	<ele>1668.15</ele>
</trkpt>
<trkpt lat="47.2388900" lon="11.5362900">
	<ele>1666.19</ele>
</trkpt>
<trkpt lat="47.2389100" lon="11.5365900">
	<ele>1665.34</ele>
</trkpt>
<trkpt lat="47.2389700" lon="11.5368200">
	<ele>1662.03</ele>
</trkpt>
<trkpt lat="47.2390900" lon="11.5369200">
	<ele>1656.56</ele>
</trkpt>
<trkpt lat="47.2391300" lon="11.5376900">
	<ele>1648.20</ele>
</trkpt>
<trkpt lat="47.2392900" lon="11.5383400">
	<ele>1644.79</ele>
</trkpt>
<trkpt lat="47.2394200" lon="11.5385700">
	<ele>1640.29</ele>
</trkpt>
<trkpt lat="47.2396000" lon="11.5387900">
	<ele>1634.49</ele>
</trkpt>
<trkpt lat="47.2396200" lon="11.5389900">
	<ele>1634.07</ele>
</trkpt>
<trkpt lat="47.2395500" lon="11.5391600">
	<ele>1636.24</ele>
</trkpt>
<trkpt lat="47.2395000" lon="11.5392600">
	<ele>1637.75</ele>
</trkpt>
<trkpt lat="47.2398000" lon="11.5394100">
	<ele>1632.06</ele>
</trkpt>
<trkpt lat="47.2400300" lon="11.5395100">
	<ele>1626.35</ele>
</trkpt>
<trkpt lat="47.2403400" lon="11.5397200">
	<ele>1617.75</ele>
</trkpt>
<trkpt lat="47.2404600" lon="11.5398000">
	<ele>1614.33</ele>
</trkpt>
<trkpt lat="47.2405900" lon="11.5399500">
	<ele>1611.80</ele>
</trkpt>
<trkpt lat="47.2406900" lon="11.5405900">
	<ele>1603.87</ele>
</trkpt>
<trkpt lat="47.2406000" lon="11.5409500">
	<ele>1601.56</ele>
</trkpt>
<trkpt lat="47.2407200" lon="11.5408200">
	<ele>1599.73</ele>
</trkpt>
<trkpt lat="47.2408600" lon="11.5405600">
	<ele>1598.52</ele>
</trkpt>
<trkpt lat="47.2410600" lon="11.5401200">
	<ele>1592.64</ele>
</trkpt>
<trkpt lat="47.2410700" lon="11.5400800">
	<ele>1591.90</ele>
</trkpt>
<trkpt lat="47.2412000" lon="11.5400900">
	<ele>1585.47</ele>
</trkpt>
<trkpt lat="47.2412900" lon="11.5402300">
	<ele>1581.01</ele>
</trkpt>
<trkpt lat="47.2412000" lon="11.5406900">
	<ele>1581.18</ele>
</trkpt>
<trkpt lat="47.2412000" lon="11.5408700">
	<ele>1579.51</ele>
</trkpt>
<trkpt lat="47.2412300" lon="11.5414500">
	<ele>1573.20</ele>
</trkpt>
<trkpt lat="47.2413300" lon="11.5413500">
	<ele>1569.79</ele>
</trkpt>
<trkpt lat="47.2414300" lon="11.5408900">
	<ele>1567.76</ele>
</trkpt>
<trkpt lat="47.2414900" lon="11.5408000">
	<ele>1565.29</ele>
</trkpt>
<trkpt lat="47.2415700" lon="11.5409700">
	<ele>1560.74</ele>
</trkpt>
<trkpt lat="47.2415700" lon="11.5413300">
	<ele>1559.54</ele>
</trkpt>
<trkpt lat="47.2416300" lon="11.5415000">
	<ele>1556.37</ele>
</trkpt>
<trkpt lat="47.2416700" lon="11.5420100">
	<ele>1550.21</ele>
</trkpt>
<trkpt lat="47.2419500" lon="11.5423800">
	<ele>1542.68</ele>
</trkpt>
<trkpt lat="47.2419800" lon="11.5423900">
	<ele>1542.56</ele>
</trkpt>
</trkseg>
</trk>
</gpx>
