<?xml version="1.0" encoding="UTF-8" standalone="no"?>
<gpx version="1.1" creator="Trailforks.com" xmlns="http://www.topografix.com/GPX/1/1" xmlns:xsi="http://www.w3.org/2001/XMLSchema-instance" xsi:schemaLocation="http://www.topografix.com/GPX/1/1 http://www.topografix.com/GPX/1/1/gpx.xsd">
<metadata>
<name>Freight Train - Lower Trailforks Trail</name>
<link href="https://www.trailforks.com/">
<text>Trailforks</text>
</link>
</metadata>
<trk>
<name>
Freight Train - Lower
</name>
<trkseg>
<trkpt lat="50.08582" lon="-122.96416">
<ele>1301.5</ele>
<time>2025-03-24T04:06:10-07:00</time>
</trkpt>
<trkpt lat="50.08582" lon="-122.96432">
<ele>1302.9</ele>
<time>2025-03-24T04:06:11-07:00</time>
</trkpt>
<trkpt lat="50.08588" lon="-122.96445">
<ele>1297.1</ele>
<time>2025-03-24T04:06:12-07:00</time>
</trkpt>
<trkpt lat="50.08593" lon="-122.96456">
<ele>1297.1</ele>
<time>2025-03-24T04:06:13-07:00</time>
</trkpt>
<trkpt lat="50.086" lon="-122.96465">
<ele>1297.1</ele>
<time>2025-03-24T04:06:14-07:00</time>
</trkpt>
<trkpt lat="50.0861" lon="-122.96473">
<ele>1289.9</ele>
<time>2025-03-24T04:06:15-07:00</time>
</trkpt>
<trkpt lat="50.08616" lon="-122.96479">
<ele>1290.1</ele>
<time>2025-03-24T04:06:16-07:00</time>
</trkpt>
<trkpt lat="50.08622" lon="-122.96484">
<ele>1290.1</ele>
<time>2025-03-24T04:06:17-07:00</time>
</trkpt>
<trkpt lat="50.08632" lon="-122.96489">
<ele>1290.1</ele>
<time>2025-03-24T04:06:18-07:00</time>
</trkpt>
<trkpt lat="50.08642" lon="-122.9649">
<ele>1288</ele>
<time>2025-03-24T04:06:19-07:00</time>
</trkpt>
<trkpt lat="50.08652" lon="-122.96491">
<ele>1288</ele>
<time>2025-03-24T04:06:20-07:00</time>
</trkpt>
<trkpt lat="50.08661" lon="-122.9649">
<ele>1288</ele>
<time>2025-03-24T04:06:21-07:00</time>
</trkpt>
<trkpt lat="50.08669" lon="-122.96488">
<ele>1284.5</ele>
<time>2025-03-24T04:06:22-07:00</time>
</trkpt>
<trkpt lat="50.08677" lon="-122.96488">
<ele>1284.5</ele>
<time>2025-03-24T04:06:23-07:00</time>
</trkpt>
<trkpt lat="50.08685" lon="-122.96488">
<ele>1284.5</ele>
<time>2025-03-24T04:06:24-07:00</time>
</trkpt>
<trkpt lat="50.08691" lon="-122.96486">
<ele>1284.5</ele>
<time>2025-03-24T04:06:25-07:00</time>
</trkpt>
<trkpt lat="50.08696" lon="-122.96482">
<ele>1278.2</ele>
<time>2025-03-24T04:06:26-07:00</time>
</trkpt>
<trkpt lat="50.08703" lon="-122.96478">
<ele>1278.2</ele>
<time>2025-03-24T04:06:27-07:00</time>
</trkpt>
<trkpt lat="50.08711" lon="-122.96476">
<ele>1278.2</ele>
<time>2025-03-24T04:06:28-07:00</time>
</trkpt>
<trkpt lat="50.08718" lon="-122.96476">
<ele>1278.2</ele>
<time>2025-03-24T04:06:29-07:00</time>
</trkpt>
<trkpt lat="50.08724" lon="-122.96475">
<ele>1269</ele>
<time>2025-03-24T04:06:30-07:00</time>
</trkpt>
<trkpt lat="50.08729" lon="-122.96474">
<ele>1269</ele>
<time>2025-03-24T04:06:31-07:00</time>
</trkpt>
<trkpt lat="50.08737" lon="-122.96473">
<ele>1269</ele>
<time>2025-03-24T04:06:32-07:00</time>
</trkpt>
<trkpt lat="50.08744" lon="-122.96472">
<ele>1272.8</ele>
<time>2025-03-24T04:06:33-07:00</time>
</trkpt>
<trkpt lat="50.0875" lon="-122.96468">
<ele>1265.8</ele>
<time>2025-03-24T04:06:34-07:00</time>
</trkpt>
<trkpt lat="50.08756" lon="-122.96463">
<ele>1265.8</ele>
<time>2025-03-24T04:06:35-07:00</time>
</trkpt>
<trkpt lat="50.08762" lon="-122.96457">
<ele>1265.8</ele>
<time>2025-03-24T04:06:36-07:00</time>
</trkpt>
<trkpt lat="50.08767" lon="-122.96455">
<ele>1265.8</ele>
<time>2025-03-24T04:06:37-07:00</time>
</trkpt>
<trkpt lat="50.08771" lon="-122.96453">
<ele>1265.8</ele>
<time>2025-03-24T04:06:38-07:00</time>
</trkpt>
<trkpt lat="50.08776" lon="-122.96453">
<ele>1265.8</ele>
<time>2025-03-24T04:06:39-07:00</time>
</trkpt>
<trkpt lat="50.0878" lon="-122.96456">
<ele>1258</ele>
<time>2025-03-24T04:06:40-07:00</time>
</trkpt>
<trkpt lat="50.08781" lon="-122.96462">
<ele>1258</ele>
<time>2025-03-24T04:06:41-07:00</time>
</trkpt>
<trkpt lat="50.0878" lon="-122.96469">
<ele>1258</ele>
<time>2025-03-24T04:06:42-07:00</time>
</trkpt>
<trkpt lat="50.0878" lon="-122.96476">
<ele>1258</ele>
<time>2025-03-24T04:06:43-07:00</time>
</trkpt>
<trkpt lat="50.0878" lon="-122.96482">
<ele>1258</ele>
<time>2025-03-24T04:06:44-07:00</time>
</trkpt>
<trkpt lat="50.08781" lon="-122.9649">
<ele>1258</ele>
<time>2025-03-24T04:06:45-07:00</time>
</trkpt>
<trkpt lat="50.08782" lon="-122.96496">
<ele>1258</ele>
<time>2025-03-24T04:06:46-07:00</time>
</trkpt>
<trkpt lat="50.08785" lon="-122.96499">
<ele>1258</ele>
<time>2025-03-24T04:06:47-07:00</time>
</trkpt>
<trkpt lat="50.08788" lon="-122.96501">
<ele>1251.7</ele>
<time>2025-03-24T04:06:48-07:00</time>
</trkpt>
<trkpt lat="50.08792" lon="-122.96499">
<ele>1258</ele>
<time>2025-03-24T04:06:49-07:00</time>
</trkpt>
<trkpt lat="50.08798" lon="-122.96492">
<ele>1258</ele>
<time>2025-03-24T04:06:50-07:00</time>
</trkpt>
<trkpt lat="50.08803" lon="-122.96486">
<ele>1258</ele>
<time>2025-03-24T04:06:51-07:00</time>
</trkpt>
<trkpt lat="50.08807" lon="-122.96481">
<ele>1254.9</ele>
<time>2025-03-24T04:06:52-07:00</time>
</trkpt>
<trkpt lat="50.0881" lon="-122.96477">
<ele>1254.9</ele>
<time>2025-03-24T04:06:53-07:00</time>
</trkpt>
<trkpt lat="50.08815" lon="-122.96474">
<ele>1254.9</ele>
<time>2025-03-24T04:06:54-07:00</time>
</trkpt>
<trkpt lat="50.08821" lon="-122.96478">
<ele>1254.9</ele>
<time>2025-03-24T04:06:55-07:00</time>
</trkpt>
<trkpt lat="50.08824" lon="-122.96486">
<ele>1254.9</ele>
<time>2025-03-24T04:06:56-07:00</time>
</trkpt>
<trkpt lat="50.08824" lon="-122.96493">
<ele>1254.9</ele>
<time>2025-03-24T04:06:57-07:00</time>
</trkpt>
<trkpt lat="50.08822" lon="-122.96499">
<ele>1254.9</ele>
<time>2025-03-24T04:06:58-07:00</time>
</trkpt>
<trkpt lat="50.0882" lon="-122.96505">
<ele>1250.2</ele>
<time>2025-03-24T04:06:59-07:00</time>
</trkpt>
<trkpt lat="50.08816" lon="-122.9651">
<ele>1250.2</ele>
<time>2025-03-24T04:07:00-07:00</time>
</trkpt>
<trkpt lat="50.08811" lon="-122.96514">
<ele>1250.2</ele>
<time>2025-03-24T04:07:01-07:00</time>
</trkpt>
<trkpt lat="50.08805" lon="-122.96519">
<ele>1251.7</ele>
<time>2025-03-24T04:07:02-07:00</time>
</trkpt>
<trkpt lat="50.08802" lon="-122.96525">
<ele>1251.7</ele>
<time>2025-03-24T04:07:03-07:00</time>
</trkpt>
<trkpt lat="50.08802" lon="-122.96532">
<ele>1246</ele>
<time>2025-03-24T04:07:04-07:00</time>
</trkpt>
<trkpt lat="50.08804" lon="-122.96537">
<ele>1246</ele>
<time>2025-03-24T04:07:05-07:00</time>
</trkpt>
<trkpt lat="50.08808" lon="-122.96541">
<ele>1244.4</ele>
<time>2025-03-24T04:07:06-07:00</time>
</trkpt>
<trkpt lat="50.08813" lon="-122.96544">
<ele>1244.4</ele>
<time>2025-03-24T04:07:07-07:00</time>
</trkpt>
<trkpt lat="50.08817" lon="-122.96546">
<ele>1244.4</ele>
<time>2025-03-24T04:07:08-07:00</time>
</trkpt>
<trkpt lat="50.08824" lon="-122.96548">
<ele>1244.4</ele>
<time>2025-03-24T04:07:09-07:00</time>
</trkpt>
<trkpt lat="50.08832" lon="-122.96549">
<ele>1244.4</ele>
<time>2025-03-24T04:07:10-07:00</time>
</trkpt>
<trkpt lat="50.08839" lon="-122.9655">
<ele>1240.2</ele>
<time>2025-03-24T04:07:11-07:00</time>
</trkpt>
<trkpt lat="50.08845" lon="-122.9655">
<ele>1240.2</ele>
<time>2025-03-24T04:07:12-07:00</time>
</trkpt>
<trkpt lat="50.0885" lon="-122.96551">
<ele>1240.2</ele>
<time>2025-03-24T04:07:13-07:00</time>
</trkpt>
<trkpt lat="50.08855" lon="-122.96551">
<ele>1240.2</ele>
<time>2025-03-24T04:07:14-07:00</time>
</trkpt>
<trkpt lat="50.0886" lon="-122.9655">
<ele>1240.2</ele>
<time>2025-03-24T04:07:15-07:00</time>
</trkpt>
<trkpt lat="50.08865" lon="-122.96549">
<ele>1239</ele>
<time>2025-03-24T04:07:16-07:00</time>
</trkpt>
<trkpt lat="50.08869" lon="-122.96549">
<ele>1239</ele>
<time>2025-03-24T04:07:17-07:00</time>
</trkpt>
<trkpt lat="50.08874" lon="-122.96549">
<ele>1239</ele>
<time>2025-03-24T04:07:18-07:00</time>
</trkpt>
<trkpt lat="50.08878" lon="-122.96549">
<ele>1239</ele>
<time>2025-03-24T04:07:19-07:00</time>
</trkpt>
<trkpt lat="50.08882" lon="-122.96549">
<ele>1239</ele>
<time>2025-03-24T04:07:20-07:00</time>
</trkpt>
<trkpt lat="50.08888" lon="-122.96547">
<ele>1239</ele>
<time>2025-03-24T04:07:21-07:00</time>
</trkpt>
<trkpt lat="50.08894" lon="-122.96545">
<ele>1235.6</ele>
<time>2025-03-24T04:07:22-07:00</time>
</trkpt>
<trkpt lat="50.08899" lon="-122.96543">
<ele>1235.6</ele>
<time>2025-03-24T04:07:23-07:00</time>
</trkpt>
<trkpt lat="50.08903" lon="-122.96541">
<ele>1235.6</ele>
<time>2025-03-24T04:07:24-07:00</time>
</trkpt>
<trkpt lat="50.08912" lon="-122.96537">
<ele>1235.6</ele>
<time>2025-03-24T04:07:25-07:00</time>
</trkpt>
<trkpt lat="50.08917" lon="-122.96532">
<ele>1226</ele>
<time>2025-03-24T04:07:26-07:00</time>
</trkpt>
<trkpt lat="50.08922" lon="-122.96525">
<ele>1226.2</ele>
<time>2025-03-24T04:07:27-07:00</time>
</trkpt>
<trkpt lat="50.08926" lon="-122.96513">
<ele>1226.2</ele>
<time>2025-03-24T04:07:28-07:00</time>
</trkpt>
<trkpt lat="50.08928" lon="-122.96503">
<ele>1226.2</ele>
<time>2025-03-24T04:07:29-07:00</time>
</trkpt>
<trkpt lat="50.08929" lon="-122.96495">
<ele>1225</ele>
<time>2025-03-24T04:07:30-07:00</time>
</trkpt>
<trkpt lat="50.08931" lon="-122.96485">
<ele>1225</ele>
<time>2025-03-24T04:07:31-07:00</time>
</trkpt>
<trkpt lat="50.08935" lon="-122.96479">
<ele>1225</ele>
<time>2025-03-24T04:07:32-07:00</time>
</trkpt>
<trkpt lat="50.08938" lon="-122.96475">
<ele>1225</ele>
<time>2025-03-24T04:07:33-07:00</time>
</trkpt>
<trkpt lat="50.08944" lon="-122.96472">
<ele>1224.5</ele>
<time>2025-03-24T04:07:34-07:00</time>
</trkpt>
<trkpt lat="50.08951" lon="-122.96472">
<ele>1218</ele>
<time>2025-03-24T04:07:35-07:00</time>
</trkpt>
<trkpt lat="50.08956" lon="-122.96475">
<ele>1219.4</ele>
<time>2025-03-24T04:07:36-07:00</time>
</trkpt>
<trkpt lat="50.08961" lon="-122.96478">
<ele>1219.4</ele>
<time>2025-03-24T04:07:37-07:00</time>
</trkpt>
<trkpt lat="50.08967" lon="-122.96479">
<ele>1219.4</ele>
<time>2025-03-24T04:07:38-07:00</time>
</trkpt>
<trkpt lat="50.08972" lon="-122.96479">
<ele>1219.4</ele>
<time>2025-03-24T04:07:39-07:00</time>
</trkpt>
<trkpt lat="50.08979" lon="-122.9648">
<ele>1212.8</ele>
<time>2025-03-24T04:07:40-07:00</time>
</trkpt>
<trkpt lat="50.08984" lon="-122.9648">
<ele>1212.8</ele>
<time>2025-03-24T04:07:41-07:00</time>
</trkpt>
<trkpt lat="50.08987" lon="-122.96473">
<ele>1212.8</ele>
<time>2025-03-24T04:07:42-07:00</time>
</trkpt>
<trkpt lat="50.0899" lon="-122.96468">
<ele>1211.7</ele>
<time>2025-03-24T04:07:43-07:00</time>
</trkpt>
<trkpt lat="50.08995" lon="-122.96466">
<ele>1211.7</ele>
<time>2025-03-24T04:07:44-07:00</time>
</trkpt>
<trkpt lat="50.09003" lon="-122.96469">
<ele>1210.2</ele>
<time>2025-03-24T04:07:45-07:00</time>
</trkpt>
<trkpt lat="50.09012" lon="-122.96475">
<ele>1211.7</ele>
<time>2025-03-24T04:07:46-07:00</time>
</trkpt>
<trkpt lat="50.09017" lon="-122.96482">
<ele>1211.7</ele>
<time>2025-03-24T04:07:47-07:00</time>
</trkpt>
<trkpt lat="50.09022" lon="-122.9649">
<ele>1211.7</ele>
<time>2025-03-24T04:07:48-07:00</time>
</trkpt>
<trkpt lat="50.09026" lon="-122.96501">
<ele>1213.7</ele>
<time>2025-03-24T04:07:49-07:00</time>
</trkpt>
<trkpt lat="50.09029" lon="-122.96509">
<ele>1212.1</ele>
<time>2025-03-24T04:07:50-07:00</time>
</trkpt>
<trkpt lat="50.09033" lon="-122.96517">
<ele>1212.1</ele>
<time>2025-03-24T04:07:51-07:00</time>
</trkpt>
<trkpt lat="50.09037" lon="-122.96523">
<ele>1212.1</ele>
<time>2025-03-24T04:07:52-07:00</time>
</trkpt>
<trkpt lat="50.09043" lon="-122.96531">
<ele>1208</ele>
<time>2025-03-24T04:07:53-07:00</time>
</trkpt>
<trkpt lat="50.09048" lon="-122.96536">
<ele>1208</ele>
<time>2025-03-24T04:07:54-07:00</time>
</trkpt>
<trkpt lat="50.09056" lon="-122.96537">
<ele>1205.8</ele>
<time>2025-03-24T04:07:55-07:00</time>
</trkpt>
<trkpt lat="50.09063" lon="-122.96537">
<ele>1205.8</ele>
<time>2025-03-24T04:07:56-07:00</time>
</trkpt>
<trkpt lat="50.09072" lon="-122.96537">
<ele>1205.8</ele>
<time>2025-03-24T04:07:57-07:00</time>
</trkpt>
<trkpt lat="50.09079" lon="-122.96535">
<ele>1205.8</ele>
<time>2025-03-24T04:07:58-07:00</time>
</trkpt>
<trkpt lat="50.09086" lon="-122.96531">
<ele>1201.4</ele>
<time>2025-03-24T04:07:59-07:00</time>
</trkpt>
<trkpt lat="50.09089" lon="-122.96527">
<ele>1206.2</ele>
<time>2025-03-24T04:08:00-07:00</time>
</trkpt>
<trkpt lat="50.09092" lon="-122.9652">
<ele>1206.2</ele>
<time>2025-03-24T04:08:01-07:00</time>
</trkpt>
<trkpt lat="50.09095" lon="-122.9651">
<ele>1206.2</ele>
<time>2025-03-24T04:08:02-07:00</time>
</trkpt>
<trkpt lat="50.09098" lon="-122.965">
<ele>1204.1</ele>
<time>2025-03-24T04:08:03-07:00</time>
</trkpt>
<trkpt lat="50.091" lon="-122.96489">
<ele>1204.1</ele>
<time>2025-03-24T04:08:04-07:00</time>
</trkpt>
<trkpt lat="50.091" lon="-122.96478">
<ele>1204.1</ele>
<time>2025-03-24T04:08:05-07:00</time>
</trkpt>
<trkpt lat="50.09098" lon="-122.9647">
<ele>1200</ele>
<time>2025-03-24T04:08:06-07:00</time>
</trkpt>
<trkpt lat="50.09093" lon="-122.96465">
<ele>1200</ele>
<time>2025-03-24T04:08:07-07:00</time>
</trkpt>
<trkpt lat="50.09088" lon="-122.96461">
<ele>1200</ele>
<time>2025-03-24T04:08:08-07:00</time>
</trkpt>
<trkpt lat="50.09082" lon="-122.96457">
<ele>1202.1</ele>
<time>2025-03-24T04:08:09-07:00</time>
</trkpt>
<trkpt lat="50.09077" lon="-122.96453">
<ele>1202.1</ele>
<time>2025-03-24T04:08:10-07:00</time>
</trkpt>
<trkpt lat="50.09072" lon="-122.96448">
<ele>1202.1</ele>
<time>2025-03-24T04:08:11-07:00</time>
</trkpt>
<trkpt lat="50.09068" lon="-122.96439">
<ele>1197.6</ele>
<time>2025-03-24T04:08:12-07:00</time>
</trkpt>
<trkpt lat="50.09068" lon="-122.96429">
<ele>1197.6</ele>
<time>2025-03-24T04:08:13-07:00</time>
</trkpt>
<trkpt lat="50.0907" lon="-122.96421">
<ele>1197.6</ele>
<time>2025-03-24T04:08:14-07:00</time>
</trkpt>
<trkpt lat="50.09074" lon="-122.96414">
<ele>1200.8</ele>
<time>2025-03-24T04:08:15-07:00</time>
</trkpt>
<trkpt lat="50.09078" lon="-122.96411">
<ele>1200.8</ele>
<time>2025-03-24T04:08:16-07:00</time>
</trkpt>
<trkpt lat="50.09084" lon="-122.96407">
<ele>1195.3</ele>
<time>2025-03-24T04:08:17-07:00</time>
</trkpt>
<trkpt lat="50.09092" lon="-122.96403">
<ele>1195.3</ele>
<time>2025-03-24T04:08:18-07:00</time>
</trkpt>
<trkpt lat="50.09105" lon="-122.96397">
<ele>1195.3</ele>
<time>2025-03-24T04:08:19-07:00</time>
</trkpt>
<trkpt lat="50.09112" lon="-122.96395">
<ele>1191.4</ele>
<time>2025-03-24T04:08:20-07:00</time>
</trkpt>
<trkpt lat="50.09119" lon="-122.96392">
<ele>1191.4</ele>
<time>2025-03-24T04:08:21-07:00</time>
</trkpt>
<trkpt lat="50.09129" lon="-122.96388">
<ele>1197</ele>
<time>2025-03-24T04:08:22-07:00</time>
</trkpt>
<trkpt lat="50.09136" lon="-122.96386">
<ele>1197</ele>
<time>2025-03-24T04:08:23-07:00</time>
</trkpt>
<trkpt lat="50.09142" lon="-122.96385">
<ele>1192.1</ele>
<time>2025-03-24T04:08:24-07:00</time>
</trkpt>
<trkpt lat="50.09149" lon="-122.96383">
<ele>1192.1</ele>
<time>2025-03-24T04:08:25-07:00</time>
</trkpt>
<trkpt lat="50.09155" lon="-122.96381">
<ele>1192.1</ele>
<time>2025-03-24T04:08:26-07:00</time>
</trkpt>
<trkpt lat="50.09162" lon="-122.96374">
<ele>1192.1</ele>
<time>2025-03-24T04:08:27-07:00</time>
</trkpt>
<trkpt lat="50.09169" lon="-122.96368">
<ele>1189.1</ele>
<time>2025-03-24T04:08:28-07:00</time>
</trkpt>
<trkpt lat="50.09181" lon="-122.96364">
<ele>1189.1</ele>
<time>2025-03-24T04:08:29-07:00</time>
</trkpt>
<trkpt lat="50.09191" lon="-122.96363">
<ele>1189.1</ele>
<time>2025-03-24T04:08:30-07:00</time>
</trkpt>
<trkpt lat="50.09202" lon="-122.96361">
<ele>1184.7</ele>
<time>2025-03-24T04:08:31-07:00</time>
</trkpt>
<trkpt lat="50.09213" lon="-122.96358">
<ele>1184.7</ele>
<time>2025-03-24T04:08:32-07:00</time>
</trkpt>
<trkpt lat="50.09222" lon="-122.96352">
<ele>1184.7</ele>
<time>2025-03-24T04:08:33-07:00</time>
</trkpt>
<trkpt lat="50.09227" lon="-122.96345">
<ele>1173.3</ele>
<time>2025-03-24T04:08:34-07:00</time>
</trkpt>
<trkpt lat="50.09235" lon="-122.96336">
<ele>1173.3</ele>
<time>2025-03-24T04:08:35-07:00</time>
</trkpt>
<trkpt lat="50.09243" lon="-122.96329">
<ele>1178.1</ele>
<time>2025-03-24T04:08:36-07:00</time>
</trkpt>
<trkpt lat="50.09256" lon="-122.96323">
<ele>1173.7</ele>
<time>2025-03-24T04:08:37-07:00</time>
</trkpt>
<trkpt lat="50.09267" lon="-122.9632">
<ele>1173.7</ele>
<time>2025-03-24T04:08:38-07:00</time>
</trkpt>
<trkpt lat="50.0928" lon="-122.96318">
<ele>1169.2</ele>
<time>2025-03-24T04:08:39-07:00</time>
</trkpt>
<trkpt lat="50.09292" lon="-122.96319">
<ele>1169.2</ele>
<time>2025-03-24T04:08:40-07:00</time>
</trkpt>
<trkpt lat="50.09301" lon="-122.96326">
<ele>1169.2</ele>
<time>2025-03-24T04:08:41-07:00</time>
</trkpt>
<trkpt lat="50.09308" lon="-122.96335">
<ele>1167</ele>
<time>2025-03-24T04:08:42-07:00</time>
</trkpt>
<trkpt lat="50.09316" lon="-122.96346">
<ele>1167</ele>
<time>2025-03-24T04:08:43-07:00</time>
</trkpt>
<trkpt lat="50.09324" lon="-122.96361">
<ele>1167</ele>
<time>2025-03-24T04:08:44-07:00</time>
</trkpt>
<trkpt lat="50.09329" lon="-122.96374">
<ele>1167</ele>
<time>2025-03-24T04:08:45-07:00</time>
</trkpt>
<trkpt lat="50.09332" lon="-122.96389">
<ele>1164.9</ele>
<time>2025-03-24T04:08:46-07:00</time>
</trkpt>
<trkpt lat="50.09329" lon="-122.96404">
<ele>1164.9</ele>
<time>2025-03-24T04:08:47-07:00</time>
</trkpt>
<trkpt lat="50.09324" lon="-122.96418">
<ele>1155.4</ele>
<time>2025-03-24T04:08:48-07:00</time>
</trkpt>
<trkpt lat="50.09319" lon="-122.96431">
<ele>1155.4</ele>
<time>2025-03-24T04:08:49-07:00</time>
</trkpt>
<trkpt lat="50.09312" lon="-122.96445">
<ele>1149.3</ele>
<time>2025-03-24T04:08:50-07:00</time>
</trkpt>
<trkpt lat="50.09305" lon="-122.96454">
<ele>1154</ele>
<time>2025-03-24T04:08:51-07:00</time>
</trkpt>
<trkpt lat="50.093" lon="-122.96465">
<ele>1154</ele>
<time>2025-03-24T04:08:52-07:00</time>
</trkpt>
<trkpt lat="50.09306" lon="-122.96468">
<ele>1149.3</ele>
<time>2025-03-24T04:08:53-07:00</time>
</trkpt>
<trkpt lat="50.09315" lon="-122.96472">
<ele>1149.3</ele>
<time>2025-03-24T04:08:54-07:00</time>
</trkpt>
<trkpt lat="50.09323" lon="-122.96475">
<ele>1142.1</ele>
<time>2025-03-24T04:08:55-07:00</time>
</trkpt>
<trkpt lat="50.09335" lon="-122.96472">
<ele>1143.9</ele>
<time>2025-03-24T04:08:56-07:00</time>
</trkpt>
<trkpt lat="50.09344" lon="-122.96469">
<ele>1143.9</ele>
<time>2025-03-24T04:08:57-07:00</time>
</trkpt>
<trkpt lat="50.09353" lon="-122.96465">
<ele>1143.9</ele>
<time>2025-03-24T04:08:58-07:00</time>
</trkpt>
<trkpt lat="50.09367" lon="-122.96466">
<ele>1141</ele>
<time>2025-03-24T04:08:59-07:00</time>
</trkpt>
<trkpt lat="50.09381" lon="-122.96465">
<ele>1141</ele>
<time>2025-03-24T04:09:00-07:00</time>
</trkpt>
<trkpt lat="50.09386" lon="-122.96461">
<ele>1141</ele>
<time>2025-03-24T04:09:01-07:00</time>
</trkpt>
<trkpt lat="50.09391" lon="-122.96457">
<ele>1135.6</ele>
<time>2025-03-24T04:09:02-07:00</time>
</trkpt>
<trkpt lat="50.09397" lon="-122.96459">
<ele>1135.6</ele>
<time>2025-03-24T04:09:03-07:00</time>
</trkpt>
<trkpt lat="50.09403" lon="-122.9646">
<ele>1135.6</ele>
<time>2025-03-24T04:09:04-07:00</time>
</trkpt>
<trkpt lat="50.09409" lon="-122.96459">
<ele>1135.6</ele>
<time>2025-03-24T04:09:05-07:00</time>
</trkpt>
<trkpt lat="50.09414" lon="-122.96456">
<ele>1135.6</ele>
<time>2025-03-24T04:09:06-07:00</time>
</trkpt>
<trkpt lat="50.09418" lon="-122.96452">
<ele>1130.5</ele>
<time>2025-03-24T04:09:07-07:00</time>
</trkpt>
<trkpt lat="50.09422" lon="-122.96451">
<ele>1130.5</ele>
<time>2025-03-24T04:09:08-07:00</time>
</trkpt>
<trkpt lat="50.09426" lon="-122.96455">
<ele>1130.5</ele>
<time>2025-03-24T04:09:09-07:00</time>
</trkpt>
<trkpt lat="50.0943" lon="-122.9646">
<ele>1130.5</ele>
<time>2025-03-24T04:09:10-07:00</time>
</trkpt>
<trkpt lat="50.09434" lon="-122.96463">
<ele>1130.5</ele>
<time>2025-03-24T04:09:11-07:00</time>
</trkpt>
<trkpt lat="50.09439" lon="-122.96464">
<ele>1130.5</ele>
<time>2025-03-24T04:09:12-07:00</time>
</trkpt>
<trkpt lat="50.09443" lon="-122.96463">
<ele>1130.5</ele>
<time>2025-03-24T04:09:13-07:00</time>
</trkpt>
<trkpt lat="50.09449" lon="-122.96458">
<ele>1115</ele>
<time>2025-03-24T04:09:14-07:00</time>
</trkpt>
<trkpt lat="50.09455" lon="-122.96452">
<ele>1115</ele>
<time>2025-03-24T04:09:15-07:00</time>
</trkpt>
<trkpt lat="50.09462" lon="-122.96443">
<ele>1124.6</ele>
<time>2025-03-24T04:09:16-07:00</time>
</trkpt>
<trkpt lat="50.09467" lon="-122.96434">
<ele>1124.6</ele>
<time>2025-03-24T04:09:17-07:00</time>
</trkpt>
<trkpt lat="50.09474" lon="-122.9642">
<ele>1110.1</ele>
<time>2025-03-24T04:09:18-07:00</time>
</trkpt>
<trkpt lat="50.09478" lon="-122.96407">
<ele>1112.7</ele>
<time>2025-03-24T04:09:19-07:00</time>
</trkpt>
<trkpt lat="50.09483" lon="-122.96393">
<ele>1112.7</ele>
<time>2025-03-24T04:09:20-07:00</time>
</trkpt>
<trkpt lat="50.09488" lon="-122.96386">
<ele>1112.9</ele>
<time>2025-03-24T04:09:21-07:00</time>
</trkpt>
<trkpt lat="50.09495" lon="-122.96381">
<ele>1112.9</ele>
<time>2025-03-24T04:09:22-07:00</time>
</trkpt>
<trkpt lat="50.09499" lon="-122.96374">
<ele>1112.9</ele>
<time>2025-03-24T04:09:23-07:00</time>
</trkpt>
<trkpt lat="50.095" lon="-122.96361">
<ele>1107.9</ele>
<time>2025-03-24T04:09:24-07:00</time>
</trkpt>
<trkpt lat="50.09501" lon="-122.9635">
<ele>1107.9</ele>
<time>2025-03-24T04:09:25-07:00</time>
</trkpt>
<trkpt lat="50.09504" lon="-122.96334">
<ele>1107.9</ele>
<time>2025-03-24T04:09:26-07:00</time>
</trkpt>
<trkpt lat="50.09508" lon="-122.96317">
<ele>1109.8</ele>
<time>2025-03-24T04:09:27-07:00</time>
</trkpt>
<trkpt lat="50.09513" lon="-122.96309">
<ele>1109.8</ele>
<time>2025-03-24T04:09:28-07:00</time>
</trkpt>
<trkpt lat="50.09517" lon="-122.96301">
<ele>1108.6</ele>
<time>2025-03-24T04:09:29-07:00</time>
</trkpt>
<trkpt lat="50.09523" lon="-122.96297">
<ele>1108.6</ele>
<time>2025-03-24T04:09:30-07:00</time>
</trkpt>
<trkpt lat="50.09536" lon="-122.963">
<ele>1105</ele>
<time>2025-03-24T04:09:31-07:00</time>
</trkpt>
<trkpt lat="50.09561" lon="-122.96305">
<ele>1097.1</ele>
<time>2025-03-24T04:09:32-07:00</time>
</trkpt>
<trkpt lat="50.09574" lon="-122.96311">
<ele>1100.5</ele>
<time>2025-03-24T04:09:33-07:00</time>
</trkpt>
<trkpt lat="50.09582" lon="-122.96298">
<ele>1097.1</ele>
<time>2025-03-24T04:09:34-07:00</time>
</trkpt>
<trkpt lat="50.09578" lon="-122.96265">
<ele>1094.6</ele>
<time>2025-03-24T04:09:35-07:00</time>
</trkpt>
<trkpt lat="50.09575" lon="-122.96222">
<ele>1089.5</ele>
<time>2025-03-24T04:09:36-07:00</time>
</trkpt>
<trkpt lat="50.09578" lon="-122.96214">
<ele>1089.5</ele>
<time>2025-03-24T04:09:37-07:00</time>
</trkpt>
<trkpt lat="50.09594" lon="-122.96205">
<ele>1082.8</ele>
<time>2025-03-24T04:09:38-07:00</time>
</trkpt>
<trkpt lat="50.09604" lon="-122.96193">
<ele>1082.6</ele>
<time>2025-03-24T04:09:39-07:00</time>
</trkpt>
<trkpt lat="50.09607" lon="-122.96187">
<ele>1082.6</ele>
<time>2025-03-24T04:09:40-07:00</time>
</trkpt>
<trkpt lat="50.09615" lon="-122.9616">
<ele>1069.9</ele>
<time>2025-03-24T04:09:41-07:00</time>
</trkpt>
<trkpt lat="50.09618" lon="-122.96127">
<ele>1071</ele>
<time>2025-03-24T04:09:42-07:00</time>
</trkpt>
<trkpt lat="50.09636" lon="-122.96085">
<ele>1072.4</ele>
<time>2025-03-24T04:09:43-07:00</time>
</trkpt>
<trkpt lat="50.09642" lon="-122.96052">
<ele>1059</ele>
<time>2025-03-24T04:09:44-07:00</time>
</trkpt>
<trkpt lat="50.09647" lon="-122.96019">
<ele>1060.2</ele>
<time>2025-03-24T04:09:45-07:00</time>
</trkpt>
<trkpt lat="50.09646" lon="-122.9599">
<ele>1059.9</ele>
<time>2025-03-24T04:09:46-07:00</time>
</trkpt>
<trkpt lat="50.09661" lon="-122.95941">
<ele>1058.7</ele>
<time>2025-03-24T04:09:47-07:00</time>
</trkpt>
<trkpt lat="50.09657" lon="-122.9592">
<ele>1058.7</ele>
<time>2025-03-24T04:09:48-07:00</time>
</trkpt>
<trkpt lat="50.09659" lon="-122.95903">
<ele>1057.1</ele>
<time>2025-03-24T04:09:49-07:00</time>
</trkpt>
<trkpt lat="50.09667" lon="-122.95868">
<ele>1045.8</ele>
<time>2025-03-24T04:09:50-07:00</time>
</trkpt>
<trkpt lat="50.09674" lon="-122.9585">
<ele>1047.3</ele>
<time>2025-03-24T04:09:51-07:00</time>
</trkpt>
<trkpt lat="50.09679" lon="-122.95846">
<ele>1047.3</ele>
<time>2025-03-24T04:09:52-07:00</time>
</trkpt>
<trkpt lat="50.09682" lon="-122.95848">
<ele>1047.3</ele>
<time>2025-03-24T04:09:53-07:00</time>
</trkpt>
<trkpt lat="50.09685" lon="-122.95855">
<ele>1047.3</ele>
<time>2025-03-24T04:09:54-07:00</time>
</trkpt>
<trkpt lat="50.09681" lon="-122.95882">
<ele>1045.8</ele>
<time>2025-03-24T04:09:55-07:00</time>
</trkpt>
<trkpt lat="50.09682" lon="-122.95887">
<ele>1045.8</ele>
<time>2025-03-24T04:09:56-07:00</time>
</trkpt>
<trkpt lat="50.09688" lon="-122.95892">
<ele>1046.2</ele>
<time>2025-03-24T04:09:57-07:00</time>
</trkpt>
<trkpt lat="50.0969" lon="-122.9589">
<ele>1046.2</ele>
<time>2025-03-24T04:09:58-07:00</time>
</trkpt>
<trkpt lat="50.09696" lon="-122.95861">
<ele>1036.4</ele>
<time>2025-03-24T04:09:59-07:00</time>
</trkpt>
<trkpt lat="50.09723" lon="-122.95798">
<ele>1028.2</ele>
<time>2025-03-24T04:10:00-07:00</time>
</trkpt>
<trkpt lat="50.09738" lon="-122.95745">
<ele>1031</ele>
<time>2025-03-24T04:10:01-07:00</time>
</trkpt>
<trkpt lat="50.0974" lon="-122.95678">
<ele>1031.7</ele>
<time>2025-03-24T04:10:02-07:00</time>
</trkpt>
<trkpt lat="50.09739" lon="-122.95629">
<ele>1030.4</ele>
<time>2025-03-24T04:10:03-07:00</time>
</trkpt>
<trkpt lat="50.09733" lon="-122.95576">
<ele>1024</ele>
<time>2025-03-24T04:10:04-07:00</time>
</trkpt>
</trkseg>
</trk>
</gpx>
