<?xml version="1.0" encoding="UTF-8" standalone="no"?>
<gpx version="1.1" creator="Trailforks.com" xmlns="http://www.topografix.com/GPX/1/1" xmlns:xsi="http://www.w3.org/2001/XMLSchema-instance" xsi:schemaLocation="http://www.topografix.com/GPX/1/1 http://www.topografix.com/GPX/1/1/gpx.xsd">
<metadata>
<name>Midgard Trailforks Trail</name>
<link href="https://www.trailforks.com/">
<text>Trailforks</text>
</link>
</metadata>
<trk>
<name>
Midgard
</name>
<trkseg>
<trkpt lat="50.07678" lon="-122.96185">
<ele>1443</ele>
<time>2025-03-24T04:06:35-07:00</time>
</trkpt>
<trkpt lat="50.07676" lon="-122.96216">
<ele>1440.9</ele>
<time>2025-03-24T04:06:36-07:00</time>
</trkpt>
<trkpt lat="50.07676" lon="-122.96232">
<ele>1441</ele>
<time>2025-03-24T04:06:37-07:00</time>
</trkpt>
<trkpt lat="50.07675" lon="-122.96259">
<ele>1438.2</ele>
<time>2025-03-24T04:06:38-07:00</time>
</trkpt>
<trkpt lat="50.07678" lon="-122.96297">
<ele>1433.3</ele>
<time>2025-03-24T04:06:39-07:00</time>
</trkpt>
<trkpt lat="50.07681" lon="-122.96306">
<ele>1429.9</ele>
<time>2025-03-24T04:06:40-07:00</time>
</trkpt>
<trkpt lat="50.07687" lon="-122.96304">
<ele>1433.3</ele>
<time>2025-03-24T04:06:41-07:00</time>
</trkpt>
<trkpt lat="50.07688" lon="-122.96282">
<ele>1433.3</ele>
<time>2025-03-24T04:06:42-07:00</time>
</trkpt>
<trkpt lat="50.07689" lon="-122.9628">
<ele>1433.3</ele>
<time>2025-03-24T04:06:43-07:00</time>
</trkpt>
<trkpt lat="50.07696" lon="-122.96299">
<ele>1427</ele>
<time>2025-03-24T04:06:44-07:00</time>
</trkpt>
<trkpt lat="50.07695" lon="-122.96307">
<ele>1425.3</ele>
<time>2025-03-24T04:06:45-07:00</time>
</trkpt>
<trkpt lat="50.07676" lon="-122.96342">
<ele>1428.3</ele>
<time>2025-03-24T04:06:46-07:00</time>
</trkpt>
<trkpt lat="50.07667" lon="-122.96346">
<ele>1428.3</ele>
<time>2025-03-24T04:06:47-07:00</time>
</trkpt>
<trkpt lat="50.07663" lon="-122.96346">
<ele>1434.4</ele>
<time>2025-03-24T04:06:48-07:00</time>
</trkpt>
<trkpt lat="50.07657" lon="-122.9635">
<ele>1434.4</ele>
<time>2025-03-24T04:06:49-07:00</time>
</trkpt>
<trkpt lat="50.07653" lon="-122.96355">
<ele>1434.4</ele>
<time>2025-03-24T04:06:50-07:00</time>
</trkpt>
<trkpt lat="50.07651" lon="-122.96372">
<ele>1430.2</ele>
<time>2025-03-24T04:06:51-07:00</time>
</trkpt>
<trkpt lat="50.07652" lon="-122.96382">
<ele>1430.2</ele>
<time>2025-03-24T04:06:52-07:00</time>
</trkpt>
<trkpt lat="50.07651" lon="-122.9639">
<ele>1425.2</ele>
<time>2025-03-24T04:06:53-07:00</time>
</trkpt>
<trkpt lat="50.07646" lon="-122.96407">
<ele>1425.2</ele>
<time>2025-03-24T04:06:54-07:00</time>
</trkpt>
<trkpt lat="50.07648" lon="-122.96411">
<ele>1425.2</ele>
<time>2025-03-24T04:06:55-07:00</time>
</trkpt>
<trkpt lat="50.07662" lon="-122.96387">
<ele>1430.2</ele>
<time>2025-03-24T04:06:56-07:00</time>
</trkpt>
<trkpt lat="50.07663" lon="-122.96375">
<ele>1430.2</ele>
<time>2025-03-24T04:06:57-07:00</time>
</trkpt>
<trkpt lat="50.07669" lon="-122.96374">
<ele>1421.2</ele>
<time>2025-03-24T04:06:58-07:00</time>
</trkpt>
<trkpt lat="50.07672" lon="-122.96375">
<ele>1421.2</ele>
<time>2025-03-24T04:06:59-07:00</time>
</trkpt>
<trkpt lat="50.07687" lon="-122.96372">
<ele>1421.2</ele>
<time>2025-03-24T04:07:00-07:00</time>
</trkpt>
<trkpt lat="50.07691" lon="-122.9637">
<ele>1421.2</ele>
<time>2025-03-24T04:07:01-07:00</time>
</trkpt>
<trkpt lat="50.07703" lon="-122.96353">
<ele>1423.8</ele>
<time>2025-03-24T04:07:02-07:00</time>
</trkpt>
<trkpt lat="50.07716" lon="-122.96352">
<ele>1423.8</ele>
<time>2025-03-24T04:07:03-07:00</time>
</trkpt>
<trkpt lat="50.07727" lon="-122.96348">
<ele>1415.3</ele>
<time>2025-03-24T04:07:04-07:00</time>
</trkpt>
<trkpt lat="50.07736" lon="-122.96339">
<ele>1415.3</ele>
<time>2025-03-24T04:07:05-07:00</time>
</trkpt>
<trkpt lat="50.0774" lon="-122.96339">
<ele>1415.3</ele>
<time>2025-03-24T04:07:06-07:00</time>
</trkpt>
<trkpt lat="50.07737" lon="-122.96352">
<ele>1415.3</ele>
<time>2025-03-24T04:07:07-07:00</time>
</trkpt>
<trkpt lat="50.07734" lon="-122.96358">
<ele>1415.3</ele>
<time>2025-03-24T04:07:08-07:00</time>
</trkpt>
<trkpt lat="50.0771" lon="-122.96387">
<ele>1416</ele>
<time>2025-03-24T04:07:09-07:00</time>
</trkpt>
<trkpt lat="50.07703" lon="-122.96392">
<ele>1407</ele>
<time>2025-03-24T04:07:10-07:00</time>
</trkpt>
<trkpt lat="50.07697" lon="-122.96403">
<ele>1407</ele>
<time>2025-03-24T04:07:11-07:00</time>
</trkpt>
<trkpt lat="50.077" lon="-122.96413">
<ele>1407</ele>
<time>2025-03-24T04:07:12-07:00</time>
</trkpt>
<trkpt lat="50.07708" lon="-122.96413">
<ele>1407</ele>
<time>2025-03-24T04:07:13-07:00</time>
</trkpt>
<trkpt lat="50.07724" lon="-122.96407">
<ele>1405.2</ele>
<time>2025-03-24T04:07:14-07:00</time>
</trkpt>
<trkpt lat="50.07741" lon="-122.96393">
<ele>1405.2</ele>
<time>2025-03-24T04:07:15-07:00</time>
</trkpt>
<trkpt lat="50.07741" lon="-122.964">
<ele>1405.2</ele>
<time>2025-03-24T04:07:16-07:00</time>
</trkpt>
<trkpt lat="50.07736" lon="-122.96411">
<ele>1405.2</ele>
<time>2025-03-24T04:07:17-07:00</time>
</trkpt>
<trkpt lat="50.07727" lon="-122.96424">
<ele>1401.9</ele>
<time>2025-03-24T04:07:18-07:00</time>
</trkpt>
<trkpt lat="50.07729" lon="-122.96432">
<ele>1401.9</ele>
<time>2025-03-24T04:07:19-07:00</time>
</trkpt>
<trkpt lat="50.07733" lon="-122.96436">
<ele>1401.9</ele>
<time>2025-03-24T04:07:20-07:00</time>
</trkpt>
<trkpt lat="50.07739" lon="-122.96434">
<ele>1401.9</ele>
<time>2025-03-24T04:07:21-07:00</time>
</trkpt>
<trkpt lat="50.07749" lon="-122.96427">
<ele>1401.9</ele>
<time>2025-03-24T04:07:22-07:00</time>
</trkpt>
<trkpt lat="50.07775" lon="-122.96396">
<ele>1401</ele>
<time>2025-03-24T04:07:23-07:00</time>
</trkpt>
<trkpt lat="50.07779" lon="-122.96397">
<ele>1391.3</ele>
<time>2025-03-24T04:07:24-07:00</time>
</trkpt>
<trkpt lat="50.07783" lon="-122.96407">
<ele>1391.3</ele>
<time>2025-03-24T04:07:25-07:00</time>
</trkpt>
<trkpt lat="50.07785" lon="-122.96423">
<ele>1388.8</ele>
<time>2025-03-24T04:07:26-07:00</time>
</trkpt>
<trkpt lat="50.07788" lon="-122.96423">
<ele>1388.8</ele>
<time>2025-03-24T04:07:27-07:00</time>
</trkpt>
<trkpt lat="50.0779" lon="-122.96418">
<ele>1388.8</ele>
<time>2025-03-24T04:07:28-07:00</time>
</trkpt>
<trkpt lat="50.07794" lon="-122.96371">
<ele>1394</ele>
<time>2025-03-24T04:07:29-07:00</time>
</trkpt>
<trkpt lat="50.07798" lon="-122.96369">
<ele>1394</ele>
<time>2025-03-24T04:07:30-07:00</time>
</trkpt>
<trkpt lat="50.07803" lon="-122.96372">
<ele>1394</ele>
<time>2025-03-24T04:07:31-07:00</time>
</trkpt>
<trkpt lat="50.07804" lon="-122.96378">
<ele>1394</ele>
<time>2025-03-24T04:07:32-07:00</time>
</trkpt>
<trkpt lat="50.07803" lon="-122.96394">
<ele>1391.3</ele>
<time>2025-03-24T04:07:33-07:00</time>
</trkpt>
<trkpt lat="50.07805" lon="-122.9641">
<ele>1391.3</ele>
<time>2025-03-24T04:07:34-07:00</time>
</trkpt>
<trkpt lat="50.07807" lon="-122.96413">
<ele>1381.3</ele>
<time>2025-03-24T04:07:35-07:00</time>
</trkpt>
<trkpt lat="50.07805" lon="-122.96432">
<ele>1388.8</ele>
<time>2025-03-24T04:07:36-07:00</time>
</trkpt>
<trkpt lat="50.07809" lon="-122.96425">
<ele>1378.1</ele>
<time>2025-03-24T04:07:37-07:00</time>
</trkpt>
<trkpt lat="50.07818" lon="-122.96384">
<ele>1384.3</ele>
<time>2025-03-24T04:07:38-07:00</time>
</trkpt>
<trkpt lat="50.07822" lon="-122.96388">
<ele>1384.3</ele>
<time>2025-03-24T04:07:39-07:00</time>
</trkpt>
<trkpt lat="50.07829" lon="-122.96391">
<ele>1381.3</ele>
<time>2025-03-24T04:07:40-07:00</time>
</trkpt>
<trkpt lat="50.07828" lon="-122.96414">
<ele>1381.3</ele>
<time>2025-03-24T04:07:41-07:00</time>
</trkpt>
<trkpt lat="50.07826" lon="-122.96423">
<ele>1378.1</ele>
<time>2025-03-24T04:07:42-07:00</time>
</trkpt>
<trkpt lat="50.07827" lon="-122.96429">
<ele>1378.1</ele>
<time>2025-03-24T04:07:43-07:00</time>
</trkpt>
<trkpt lat="50.07826" lon="-122.96445">
<ele>1375.5</ele>
<time>2025-03-24T04:07:44-07:00</time>
</trkpt>
<trkpt lat="50.07845" lon="-122.96413">
<ele>1370</ele>
<time>2025-03-24T04:07:45-07:00</time>
</trkpt>
<trkpt lat="50.0785" lon="-122.96384">
<ele>1371.7</ele>
<time>2025-03-24T04:07:46-07:00</time>
</trkpt>
<trkpt lat="50.07853" lon="-122.96383">
<ele>1371.7</ele>
<time>2025-03-24T04:07:47-07:00</time>
</trkpt>
<trkpt lat="50.07856" lon="-122.96386">
<ele>1371.7</ele>
<time>2025-03-24T04:07:48-07:00</time>
</trkpt>
<trkpt lat="50.07856" lon="-122.96398">
<ele>1370</ele>
<time>2025-03-24T04:07:49-07:00</time>
</trkpt>
<trkpt lat="50.07858" lon="-122.96405">
<ele>1370</ele>
<time>2025-03-24T04:07:50-07:00</time>
</trkpt>
<trkpt lat="50.07853" lon="-122.96422">
<ele>1368.4</ele>
<time>2025-03-24T04:07:51-07:00</time>
</trkpt>
<trkpt lat="50.07853" lon="-122.96429">
<ele>1368.4</ele>
<time>2025-03-24T04:07:52-07:00</time>
</trkpt>
<trkpt lat="50.07856" lon="-122.9643">
<ele>1368.4</ele>
<time>2025-03-24T04:07:53-07:00</time>
</trkpt>
<trkpt lat="50.07858" lon="-122.96426">
<ele>1368.4</ele>
<time>2025-03-24T04:07:54-07:00</time>
</trkpt>
<trkpt lat="50.07866" lon="-122.96389">
<ele>1359.4</ele>
<time>2025-03-24T04:07:55-07:00</time>
</trkpt>
<trkpt lat="50.07868" lon="-122.96386">
<ele>1361</ele>
<time>2025-03-24T04:07:56-07:00</time>
</trkpt>
<trkpt lat="50.07871" lon="-122.96391">
<ele>1359.4</ele>
<time>2025-03-24T04:07:57-07:00</time>
</trkpt>
<trkpt lat="50.07872" lon="-122.96411">
<ele>1359.4</ele>
<time>2025-03-24T04:07:58-07:00</time>
</trkpt>
<trkpt lat="50.07869" lon="-122.96434">
<ele>1356.8</ele>
<time>2025-03-24T04:07:59-07:00</time>
</trkpt>
<trkpt lat="50.07863" lon="-122.96455">
<ele>1353</ele>
<time>2025-03-24T04:08:00-07:00</time>
</trkpt>
<trkpt lat="50.07858" lon="-122.96462">
<ele>1366.8</ele>
<time>2025-03-24T04:08:01-07:00</time>
</trkpt>
<trkpt lat="50.07857" lon="-122.9647">
<ele>1366.8</ele>
<time>2025-03-24T04:08:02-07:00</time>
</trkpt>
<trkpt lat="50.07835" lon="-122.96488">
<ele>1363</ele>
<time>2025-03-24T04:08:03-07:00</time>
</trkpt>
<trkpt lat="50.07833" lon="-122.96494">
<ele>1371.1</ele>
<time>2025-03-24T04:08:04-07:00</time>
</trkpt>
<trkpt lat="50.07829" lon="-122.96495">
<ele>1371.1</ele>
<time>2025-03-24T04:08:05-07:00</time>
</trkpt>
<trkpt lat="50.07824" lon="-122.965">
<ele>1371.1</ele>
<time>2025-03-24T04:08:06-07:00</time>
</trkpt>
<trkpt lat="50.07809" lon="-122.96524">
<ele>1364.5</ele>
<time>2025-03-24T04:08:07-07:00</time>
</trkpt>
<trkpt lat="50.07808" lon="-122.96529">
<ele>1358.1</ele>
<time>2025-03-24T04:08:08-07:00</time>
</trkpt>
<trkpt lat="50.07803" lon="-122.96532">
<ele>1362</ele>
<time>2025-03-24T04:08:09-07:00</time>
</trkpt>
<trkpt lat="50.07793" lon="-122.9655">
<ele>1362</ele>
<time>2025-03-24T04:08:10-07:00</time>
</trkpt>
<trkpt lat="50.07786" lon="-122.96565">
<ele>1354.7</ele>
<time>2025-03-24T04:08:11-07:00</time>
</trkpt>
<trkpt lat="50.07784" lon="-122.96574">
<ele>1354.7</ele>
<time>2025-03-24T04:08:12-07:00</time>
</trkpt>
<trkpt lat="50.07782" lon="-122.9659">
<ele>1345.6</ele>
<time>2025-03-24T04:08:13-07:00</time>
</trkpt>
<trkpt lat="50.07786" lon="-122.96603">
<ele>1345.6</ele>
<time>2025-03-24T04:08:14-07:00</time>
</trkpt>
<trkpt lat="50.0779" lon="-122.96606">
<ele>1345.6</ele>
<time>2025-03-24T04:08:15-07:00</time>
</trkpt>
<trkpt lat="50.07794" lon="-122.96605">
<ele>1345.6</ele>
<time>2025-03-24T04:08:16-07:00</time>
</trkpt>
<trkpt lat="50.07813" lon="-122.96586">
<ele>1343.9</ele>
<time>2025-03-24T04:08:17-07:00</time>
</trkpt>
<trkpt lat="50.07824" lon="-122.96571">
<ele>1352.2</ele>
<time>2025-03-24T04:08:18-07:00</time>
</trkpt>
<trkpt lat="50.07869" lon="-122.96549">
<ele>1344</ele>
<time>2025-03-24T04:08:19-07:00</time>
</trkpt>
<trkpt lat="50.07882" lon="-122.96538">
<ele>1344</ele>
<time>2025-03-24T04:08:20-07:00</time>
</trkpt>
<trkpt lat="50.07883" lon="-122.96533">
<ele>1344</ele>
<time>2025-03-24T04:08:21-07:00</time>
</trkpt>
<trkpt lat="50.07895" lon="-122.96523">
<ele>1337.2</ele>
<time>2025-03-24T04:08:22-07:00</time>
</trkpt>
<trkpt lat="50.07893" lon="-122.96514">
<ele>1337.2</ele>
<time>2025-03-24T04:08:23-07:00</time>
</trkpt>
<trkpt lat="50.07897" lon="-122.96512">
<ele>1337.2</ele>
<time>2025-03-24T04:08:24-07:00</time>
</trkpt>
<trkpt lat="50.07902" lon="-122.96508">
<ele>1337.2</ele>
<time>2025-03-24T04:08:25-07:00</time>
</trkpt>
<trkpt lat="50.07906" lon="-122.96504">
<ele>1337.2</ele>
<time>2025-03-24T04:08:26-07:00</time>
</trkpt>
<trkpt lat="50.07909" lon="-122.96499">
<ele>1340.6</ele>
<time>2025-03-24T04:08:27-07:00</time>
</trkpt>
<trkpt lat="50.07911" lon="-122.96494">
<ele>1340.6</ele>
<time>2025-03-24T04:08:28-07:00</time>
</trkpt>
<trkpt lat="50.07913" lon="-122.96491">
<ele>1340.6</ele>
<time>2025-03-24T04:08:29-07:00</time>
</trkpt>
<trkpt lat="50.07917" lon="-122.96488">
<ele>1328</ele>
<time>2025-03-24T04:08:30-07:00</time>
</trkpt>
<trkpt lat="50.07921" lon="-122.96487">
<ele>1328</ele>
<time>2025-03-24T04:08:31-07:00</time>
</trkpt>
<trkpt lat="50.07925" lon="-122.96486">
<ele>1328</ele>
<time>2025-03-24T04:08:32-07:00</time>
</trkpt>
<trkpt lat="50.07927" lon="-122.96488">
<ele>1328</ele>
<time>2025-03-24T04:08:33-07:00</time>
</trkpt>
<trkpt lat="50.07927" lon="-122.96494">
<ele>1328</ele>
<time>2025-03-24T04:08:34-07:00</time>
</trkpt>
<trkpt lat="50.07926" lon="-122.96502">
<ele>1325.7</ele>
<time>2025-03-24T04:08:35-07:00</time>
</trkpt>
<trkpt lat="50.07923" lon="-122.96512">
<ele>1325.7</ele>
<time>2025-03-24T04:08:36-07:00</time>
</trkpt>
<trkpt lat="50.0792" lon="-122.9652">
<ele>1325.7</ele>
<time>2025-03-24T04:08:37-07:00</time>
</trkpt>
<trkpt lat="50.07917" lon="-122.96527">
<ele>1325.7</ele>
<time>2025-03-24T04:08:38-07:00</time>
</trkpt>
<trkpt lat="50.07913" lon="-122.96534">
<ele>1333.2</ele>
<time>2025-03-24T04:08:39-07:00</time>
</trkpt>
<trkpt lat="50.07911" lon="-122.9654">
<ele>1333.2</ele>
<time>2025-03-24T04:08:40-07:00</time>
</trkpt>
<trkpt lat="50.07908" lon="-122.96546">
<ele>1333.2</ele>
<time>2025-03-24T04:08:41-07:00</time>
</trkpt>
<trkpt lat="50.07907" lon="-122.96554">
<ele>1333.2</ele>
<time>2025-03-24T04:08:42-07:00</time>
</trkpt>
<trkpt lat="50.07907" lon="-122.96562">
<ele>1329</ele>
<time>2025-03-24T04:08:43-07:00</time>
</trkpt>
<trkpt lat="50.07907" lon="-122.96572">
<ele>1329</ele>
<time>2025-03-24T04:08:44-07:00</time>
</trkpt>
<trkpt lat="50.07907" lon="-122.9658">
<ele>1329</ele>
<time>2025-03-24T04:08:45-07:00</time>
</trkpt>
<trkpt lat="50.07906" lon="-122.96588">
<ele>1324.7</ele>
<time>2025-03-24T04:08:46-07:00</time>
</trkpt>
<trkpt lat="50.07904" lon="-122.96594">
<ele>1324.7</ele>
<time>2025-03-24T04:08:47-07:00</time>
</trkpt>
<trkpt lat="50.07903" lon="-122.966">
<ele>1324.7</ele>
<time>2025-03-24T04:08:48-07:00</time>
</trkpt>
<trkpt lat="50.07903" lon="-122.96606">
<ele>1324.7</ele>
<time>2025-03-24T04:08:49-07:00</time>
</trkpt>
<trkpt lat="50.07905" lon="-122.96609">
<ele>1324.7</ele>
<time>2025-03-24T04:08:50-07:00</time>
</trkpt>
<trkpt lat="50.07908" lon="-122.96609">
<ele>1324.7</ele>
<time>2025-03-24T04:08:51-07:00</time>
</trkpt>
<trkpt lat="50.07911" lon="-122.96608">
<ele>1324.7</ele>
<time>2025-03-24T04:08:52-07:00</time>
</trkpt>
<trkpt lat="50.07914" lon="-122.96605">
<ele>1324.7</ele>
<time>2025-03-24T04:08:53-07:00</time>
</trkpt>
<trkpt lat="50.07916" lon="-122.96604">
<ele>1324.7</ele>
<time>2025-03-24T04:08:54-07:00</time>
</trkpt>
<trkpt lat="50.07918" lon="-122.96606">
<ele>1315</ele>
<time>2025-03-24T04:08:55-07:00</time>
</trkpt>
<trkpt lat="50.07918" lon="-122.96612">
<ele>1309.5</ele>
<time>2025-03-24T04:08:56-07:00</time>
</trkpt>
<trkpt lat="50.07917" lon="-122.96618">
<ele>1309.5</ele>
<time>2025-03-24T04:08:57-07:00</time>
</trkpt>
<trkpt lat="50.07916" lon="-122.96624">
<ele>1317.4</ele>
<time>2025-03-24T04:08:58-07:00</time>
</trkpt>
<trkpt lat="50.07914" lon="-122.96629">
<ele>1317.4</ele>
<time>2025-03-24T04:08:59-07:00</time>
</trkpt>
<trkpt lat="50.0791" lon="-122.96632">
<ele>1317.4</ele>
<time>2025-03-24T04:09:00-07:00</time>
</trkpt>
<trkpt lat="50.07905" lon="-122.96634">
<ele>1317.4</ele>
<time>2025-03-24T04:09:01-07:00</time>
</trkpt>
<trkpt lat="50.079" lon="-122.96636">
<ele>1317.4</ele>
<time>2025-03-24T04:09:02-07:00</time>
</trkpt>
<trkpt lat="50.07899" lon="-122.9664">
<ele>1311.3</ele>
<time>2025-03-24T04:09:03-07:00</time>
</trkpt>
<trkpt lat="50.07899" lon="-122.96643">
<ele>1311.3</ele>
<time>2025-03-24T04:09:04-07:00</time>
</trkpt>
<trkpt lat="50.079" lon="-122.96645">
<ele>1311.3</ele>
<time>2025-03-24T04:09:05-07:00</time>
</trkpt>
<trkpt lat="50.07903" lon="-122.96646">
<ele>1311.3</ele>
<time>2025-03-24T04:09:06-07:00</time>
</trkpt>
<trkpt lat="50.07908" lon="-122.96647">
<ele>1311.3</ele>
<time>2025-03-24T04:09:07-07:00</time>
</trkpt>
<trkpt lat="50.07914" lon="-122.96648">
<ele>1311.3</ele>
<time>2025-03-24T04:09:08-07:00</time>
</trkpt>
<trkpt lat="50.07921" lon="-122.96646">
<ele>1304.9</ele>
<time>2025-03-24T04:09:09-07:00</time>
</trkpt>
<trkpt lat="50.07926" lon="-122.96642">
<ele>1304.9</ele>
<time>2025-03-24T04:09:10-07:00</time>
</trkpt>
<trkpt lat="50.0793" lon="-122.96635">
<ele>1309.5</ele>
<time>2025-03-24T04:09:11-07:00</time>
</trkpt>
<trkpt lat="50.07934" lon="-122.96628">
<ele>1309.5</ele>
<time>2025-03-24T04:09:12-07:00</time>
</trkpt>
<trkpt lat="50.07939" lon="-122.9662">
<ele>1309.5</ele>
<time>2025-03-24T04:09:13-07:00</time>
</trkpt>
<trkpt lat="50.07942" lon="-122.96612">
<ele>1309.5</ele>
<time>2025-03-24T04:09:14-07:00</time>
</trkpt>
<trkpt lat="50.07943" lon="-122.96606">
<ele>1315</ele>
<time>2025-03-24T04:09:15-07:00</time>
</trkpt>
<trkpt lat="50.07945" lon="-122.96598">
<ele>1302.5</ele>
<time>2025-03-24T04:09:16-07:00</time>
</trkpt>
<trkpt lat="50.07946" lon="-122.9659">
<ele>1302.5</ele>
<time>2025-03-24T04:09:17-07:00</time>
</trkpt>
<trkpt lat="50.07949" lon="-122.96588">
<ele>1302.5</ele>
<time>2025-03-24T04:09:18-07:00</time>
</trkpt>
<trkpt lat="50.0795" lon="-122.96592">
<ele>1302.5</ele>
<time>2025-03-24T04:09:19-07:00</time>
</trkpt>
<trkpt lat="50.07949" lon="-122.966">
<ele>1302.5</ele>
<time>2025-03-24T04:09:20-07:00</time>
</trkpt>
<trkpt lat="50.07948" lon="-122.96608">
<ele>1302.5</ele>
<time>2025-03-24T04:09:21-07:00</time>
</trkpt>
<trkpt lat="50.07949" lon="-122.96612">
<ele>1297</ele>
<time>2025-03-24T04:09:22-07:00</time>
</trkpt>
<trkpt lat="50.07952" lon="-122.96612">
<ele>1297</ele>
<time>2025-03-24T04:09:23-07:00</time>
</trkpt>
<trkpt lat="50.07954" lon="-122.96608">
<ele>1302.5</ele>
<time>2025-03-24T04:09:24-07:00</time>
</trkpt>
<trkpt lat="50.07957" lon="-122.96602">
<ele>1302.5</ele>
<time>2025-03-24T04:09:25-07:00</time>
</trkpt>
<trkpt lat="50.0796" lon="-122.96596">
<ele>1302.5</ele>
<time>2025-03-24T04:09:26-07:00</time>
</trkpt>
<trkpt lat="50.07963" lon="-122.96596">
<ele>1302.5</ele>
<time>2025-03-24T04:09:27-07:00</time>
</trkpt>
<trkpt lat="50.07966" lon="-122.96599">
<ele>1302.5</ele>
<time>2025-03-24T04:09:28-07:00</time>
</trkpt>
<trkpt lat="50.07967" lon="-122.96604">
<ele>1302.5</ele>
<time>2025-03-24T04:09:29-07:00</time>
</trkpt>
<trkpt lat="50.07965" lon="-122.96613">
<ele>1297</ele>
<time>2025-03-24T04:09:30-07:00</time>
</trkpt>
<trkpt lat="50.07961" lon="-122.96622">
<ele>1297</ele>
<time>2025-03-24T04:09:31-07:00</time>
</trkpt>
<trkpt lat="50.07956" lon="-122.96635">
<ele>1297</ele>
<time>2025-03-24T04:09:32-07:00</time>
</trkpt>
<trkpt lat="50.07953" lon="-122.96646">
<ele>1292.6</ele>
<time>2025-03-24T04:09:33-07:00</time>
</trkpt>
<trkpt lat="50.0795" lon="-122.96657">
<ele>1292.6</ele>
<time>2025-03-24T04:09:34-07:00</time>
</trkpt>
<trkpt lat="50.07948" lon="-122.96668">
<ele>1288.6</ele>
<time>2025-03-24T04:09:35-07:00</time>
</trkpt>
<trkpt lat="50.07944" lon="-122.96679">
<ele>1300.4</ele>
<time>2025-03-24T04:09:36-07:00</time>
</trkpt>
<trkpt lat="50.0794" lon="-122.96689">
<ele>1300.4</ele>
<time>2025-03-24T04:09:37-07:00</time>
</trkpt>
<trkpt lat="50.07935" lon="-122.96701">
<ele>1295.4</ele>
<time>2025-03-24T04:09:38-07:00</time>
</trkpt>
<trkpt lat="50.0793" lon="-122.96711">
<ele>1295.4</ele>
<time>2025-03-24T04:09:39-07:00</time>
</trkpt>
<trkpt lat="50.07925" lon="-122.96719">
<ele>1295.4</ele>
<time>2025-03-24T04:09:40-07:00</time>
</trkpt>
<trkpt lat="50.07919" lon="-122.96725">
<ele>1289.2</ele>
<time>2025-03-24T04:09:41-07:00</time>
</trkpt>
<trkpt lat="50.0791" lon="-122.96729">
<ele>1291.3</ele>
<time>2025-03-24T04:09:42-07:00</time>
</trkpt>
<trkpt lat="50.07904" lon="-122.9673">
<ele>1291.3</ele>
<time>2025-03-24T04:09:43-07:00</time>
</trkpt>
<trkpt lat="50.07902" lon="-122.96733">
<ele>1291.3</ele>
<time>2025-03-24T04:09:44-07:00</time>
</trkpt>
<trkpt lat="50.07904" lon="-122.96738">
<ele>1291.3</ele>
<time>2025-03-24T04:09:45-07:00</time>
</trkpt>
<trkpt lat="50.07908" lon="-122.96744">
<ele>1291.3</ele>
<time>2025-03-24T04:09:46-07:00</time>
</trkpt>
<trkpt lat="50.07912" lon="-122.96749">
<ele>1291.3</ele>
<time>2025-03-24T04:09:47-07:00</time>
</trkpt>
<trkpt lat="50.07915" lon="-122.96753">
<ele>1284.5</ele>
<time>2025-03-24T04:09:48-07:00</time>
</trkpt>
<trkpt lat="50.07921" lon="-122.96757">
<ele>1284.1</ele>
<time>2025-03-24T04:09:49-07:00</time>
</trkpt>
<trkpt lat="50.07927" lon="-122.96757">
<ele>1284.1</ele>
<time>2025-03-24T04:09:50-07:00</time>
</trkpt>
<trkpt lat="50.07937" lon="-122.96756">
<ele>1284.1</ele>
<time>2025-03-24T04:09:51-07:00</time>
</trkpt>
<trkpt lat="50.07945" lon="-122.96756">
<ele>1279.1</ele>
<time>2025-03-24T04:09:52-07:00</time>
</trkpt>
<trkpt lat="50.07953" lon="-122.96756">
<ele>1279.1</ele>
<time>2025-03-24T04:09:53-07:00</time>
</trkpt>
<trkpt lat="50.07961" lon="-122.96755">
<ele>1279.1</ele>
<time>2025-03-24T04:09:54-07:00</time>
</trkpt>
<trkpt lat="50.07967" lon="-122.96751">
<ele>1279.1</ele>
<time>2025-03-24T04:09:55-07:00</time>
</trkpt>
<trkpt lat="50.07974" lon="-122.96746">
<ele>1273.8</ele>
<time>2025-03-24T04:09:56-07:00</time>
</trkpt>
<trkpt lat="50.0798" lon="-122.96742">
<ele>1273.8</ele>
<time>2025-03-24T04:09:57-07:00</time>
</trkpt>
<trkpt lat="50.07985" lon="-122.96737">
<ele>1273.8</ele>
<time>2025-03-24T04:09:58-07:00</time>
</trkpt>
<trkpt lat="50.0799" lon="-122.96732">
<ele>1273.8</ele>
<time>2025-03-24T04:09:59-07:00</time>
</trkpt>
<trkpt lat="50.07992" lon="-122.96725">
<ele>1273.8</ele>
<time>2025-03-24T04:10:00-07:00</time>
</trkpt>
<trkpt lat="50.07995" lon="-122.96718">
<ele>1277.8</ele>
<time>2025-03-24T04:10:01-07:00</time>
</trkpt>
<trkpt lat="50.07998" lon="-122.96713">
<ele>1277.8</ele>
<time>2025-03-24T04:10:02-07:00</time>
</trkpt>
<trkpt lat="50.08002" lon="-122.96712">
<ele>1268.9</ele>
<time>2025-03-24T04:10:03-07:00</time>
</trkpt>
<trkpt lat="50.08004" lon="-122.96717">
<ele>1268.9</ele>
<time>2025-03-24T04:10:04-07:00</time>
</trkpt>
<trkpt lat="50.08002" lon="-122.96724">
<ele>1264.8</ele>
<time>2025-03-24T04:10:05-07:00</time>
</trkpt>
<trkpt lat="50.08" lon="-122.9673">
<ele>1264.8</ele>
<time>2025-03-24T04:10:06-07:00</time>
</trkpt>
<trkpt lat="50.07997" lon="-122.96734">
<ele>1273.8</ele>
<time>2025-03-24T04:10:07-07:00</time>
</trkpt>
<trkpt lat="50.07998" lon="-122.96738">
<ele>1273.8</ele>
<time>2025-03-24T04:10:08-07:00</time>
</trkpt>
<trkpt lat="50.08001" lon="-122.9674">
<ele>1264.8</ele>
<time>2025-03-24T04:10:09-07:00</time>
</trkpt>
<trkpt lat="50.08006" lon="-122.96739">
<ele>1264.8</ele>
<time>2025-03-24T04:10:10-07:00</time>
</trkpt>
<trkpt lat="50.08011" lon="-122.96737">
<ele>1264.8</ele>
<time>2025-03-24T04:10:11-07:00</time>
</trkpt>
<trkpt lat="50.08015" lon="-122.96733">
<ele>1264.8</ele>
<time>2025-03-24T04:10:12-07:00</time>
</trkpt>
<trkpt lat="50.08019" lon="-122.96727">
<ele>1264.8</ele>
<time>2025-03-24T04:10:13-07:00</time>
</trkpt>
<trkpt lat="50.08022" lon="-122.96723">
<ele>1264.8</ele>
<time>2025-03-24T04:10:14-07:00</time>
</trkpt>
<trkpt lat="50.08025" lon="-122.96724">
<ele>1264.8</ele>
<time>2025-03-24T04:10:15-07:00</time>
</trkpt>
<trkpt lat="50.08026" lon="-122.96729">
<ele>1264.8</ele>
<time>2025-03-24T04:10:16-07:00</time>
</trkpt>
<trkpt lat="50.08026" lon="-122.96736">
<ele>1264.8</ele>
<time>2025-03-24T04:10:17-07:00</time>
</trkpt>
<trkpt lat="50.08025" lon="-122.96742">
<ele>1264.8</ele>
<time>2025-03-24T04:10:18-07:00</time>
</trkpt>
<trkpt lat="50.08021" lon="-122.96749">
<ele>1264.8</ele>
<time>2025-03-24T04:10:19-07:00</time>
</trkpt>
<trkpt lat="50.08017" lon="-122.96755">
<ele>1261.4</ele>
<time>2025-03-24T04:10:20-07:00</time>
</trkpt>
<trkpt lat="50.08011" lon="-122.96761">
<ele>1261.4</ele>
<time>2025-03-24T04:10:21-07:00</time>
</trkpt>
<trkpt lat="50.08004" lon="-122.96767">
<ele>1261.4</ele>
<time>2025-03-24T04:10:22-07:00</time>
</trkpt>
<trkpt lat="50.07999" lon="-122.96774">
<ele>1269.9</ele>
<time>2025-03-24T04:10:23-07:00</time>
</trkpt>
<trkpt lat="50.07994" lon="-122.9678">
<ele>1265.8</ele>
<time>2025-03-24T04:10:24-07:00</time>
</trkpt>
<trkpt lat="50.07993" lon="-122.96784">
<ele>1265.8</ele>
<time>2025-03-24T04:10:25-07:00</time>
</trkpt>
<trkpt lat="50.07995" lon="-122.96787">
<ele>1265.8</ele>
<time>2025-03-24T04:10:26-07:00</time>
</trkpt>
<trkpt lat="50.07999" lon="-122.96786">
<ele>1265.8</ele>
<time>2025-03-24T04:10:27-07:00</time>
</trkpt>
<trkpt lat="50.08003" lon="-122.96785">
<ele>1257.7</ele>
<time>2025-03-24T04:10:28-07:00</time>
</trkpt>
<trkpt lat="50.08007" lon="-122.96782">
<ele>1257.7</ele>
<time>2025-03-24T04:10:29-07:00</time>
</trkpt>
<trkpt lat="50.08011" lon="-122.96781">
<ele>1257.7</ele>
<time>2025-03-24T04:10:30-07:00</time>
</trkpt>
<trkpt lat="50.08015" lon="-122.9678">
<ele>1257.7</ele>
<time>2025-03-24T04:10:31-07:00</time>
</trkpt>
<trkpt lat="50.08017" lon="-122.96785">
<ele>1257.7</ele>
<time>2025-03-24T04:10:32-07:00</time>
</trkpt>
<trkpt lat="50.08016" lon="-122.9679">
<ele>1257.7</ele>
<time>2025-03-24T04:10:33-07:00</time>
</trkpt>
<trkpt lat="50.08012" lon="-122.96799">
<ele>1257.7</ele>
<time>2025-03-24T04:10:34-07:00</time>
</trkpt>
<trkpt lat="50.08009" lon="-122.96806">
<ele>1251.4</ele>
<time>2025-03-24T04:10:35-07:00</time>
</trkpt>
<trkpt lat="50.08004" lon="-122.96815">
<ele>1251.4</ele>
<time>2025-03-24T04:10:36-07:00</time>
</trkpt>
<trkpt lat="50.08001" lon="-122.9682">
<ele>1251.4</ele>
<time>2025-03-24T04:10:37-07:00</time>
</trkpt>
<trkpt lat="50.07996" lon="-122.96824">
<ele>1261</ele>
<time>2025-03-24T04:10:38-07:00</time>
</trkpt>
<trkpt lat="50.07992" lon="-122.96831">
<ele>1261</ele>
<time>2025-03-24T04:10:39-07:00</time>
</trkpt>
<trkpt lat="50.07993" lon="-122.96836">
<ele>1254.9</ele>
<time>2025-03-24T04:10:40-07:00</time>
</trkpt>
<trkpt lat="50.07996" lon="-122.96837">
<ele>1254.9</ele>
<time>2025-03-24T04:10:41-07:00</time>
</trkpt>
<trkpt lat="50.08" lon="-122.96837">
<ele>1244.5</ele>
<time>2025-03-24T04:10:42-07:00</time>
</trkpt>
<trkpt lat="50.08004" lon="-122.96834">
<ele>1244.5</ele>
<time>2025-03-24T04:10:43-07:00</time>
</trkpt>
<trkpt lat="50.08008" lon="-122.96829">
<ele>1251.4</ele>
<time>2025-03-24T04:10:44-07:00</time>
</trkpt>
<trkpt lat="50.08012" lon="-122.96823">
<ele>1251.4</ele>
<time>2025-03-24T04:10:45-07:00</time>
</trkpt>
<trkpt lat="50.08016" lon="-122.96822">
<ele>1251.4</ele>
<time>2025-03-24T04:10:46-07:00</time>
</trkpt>
<trkpt lat="50.08018" lon="-122.96826">
<ele>1251.4</ele>
<time>2025-03-24T04:10:47-07:00</time>
</trkpt>
<trkpt lat="50.08021" lon="-122.96832">
<ele>1251.4</ele>
<time>2025-03-24T04:10:48-07:00</time>
</trkpt>
<trkpt lat="50.08024" lon="-122.96833">
<ele>1251.4</ele>
<time>2025-03-24T04:10:49-07:00</time>
</trkpt>
<trkpt lat="50.08029" lon="-122.96831">
<ele>1237.1</ele>
<time>2025-03-24T04:10:50-07:00</time>
</trkpt>
<trkpt lat="50.08035" lon="-122.96831">
<ele>1237.1</ele>
<time>2025-03-24T04:10:51-07:00</time>
</trkpt>
<trkpt lat="50.08042" lon="-122.96829">
<ele>1237.1</ele>
<time>2025-03-24T04:10:52-07:00</time>
</trkpt>
<trkpt lat="50.08049" lon="-122.96827">
<ele>1237.1</ele>
<time>2025-03-24T04:10:53-07:00</time>
</trkpt>
<trkpt lat="50.08056" lon="-122.96821">
<ele>1221.6</ele>
<time>2025-03-24T04:10:54-07:00</time>
</trkpt>
<trkpt lat="50.08061" lon="-122.9681">
<ele>1221.6</ele>
<time>2025-03-24T04:10:55-07:00</time>
</trkpt>
<trkpt lat="50.08068" lon="-122.96803">
<ele>1231.2</ele>
<time>2025-03-24T04:10:56-07:00</time>
</trkpt>
<trkpt lat="50.08075" lon="-122.96796">
<ele>1231.2</ele>
<time>2025-03-24T04:10:57-07:00</time>
</trkpt>
<trkpt lat="50.0808" lon="-122.96791">
<ele>1231.2</ele>
<time>2025-03-24T04:10:58-07:00</time>
</trkpt>
<trkpt lat="50.08085" lon="-122.96785">
<ele>1218.9</ele>
<time>2025-03-24T04:10:59-07:00</time>
</trkpt>
<trkpt lat="50.0809" lon="-122.96781">
<ele>1218.9</ele>
<time>2025-03-24T04:11:00-07:00</time>
</trkpt>
<trkpt lat="50.08095" lon="-122.96776">
<ele>1234.3</ele>
<time>2025-03-24T04:11:01-07:00</time>
</trkpt>
<trkpt lat="50.081" lon="-122.96772">
<ele>1234.3</ele>
<time>2025-03-24T04:11:02-07:00</time>
</trkpt>
<trkpt lat="50.08106" lon="-122.96771">
<ele>1234.3</ele>
<time>2025-03-24T04:11:03-07:00</time>
</trkpt>
<trkpt lat="50.08112" lon="-122.9677">
<ele>1241.2</ele>
<time>2025-03-24T04:11:04-07:00</time>
</trkpt>
<trkpt lat="50.08117" lon="-122.96769">
<ele>1241.2</ele>
<time>2025-03-24T04:11:05-07:00</time>
</trkpt>
<trkpt lat="50.08124" lon="-122.96765">
<ele>1241.2</ele>
<time>2025-03-24T04:11:06-07:00</time>
</trkpt>
<trkpt lat="50.08131" lon="-122.9676">
<ele>1241.2</ele>
<time>2025-03-24T04:11:07-07:00</time>
</trkpt>
<trkpt lat="50.08135" lon="-122.96757">
<ele>1241.2</ele>
<time>2025-03-24T04:11:08-07:00</time>
</trkpt>
<trkpt lat="50.08139" lon="-122.96754">
<ele>1231.5</ele>
<time>2025-03-24T04:11:09-07:00</time>
</trkpt>
<trkpt lat="50.08143" lon="-122.9675">
<ele>1238.5</ele>
<time>2025-03-24T04:11:10-07:00</time>
</trkpt>
<trkpt lat="50.08147" lon="-122.96746">
<ele>1238.5</ele>
<time>2025-03-24T04:11:11-07:00</time>
</trkpt>
<trkpt lat="50.0815" lon="-122.96744">
<ele>1238.5</ele>
<time>2025-03-24T04:11:12-07:00</time>
</trkpt>
<trkpt lat="50.08152" lon="-122.96745">
<ele>1238.5</ele>
<time>2025-03-24T04:11:13-07:00</time>
</trkpt>
<trkpt lat="50.08154" lon="-122.96749">
<ele>1238.5</ele>
<time>2025-03-24T04:11:14-07:00</time>
</trkpt>
<trkpt lat="50.08153" lon="-122.96754">
<ele>1231.5</ele>
<time>2025-03-24T04:11:15-07:00</time>
</trkpt>
<trkpt lat="50.0815" lon="-122.96759">
<ele>1231.5</ele>
<time>2025-03-24T04:11:16-07:00</time>
</trkpt>
<trkpt lat="50.08146" lon="-122.96761">
<ele>1231.5</ele>
<time>2025-03-24T04:11:17-07:00</time>
</trkpt>
<trkpt lat="50.08142" lon="-122.96765">
<ele>1231.5</ele>
<time>2025-03-24T04:11:18-07:00</time>
</trkpt>
<trkpt lat="50.08138" lon="-122.96768">
<ele>1241.2</ele>
<time>2025-03-24T04:11:19-07:00</time>
</trkpt>
<trkpt lat="50.08134" lon="-122.96774">
<ele>1241.2</ele>
<time>2025-03-24T04:11:20-07:00</time>
</trkpt>
<trkpt lat="50.08135" lon="-122.96779">
<ele>1229</ele>
<time>2025-03-24T04:11:21-07:00</time>
</trkpt>
<trkpt lat="50.08139" lon="-122.96781">
<ele>1225.2</ele>
<time>2025-03-24T04:11:22-07:00</time>
</trkpt>
<trkpt lat="50.08143" lon="-122.96781">
<ele>1225.2</ele>
<time>2025-03-24T04:11:23-07:00</time>
</trkpt>
<trkpt lat="50.08148" lon="-122.96781">
<ele>1225.2</ele>
<time>2025-03-24T04:11:24-07:00</time>
</trkpt>
<trkpt lat="50.08152" lon="-122.9678">
<ele>1225.2</ele>
<time>2025-03-24T04:11:25-07:00</time>
</trkpt>
<trkpt lat="50.08156" lon="-122.96776">
<ele>1231.5</ele>
<time>2025-03-24T04:11:26-07:00</time>
</trkpt>
<trkpt lat="50.0816" lon="-122.96771">
<ele>1231.5</ele>
<time>2025-03-24T04:11:27-07:00</time>
</trkpt>
<trkpt lat="50.08163" lon="-122.96769">
<ele>1231.5</ele>
<time>2025-03-24T04:11:28-07:00</time>
</trkpt>
<trkpt lat="50.08165" lon="-122.96773">
<ele>1231.5</ele>
<time>2025-03-24T04:11:29-07:00</time>
</trkpt>
<trkpt lat="50.08165" lon="-122.96778">
<ele>1225.2</ele>
<time>2025-03-24T04:11:30-07:00</time>
</trkpt>
<trkpt lat="50.08162" lon="-122.96783">
<ele>1225.2</ele>
<time>2025-03-24T04:11:31-07:00</time>
</trkpt>
<trkpt lat="50.08159" lon="-122.96788">
<ele>1225.2</ele>
<time>2025-03-24T04:11:32-07:00</time>
</trkpt>
<trkpt lat="50.08157" lon="-122.96794">
<ele>1225.2</ele>
<time>2025-03-24T04:11:33-07:00</time>
</trkpt>
<trkpt lat="50.08153" lon="-122.96797">
<ele>1225.2</ele>
<time>2025-03-24T04:11:34-07:00</time>
</trkpt>
<trkpt lat="50.08149" lon="-122.96797">
<ele>1225.2</ele>
<time>2025-03-24T04:11:35-07:00</time>
</trkpt>
<trkpt lat="50.08146" lon="-122.96796">
<ele>1225.2</ele>
<time>2025-03-24T04:11:36-07:00</time>
</trkpt>
<trkpt lat="50.08142" lon="-122.96798">
<ele>1225.2</ele>
<time>2025-03-24T04:11:37-07:00</time>
</trkpt>
<trkpt lat="50.08143" lon="-122.96801">
<ele>1225.2</ele>
<time>2025-03-24T04:11:38-07:00</time>
</trkpt>
<trkpt lat="50.08147" lon="-122.96804">
<ele>1225.2</ele>
<time>2025-03-24T04:11:39-07:00</time>
</trkpt>
<trkpt lat="50.08152" lon="-122.96804">
<ele>1225.2</ele>
<time>2025-03-24T04:11:40-07:00</time>
</trkpt>
<trkpt lat="50.08156" lon="-122.96804">
<ele>1225.2</ele>
<time>2025-03-24T04:11:41-07:00</time>
</trkpt>
<trkpt lat="50.08161" lon="-122.96801">
<ele>1225.2</ele>
<time>2025-03-24T04:11:42-07:00</time>
</trkpt>
<trkpt lat="50.08163" lon="-122.96798">
<ele>1225.2</ele>
<time>2025-03-24T04:11:43-07:00</time>
</trkpt>
<trkpt lat="50.08167" lon="-122.96797">
<ele>1217.7</ele>
<time>2025-03-24T04:11:44-07:00</time>
</trkpt>
<trkpt lat="50.08169" lon="-122.96799">
<ele>1217.7</ele>
<time>2025-03-24T04:11:45-07:00</time>
</trkpt>
<trkpt lat="50.08169" lon="-122.96803">
<ele>1217.7</ele>
<time>2025-03-24T04:11:46-07:00</time>
</trkpt>
<trkpt lat="50.08167" lon="-122.96806">
<ele>1212.8</ele>
<time>2025-03-24T04:11:47-07:00</time>
</trkpt>
<trkpt lat="50.08164" lon="-122.9681">
<ele>1219</ele>
<time>2025-03-24T04:11:48-07:00</time>
</trkpt>
<trkpt lat="50.08161" lon="-122.96813">
<ele>1219</ele>
<time>2025-03-24T04:11:49-07:00</time>
</trkpt>
<trkpt lat="50.08156" lon="-122.96815">
<ele>1219</ele>
<time>2025-03-24T04:11:50-07:00</time>
</trkpt>
<trkpt lat="50.0815" lon="-122.96816">
<ele>1219</ele>
<time>2025-03-24T04:11:51-07:00</time>
</trkpt>
<trkpt lat="50.08145" lon="-122.96819">
<ele>1219</ele>
<time>2025-03-24T04:11:52-07:00</time>
</trkpt>
<trkpt lat="50.08145" lon="-122.96825">
<ele>1219</ele>
<time>2025-03-24T04:11:53-07:00</time>
</trkpt>
<trkpt lat="50.08148" lon="-122.96828">
<ele>1219</ele>
<time>2025-03-24T04:11:54-07:00</time>
</trkpt>
<trkpt lat="50.08152" lon="-122.96829">
<ele>1219</ele>
<time>2025-03-24T04:11:55-07:00</time>
</trkpt>
<trkpt lat="50.08155" lon="-122.96829">
<ele>1219</ele>
<time>2025-03-24T04:11:56-07:00</time>
</trkpt>
<trkpt lat="50.0816" lon="-122.96827">
<ele>1219</ele>
<time>2025-03-24T04:11:57-07:00</time>
</trkpt>
<trkpt lat="50.08166" lon="-122.96827">
<ele>1219</ele>
<time>2025-03-24T04:11:58-07:00</time>
</trkpt>
<trkpt lat="50.08171" lon="-122.96826">
<ele>1212.8</ele>
<time>2025-03-24T04:11:59-07:00</time>
</trkpt>
<trkpt lat="50.08175" lon="-122.96822">
<ele>1212.8</ele>
<time>2025-03-24T04:12:00-07:00</time>
</trkpt>
<trkpt lat="50.0818" lon="-122.96814">
<ele>1212.8</ele>
<time>2025-03-24T04:12:01-07:00</time>
</trkpt>
<trkpt lat="50.08183" lon="-122.96809">
<ele>1212.8</ele>
<time>2025-03-24T04:12:02-07:00</time>
</trkpt>
<trkpt lat="50.08187" lon="-122.96807">
<ele>1212.8</ele>
<time>2025-03-24T04:12:03-07:00</time>
</trkpt>
<trkpt lat="50.08191" lon="-122.9681">
<ele>1212.8</ele>
<time>2025-03-24T04:12:04-07:00</time>
</trkpt>
<trkpt lat="50.08189" lon="-122.96817">
<ele>1212.8</ele>
<time>2025-03-24T04:12:05-07:00</time>
</trkpt>
<trkpt lat="50.08185" lon="-122.96823">
<ele>1212.8</ele>
<time>2025-03-24T04:12:06-07:00</time>
</trkpt>
<trkpt lat="50.08182" lon="-122.96829">
<ele>1212.8</ele>
<time>2025-03-24T04:12:07-07:00</time>
</trkpt>
<trkpt lat="50.08178" lon="-122.96837">
<ele>1208</ele>
<time>2025-03-24T04:12:08-07:00</time>
</trkpt>
<trkpt lat="50.08174" lon="-122.96844">
<ele>1208</ele>
<time>2025-03-24T04:12:09-07:00</time>
</trkpt>
<trkpt lat="50.08169" lon="-122.9685">
<ele>1208</ele>
<time>2025-03-24T04:12:10-07:00</time>
</trkpt>
<trkpt lat="50.08163" lon="-122.96856">
<ele>1214.6</ele>
<time>2025-03-24T04:12:11-07:00</time>
</trkpt>
<trkpt lat="50.08158" lon="-122.9686">
<ele>1214.6</ele>
<time>2025-03-24T04:12:12-07:00</time>
</trkpt>
<trkpt lat="50.08155" lon="-122.96866">
<ele>1202.8</ele>
<time>2025-03-24T04:12:13-07:00</time>
</trkpt>
<trkpt lat="50.08155" lon="-122.96872">
<ele>1202.8</ele>
<time>2025-03-24T04:12:14-07:00</time>
</trkpt>
<trkpt lat="50.08158" lon="-122.96876">
<ele>1202.8</ele>
<time>2025-03-24T04:12:15-07:00</time>
</trkpt>
<trkpt lat="50.08163" lon="-122.9688">
<ele>1202.8</ele>
<time>2025-03-24T04:12:16-07:00</time>
</trkpt>
<trkpt lat="50.08167" lon="-122.96876">
<ele>1201.3</ele>
<time>2025-03-24T04:12:17-07:00</time>
</trkpt>
<trkpt lat="50.08173" lon="-122.96872">
<ele>1201.3</ele>
<time>2025-03-24T04:12:18-07:00</time>
</trkpt>
<trkpt lat="50.08178" lon="-122.9687">
<ele>1201.3</ele>
<time>2025-03-24T04:12:19-07:00</time>
</trkpt>
<trkpt lat="50.08184" lon="-122.96872">
<ele>1201.3</ele>
<time>2025-03-24T04:12:20-07:00</time>
</trkpt>
<trkpt lat="50.08189" lon="-122.96875">
<ele>1201.3</ele>
<time>2025-03-24T04:12:21-07:00</time>
</trkpt>
<trkpt lat="50.08195" lon="-122.96877">
<ele>1196</ele>
<time>2025-03-24T04:12:22-07:00</time>
</trkpt>
<trkpt lat="50.08199" lon="-122.96877">
<ele>1196</ele>
<time>2025-03-24T04:12:23-07:00</time>
</trkpt>
<trkpt lat="50.08204" lon="-122.96875">
<ele>1196</ele>
<time>2025-03-24T04:12:24-07:00</time>
</trkpt>
<trkpt lat="50.08208" lon="-122.96872">
<ele>1196</ele>
<time>2025-03-24T04:12:25-07:00</time>
</trkpt>
<trkpt lat="50.08212" lon="-122.96868">
<ele>1196</ele>
<time>2025-03-24T04:12:26-07:00</time>
</trkpt>
<trkpt lat="50.08217" lon="-122.96865">
<ele>1196</ele>
<time>2025-03-24T04:12:27-07:00</time>
</trkpt>
<trkpt lat="50.08222" lon="-122.96862">
<ele>1196</ele>
<time>2025-03-24T04:12:28-07:00</time>
</trkpt>
<trkpt lat="50.08226" lon="-122.96857">
<ele>1196.3</ele>
<time>2025-03-24T04:12:29-07:00</time>
</trkpt>
<trkpt lat="50.08228" lon="-122.9685">
<ele>1196.3</ele>
<time>2025-03-24T04:12:30-07:00</time>
</trkpt>
<trkpt lat="50.08229" lon="-122.96841">
<ele>1196.3</ele>
<time>2025-03-24T04:12:31-07:00</time>
</trkpt>
<trkpt lat="50.0823" lon="-122.96834">
<ele>1196.3</ele>
<time>2025-03-24T04:12:32-07:00</time>
</trkpt>
<trkpt lat="50.08232" lon="-122.96829">
<ele>1200.6</ele>
<time>2025-03-24T04:12:33-07:00</time>
</trkpt>
<trkpt lat="50.08235" lon="-122.96825">
<ele>1200.6</ele>
<time>2025-03-24T04:12:34-07:00</time>
</trkpt>
<trkpt lat="50.08239" lon="-122.96826">
<ele>1200.6</ele>
<time>2025-03-24T04:12:35-07:00</time>
</trkpt>
<trkpt lat="50.08243" lon="-122.9683">
<ele>1200.6</ele>
<time>2025-03-24T04:12:36-07:00</time>
</trkpt>
<trkpt lat="50.08247" lon="-122.96835">
<ele>1196.3</ele>
<time>2025-03-24T04:12:37-07:00</time>
</trkpt>
<trkpt lat="50.08252" lon="-122.9684">
<ele>1189.1</ele>
<time>2025-03-24T04:12:38-07:00</time>
</trkpt>
<trkpt lat="50.08256" lon="-122.96843">
<ele>1189.1</ele>
<time>2025-03-24T04:12:39-07:00</time>
</trkpt>
<trkpt lat="50.08263" lon="-122.96846">
<ele>1189.1</ele>
<time>2025-03-24T04:12:40-07:00</time>
</trkpt>
<trkpt lat="50.0827" lon="-122.96847">
<ele>1189.1</ele>
<time>2025-03-24T04:12:41-07:00</time>
</trkpt>
<trkpt lat="50.08276" lon="-122.96846">
<ele>1189.1</ele>
<time>2025-03-24T04:12:42-07:00</time>
</trkpt>
<trkpt lat="50.0828" lon="-122.96842">
<ele>1182.2</ele>
<time>2025-03-24T04:12:43-07:00</time>
</trkpt>
<trkpt lat="50.08284" lon="-122.96836">
<ele>1182.2</ele>
<time>2025-03-24T04:12:44-07:00</time>
</trkpt>
<trkpt lat="50.0829" lon="-122.9683">
<ele>1186.5</ele>
<time>2025-03-24T04:12:45-07:00</time>
</trkpt>
<trkpt lat="50.08296" lon="-122.96826">
<ele>1186.5</ele>
<time>2025-03-24T04:12:46-07:00</time>
</trkpt>
</trkseg>
</trk>
</gpx>
