<?xml version="1.0"?>
<gpx version="1.1" creator="GDAL 3.9.0" xmlns:xsi="http://www.w3.org/2001/XMLSchema-instance" xmlns="http://www.topografix.com/GPX/1/1" xsi:schemaLocation="http://www.topografix.com/GPX/1/1 http://www.topografix.com/GPX/1/1/gpx.xsd">
<metadata>
<bounds minlat="47.317401507053184" minlon="13.200337884958055" maxlat="47.321874903682563" maxlon="13.219540307389172"/>                                       
</metadata>
<trk>
  <trkseg>
    <trkpt lat="47.317475970662599" lon="13.219540307389172">
    </trkpt>
    <trkpt lat="47.317635883041945" lon="13.219507242612149">
    </trkpt>
    <trkpt lat="47.317719160129116" lon="13.21948901152361">
    </trkpt>
    <trkpt lat="47.317779106055021" lon="13.219474592595709">
    </trkpt>
    <trkpt lat="47.317833488861162" lon="13.219460311957029">
    </trkpt>
    <trkpt lat="47.317882308547759" lon="13.219446169612509">
    </trkpt>
    <trkpt lat="47.317922707431912" lon="13.219431815850671">
    </trkpt>
    <trkpt lat="47.317960187023708" lon="13.219409596785612">
    </trkpt>
    <trkpt lat="47.317992243005307" lon="13.219387005290601">
    </trkpt>
    <trkpt lat="47.318018932057136" lon="13.21936058007077">
    </trkpt>
    <trkpt lat="47.318052099516763" lon="13.219323655893055">
    </trkpt>
    <trkpt lat="47.318077504102305" lon="13.219295090320504">
    </trkpt>
    <trkpt lat="47.318105306115086" lon="13.219253585441903">
    </trkpt>
    <trkpt lat="47.318125480239104" lon="13.219215982067018">
    </trkpt>
    <trkpt lat="47.318141703801473" lon="13.219175908305843">
    </trkpt>
    <trkpt lat="47.31816262986613" lon="13.219123639802214">
    </trkpt>
    <trkpt lat="47.318183271954595" lon="13.219062867652365">
    </trkpt>
    <trkpt lat="47.318203630053375" lon="13.218993591847351">
    </trkpt>
    <trkpt lat="47.318223704147009" lon="13.218915812378528">
    </trkpt>
    <trkpt lat="47.318243494218187" lon="13.218829529237505">
    </trkpt>
    <trkpt lat="47.318257344962177" lon="13.218740923499247">
    </trkpt>
    <trkpt lat="47.31826525637365" lon="13.21864999519172">
    </trkpt>
    <trkpt lat="47.318267228447176" lon="13.218556744344486">
    </trkpt>
    <trkpt lat="47.318263261177052" lon="13.218461170988633">
    </trkpt>
    <trkpt lat="47.31825802162345" lon="13.218371719632474">
    </trkpt>
    <trkpt lat="47.318251509800604" lon="13.218288390280588">
    </trkpt>
    <trkpt lat="47.318243725721906" lon="13.218211182936708">
    </trkpt>
    <trkpt lat="47.318234669399722" lon="13.218140097603664">
    </trkpt>
    <trkpt lat="47.31822642918668" lon="13.218067668245718">
    </trkpt>
    <trkpt lat="47.318219005080202" lon="13.217993894860156">
    </trkpt>
    <trkpt lat="47.318212397077737" lon="13.217918777444144">
    </trkpt>
    <trkpt lat="47.318206605176584" lon="13.217842315994707">
    </trkpt>
    <trkpt lat="47.318205073172656" lon="13.217757731151831">
    </trkpt>
    <trkpt lat="47.31820780104794" lon="13.217665022895865">
    </trkpt>
    <trkpt lat="47.318214788782733" lon="13.217564191203227">
    </trkpt>
    <trkpt lat="47.31822603635549" lon="13.217455236046428">
    </trkpt>
    <trkpt lat="47.318238200568331" lon="13.217357796345159">
    </trkpt>
    <trkpt lat="47.3182512814506" lon="13.217271872102248">
    </trkpt>
    <trkpt lat="47.318265279028203" lon="13.217197463321714">
    </trkpt>
    <trkpt lat="47.318280193323531" lon="13.217134570008758">
    </trkpt>
    <trkpt lat="47.318294036571807" lon="13.21707278742128">
    </trkpt>
    <trkpt lat="47.318306808774892" lon="13.217012115563886">
    </trkpt>
    <trkpt lat="47.3183185099345" lon="13.21695255444105">
    </trkpt>
    <trkpt lat="47.318329140052377" lon="13.216894104057124">
    </trkpt>
    <trkpt lat="47.318334585065365" lon="13.216830321521055">
    </trkpt>
    <trkpt lat="47.318334844964582" lon="13.216761206849943">
    </trkpt>
    <trkpt lat="47.318329919740442" lon="13.216686760064011">
    </trkpt>
    <trkpt lat="47.318319809382466" lon="13.216606981186612">
    </trkpt>
    <trkpt lat="47.318312999528665" lon="13.216522916388946">
    </trkpt>
    <trkpt lat="47.318309490169526" lon="13.216434565656987">
    </trkpt>
    <trkpt lat="47.318309281295136" lon="13.216341928975091">
    </trkpt>
    <trkpt lat="47.318312372895136" lon="13.216245006326028">
    </trkpt>
    <trkpt lat="47.318314130164154" lon="13.216159176042625">
    </trkpt>
    <trkpt lat="47.318314553127209" lon="13.216084438132432">
    </trkpt>
    <trkpt lat="47.318313641805936" lon="13.216020792601306">
    </trkpt>
    <trkpt lat="47.318311396218846" lon="13.215968239453449">
    </trkpt>
    <trkpt lat="47.318308831802753" lon="13.215916639198303">
    </trkpt>
    <trkpt lat="47.318305948558965" lon="13.215865991836667">
    </trkpt>
    <trkpt lat="47.318302746488747" lon="13.215816297369285">
    </trkpt>
    <trkpt lat="47.318299225593343" lon="13.215767555796885">
    </trkpt>
    <trkpt lat="47.318291782362081" lon="13.21570953266005">
    </trkpt>
    <trkpt lat="47.318280416780951" lon="13.215642227975597">
    </trkpt>
    <trkpt lat="47.318265128833552" lon="13.21556564176446">
    </trkpt>
    <trkpt lat="47.318245918501255" lon="13.215479774051712">
    </trkpt>
    <trkpt lat="47.318230176898155" lon="13.215401751569155">
    </trkpt>
    <trkpt lat="47.318217904040324" lon="13.215331574294463">
    </trkpt>
    <trkpt lat="47.318209099942138" lon="13.215269242208381">
    </trkpt>
    <trkpt lat="47.318203764616399" lon="13.21521475529474">
    </trkpt>
    <trkpt lat="47.31819964572383" lon="13.215153917180476">
    </trkpt>
    <trkpt lat="47.318196743254298" lon="13.2150867278629">
    </trkpt>
    <trkpt lat="47.318195057196597" lon="13.215013187338451">
    </trkpt>
    <trkpt lat="47.318194587538585" lon="13.214933295602696">
    </trkpt>
    <trkpt lat="47.318194089564344" lon="13.214871235547101">
    </trkpt>
    <trkpt lat="47.318193563302827" lon="13.214827007171191">
    </trkpt>
    <trkpt lat="47.31819300877472" lon="13.214800610474487">
    </trkpt>
    <trkpt lat="47.318192425992301" lon="13.214792045456429">
    </trkpt>
    <trkpt lat="47.318191221592649" lon="13.214783986151994">
    </trkpt>
    <trkpt lat="47.318189395575864" lon="13.214776432561418">
    </trkpt>
    <trkpt lat="47.318186947942031" lon="13.214769384684921">
    </trkpt>
    <trkpt lat="47.318183878691258" lon="13.214762842522671">
    </trkpt>
    <trkpt lat="47.318180351218132" lon="13.214757239910277">
    </trkpt>
    <trkpt lat="47.31817636552281" lon="13.214752576847685">
    </trkpt>
    <trkpt lat="47.318171921605384" lon="13.214748853334823">
    </trkpt>
    <trkpt lat="47.318167019465953" lon="13.214746069371527">
    </trkpt>
    <trkpt lat="47.318162027163936" lon="13.214744433981339">
    </trkpt>
    <trkpt lat="47.318156944699346" lon="13.214743947163941">
    </trkpt>
    <trkpt lat="47.31815177207222" lon="13.214744608919002">
    </trkpt>
    <trkpt lat="47.318146509282521" lon="13.214746419246184">
    </trkpt>
    <trkpt lat="47.318141691160918" lon="13.214749209027541">
    </trkpt>
    <trkpt lat="47.318137317707297" lon="13.214752978262878">
    </trkpt>
    <trkpt lat="47.318133388921602" lon="13.214757726952042">
    </trkpt>
    <trkpt lat="47.318129904803698" lon="13.214763455094936">
    </trkpt>
    <trkpt lat="47.318124791827394" lon="13.214781373280577">
    </trkpt>
    <trkpt lat="47.318118049986928" lon="13.214811481503784">
    </trkpt>
    <trkpt lat="47.318109679272702" lon="13.214853779757156">
    </trkpt>
    <trkpt lat="47.318099679671214" lon="13.214908268031033">
    </trkpt>
    <trkpt lat="47.318090596773978" lon="13.214984031747903">
    </trkpt>
    <trkpt lat="47.31808243053878" lon="13.215081070900847">
    </trkpt>
    <trkpt lat="47.318075180911599" lon="13.21519938548516">
    </trkpt>
    <trkpt lat="47.318068847826538" lon="13.215338975498383">
    </trkpt>
    <trkpt lat="47.318057340959449" lon="13.215470160177212">
    </trkpt>
    <trkpt lat="47.318040660339165" lon="13.215592939488651">
    </trkpt>
    <trkpt lat="47.318018805992601" lon="13.215707313404616">
    </trkpt>
    <trkpt lat="47.317991777944862" lon="13.215813281901942">
    </trkpt>
    <trkpt lat="47.317964506515295" lon="13.215928145778093">
    </trkpt>
    <trkpt lat="47.317936991677072" lon="13.216051905017796">
    </trkpt>
    <trkpt lat="47.31790923340143" lon="13.216184559605551">
    </trkpt>
    <trkpt lat="47.317881231657424" lon="13.216326109525605">
    </trkpt>
    <trkpt lat="47.317857935289979" lon="13.216437270569442">
    </trkpt>
    <trkpt lat="47.317839344387664" lon="13.216518042806596">
    </trkpt>
    <trkpt lat="47.31782545901477" lon="13.216568426290431">
    </trkpt>
    <trkpt lat="47.317816279211456" lon="13.216588421058191">
    </trkpt>
    <trkpt lat="47.317806351388484" lon="13.216607726168927">
    </trkpt>
    <trkpt lat="47.317795675546172" lon="13.216626341622199">
    </trkpt>
    <trkpt lat="47.317784251684913" lon="13.216644267417648">
    </trkpt>
    <trkpt lat="47.317772079804961" lon="13.216661503554944">
    </trkpt>
    <trkpt lat="47.317759652820556" lon="13.216675847168185">
    </trkpt>
    <trkpt lat="47.31774697073282" lon="13.216687298259185">
    </trkpt>
    <trkpt lat="47.317734033542621" lon="13.216695856829846">
    </trkpt>
    <trkpt lat="47.317720841250598" lon="13.216701522882175">
    </trkpt>
    <trkpt lat="47.317707350716951" lon="13.216704753758512">
    </trkpt>
    <trkpt lat="47.317693561941837" lon="13.216705549460658">
    </trkpt>
    <trkpt lat="47.317679474925342" lon="13.216703909990496">
    </trkpt>
    <trkpt lat="47.317665089667351" lon="13.216699835350008">
    </trkpt>
    <trkpt lat="47.317653277052564" lon="13.216696022824168">
    </trkpt>
    <trkpt lat="47.317644037080996" lon="13.216692472412252">
    </trkpt>
    <trkpt lat="47.317637369752724" lon="13.21668918411361">
    </trkpt>
    <trkpt lat="47.317633275067742" lon="13.216686157927667">
    </trkpt>
    <trkpt lat="47.317628166969584" lon="13.21668066387741">
    </trkpt>
    <trkpt lat="47.317622045457895" lon="13.216672701963887">
    </trkpt>
    <trkpt lat="47.317614910532107" lon="13.21666227218839">
    </trkpt>
    <trkpt lat="47.317606762191609" lon="13.216649374552528">
    </trkpt>
    <trkpt lat="47.317599640030927" lon="13.216634217976566">
    </trkpt>
    <trkpt lat="47.317593544049188" lon="13.21661680246055">
    </trkpt>
    <trkpt lat="47.317588474245362" lon="13.216597128004251">
    </trkpt>
    <trkpt lat="47.31758443061829" lon="13.216575194607167">
    </trkpt>
    <trkpt lat="47.317583183712841" lon="13.216533746935399">
    </trkpt>
    <trkpt lat="47.317586294542913" lon="13.216505672211763">
    </trkpt>
    <trkpt lat="47.317601489192157" lon="13.21644003499337">
    </trkpt>
    <trkpt lat="47.317618717859887" lon="13.216368559788776">
    </trkpt>
    <trkpt lat="47.317644560836946" lon="13.216279612874827">
    </trkpt>
    <trkpt lat="47.3176599168983" lon="13.21622013454326">
    </trkpt>
    <trkpt lat="47.317672718079947" lon="13.216156419600235">
    </trkpt>
    <trkpt lat="47.317679775692199" lon="13.216106389761491">
    </trkpt>
    <trkpt lat="47.317681089753066" lon="13.216070045048742">
    </trkpt>
    <trkpt lat="47.317680514873985" lon="13.216026635537643">
    </trkpt>
    <trkpt lat="47.31767805104699" lon="13.215976161233083">
    </trkpt>
    <trkpt lat="47.317673698262702" lon="13.215918622141468">
    </trkpt>
    <trkpt lat="47.31766745651052" lon="13.215854018270699">
    </trkpt>
    <trkpt lat="47.317660386946351" lon="13.215792641402631">
    </trkpt>
    <trkpt lat="47.317652489575373" lon="13.215734491538827">
    </trkpt>
    <trkpt lat="47.317643764402469" lon="13.215679568680557">
    </trkpt>
    <trkpt lat="47.317634211432342" lon="13.215627872828808">
    </trkpt>
    <trkpt lat="47.31762323957534" lon="13.215577505801917">
    </trkpt>
    <trkpt lat="47.317610848833226" lon="13.215528467603111">
    </trkpt>
    <trkpt lat="47.317597039207662" lon="13.215480758235387">
    </trkpt>
    <trkpt lat="47.317581810700361" lon="13.215434377701525">
    </trkpt>
    <trkpt lat="47.317569669465527" lon="13.215383888896246">
    </trkpt>
    <trkpt lat="47.317560615497811" lon="13.215329291813559">
    </trkpt>
    <trkpt lat="47.317554648791273" lon="13.215270586446042">
    </trkpt>
    <trkpt lat="47.317551769339673" lon="13.215207772784847">
    </trkpt>
    <trkpt lat="47.317547747311963" lon="13.215151487291575">
    </trkpt>
    <trkpt lat="47.317542582717763" lon="13.215101729968355">
    </trkpt>
    <trkpt lat="47.31753627556558" lon="13.215058500816486">
    </trkpt>
    <trkpt lat="47.317528825862773" lon="13.215021799836416">
    </trkpt>
    <trkpt lat="47.317518985661948" lon="13.214981916746853">
    </trkpt>
    <trkpt lat="47.317506754959709" lon="13.214938851554948">
    </trkpt>
    <trkpt lat="47.317492133752488" lon="13.214892604268753">
    </trkpt>
    <trkpt lat="47.31747512203642" lon="13.214843174897156">
    </trkpt>
    <trkpt lat="47.317459103108533" lon="13.214790930471551">
    </trkpt>
    <trkpt lat="47.317444076964989" lon="13.214735870991568">
    </trkpt>
    <trkpt lat="47.317430043601703" lon="13.214677996456514">
    </trkpt>
    <trkpt lat="47.317417003014477" lon="13.214617306865387">
    </trkpt>
    <trkpt lat="47.317407900073036" lon="13.214546868756106">
    </trkpt>
    <trkpt lat="47.317402734759426" lon="13.214466682118042">
    </trkpt>
    <trkpt lat="47.317401507053184" lon="13.214376746936212">
    </trkpt>
    <trkpt lat="47.317404216931379" lon="13.2142770631913">
    </trkpt>
    <trkpt lat="47.317409181302445" lon="13.214179820574827">
    </trkpt>
    <trkpt lat="47.317416400172625" lon="13.214085019075062">
    </trkpt>
    <trkpt lat="47.317425873547919" lon="13.213992658680887">
    </trkpt>
    <trkpt lat="47.317437601434229" lon="13.213902739381814">
    </trkpt>
    <trkpt lat="47.31744955871018" lon="13.213808919207102">
    </trkpt>
    <trkpt lat="47.317461745366188" lon="13.213711198152895">
    </trkpt>
    <trkpt lat="47.317474161392255" lon="13.21360957621526">
    </trkpt>
    <trkpt lat="47.317486806778028" lon="13.21350405339016">
    </trkpt>
    <trkpt lat="47.317496751108052" lon="13.213396894507465">
    </trkpt>
    <trkpt lat="47.317503994377766" lon="13.213288099582643">
    </trkpt>
    <trkpt lat="47.317508536582523" lon="13.213177668631666">
    </trkpt>
    <trkpt lat="47.31751037771766" lon="13.213065601671016">
    </trkpt>
    <trkpt lat="47.317514928653118" lon="13.212944916050171">
    </trkpt>
    <trkpt lat="47.317522189361682" lon="13.212815611748463">
    </trkpt>
    <trkpt lat="47.317532159814128" lon="13.212677688742557">
    </trkpt>
    <trkpt lat="47.317544839979327" lon="13.212531147006505">
    </trkpt>
    <trkpt lat="47.317557398994936" lon="13.212365938643826">
    </trkpt>
    <trkpt lat="47.317569836780258" lon="13.212182063642548">
    </trkpt>
    <trkpt lat="47.317582153245361" lon="13.211979521990957">
    </trkpt>
    <trkpt lat="47.317594348291358" lon="13.211758313677638">
    </trkpt>
    <trkpt lat="47.317603964824464" lon="13.211565934580765">
    </trkpt>
    <trkpt lat="47.317611002989914" lon="13.211402384743835">
    </trkpt>
    <trkpt lat="47.317615462911149" lon="13.21126766420195">
    </trkpt>
    <trkpt lat="47.317617344689928" lon="13.211161772981862">
    </trkpt>
    <trkpt lat="47.317624066507108" lon="13.211046976606918">
    </trkpt>
    <trkpt lat="47.317635628336006" lon="13.210923275042347">
    </trkpt>
    <trkpt lat="47.317652030147627" lon="13.210790668248466">
    </trkpt>
    <trkpt lat="47.31767327191104" lon="13.210649156180747">
    </trkpt>
    <trkpt lat="47.317691243909437" lon="13.210530821138555">
    </trkpt>
    <trkpt lat="47.317705946214694" lon="13.210435663167248">
    </trkpt>
    <trkpt lat="47.317717378884616" lon="13.21036368230361">
    </trkpt>
    <trkpt lat="47.317725541962908" lon="13.210314878575875">
    </trkpt>
    <trkpt lat="47.317739688539262" lon="13.210236259194057">
    </trkpt>
    <trkpt lat="47.31775981855224" lon="13.210127824107765">
    </trkpt>
    <trkpt lat="47.317785931917058" lon="13.209989573246451">
    </trkpt>
    <trkpt lat="47.317818028525679" lon="13.209821506519432">
    </trkpt>
    <trkpt lat="47.317845819870641" lon="13.209669718119642">
    </trkpt>
    <trkpt lat="47.31786930601676" lon="13.209534208109572">
    </trkpt>
    <trkpt lat="47.317888487021811" lon="13.209414976543767">
    </trkpt>
    <trkpt lat="47.31790336293674" lon="13.209312023468867">
    </trkpt>
    <trkpt lat="47.317918220290352" lon="13.209221703456359">
    </trkpt>
    <trkpt lat="47.317933059112548" lon="13.2091440165169">
    </trkpt>
    <trkpt lat="47.317947879428992" lon="13.209078962661124">
    </trkpt>
    <trkpt lat="47.317962681261228" lon="13.209026541899661">
    </trkpt>
    <trkpt lat="47.317984782175856" lon="13.208964543323789">
    </trkpt>
    <trkpt lat="47.318014182157221" lon="13.208892966895933">
    </trkpt>
    <trkpt lat="47.318050881187233" lon="13.208811812570596">
    </trkpt>
    <trkpt lat="47.318094879245329" lon="13.208721080294351">
    </trkpt>
    <trkpt lat="47.318139534297892" lon="13.208636515411882">
    </trkpt>
    <trkpt lat="47.318184846358612" lon="13.208558117935594">
    </trkpt>
    <trkpt lat="47.318230815440103" lon="13.208485887878366">
    </trkpt>
    <trkpt lat="47.318277441554024" lon="13.208419825253532">
    </trkpt>
    <trkpt lat="47.318324251950102" lon="13.208353968691773">
    </trkpt>
    <trkpt lat="47.318371246628729" lon="13.208288318192961">
    </trkpt>
    <trkpt lat="47.318418425590203" lon="13.208222873756945">
    </trkpt>
    <trkpt lat="47.318465788834885" lon="13.208157635383596">
    </trkpt>
    <trkpt lat="47.31850175101674" lon="13.208107829005378">
    </trkpt>
    <trkpt lat="47.31852631215618" lon="13.208073454685858">
    </trkpt>
    <trkpt lat="47.318539472267254" lon="13.208054512468667">
    </trkpt>
    <trkpt lat="47.318541231357749" lon="13.208051002377539">
    </trkpt>
    <trkpt lat="47.31854277759296" lon="13.208047272542736">
    </trkpt>
    <trkpt lat="47.318544110972894" lon="13.208043322964294">
    </trkpt>
    <trkpt lat="47.318545231497566" lon="13.208039153642241">
    </trkpt>
    <trkpt lat="47.318546139166912" lon="13.208034764576617">
    </trkpt>
    <trkpt lat="47.318546700257926" lon="13.208029941010734">
    </trkpt>
    <trkpt lat="47.318546914770536" lon="13.208024682944657">
    </trkpt>
    <trkpt lat="47.318546782704679" lon="13.208018990378498">
    </trkpt>
    <trkpt lat="47.318546304060327" lon="13.208012863312366">
    </trkpt>
    <trkpt lat="47.31854536611938" lon="13.208006982546749">
    </trkpt>
    <trkpt lat="47.318543968881897" lon="13.208001348081776">
    </trkpt>
    <trkpt lat="47.318542112347913" lon="13.207995959917579">
    </trkpt>
    <trkpt lat="47.318539796517491" lon="13.207990818054274">
    </trkpt>
    <trkpt lat="47.31853714726315" lon="13.20798620196801">
    </trkpt>
    <trkpt lat="47.318534164584975" lon="13.207982111658806">
    </trkpt>
    <trkpt lat="47.318530848483022" lon="13.207978547126631">
    </trkpt>
    <trkpt lat="47.318527198957327" lon="13.207975508371476">
    </trkpt>
    <trkpt lat="47.318523375954619" lon="13.207973171976199">
    </trkpt>
    <trkpt lat="47.318519379475013" lon="13.207971537940679">
    </trkpt>
    <trkpt lat="47.318515209518502" lon="13.207970606264773">
    </trkpt>
    <trkpt lat="47.318510866085091" lon="13.207970376948323">
    </trkpt>
    <trkpt lat="47.318506830281898" lon="13.207970643848221">
    </trkpt>
    <trkpt lat="47.318503102108942" lon="13.207971406964358">
    </trkpt>
    <trkpt lat="47.318499681566216" lon="13.207972666296651">
    </trkpt>
    <trkpt lat="47.318496568653693" lon="13.207974421845019">
    </trkpt>
    <trkpt lat="47.318482991825682" lon="13.207986202633915">
    </trkpt>
    <trkpt lat="47.318458951078973" lon="13.208008008648637">
    </trkpt>
    <trkpt lat="47.318424446407732" lon="13.208039839862616">
    </trkpt>
    <trkpt lat="47.31837947780334" lon="13.2080816962374">
    </trkpt>
    <trkpt lat="47.318344873465144" lon="13.208113340190708">
    </trkpt>
    <trkpt lat="47.318320633401768" lon="13.20813477176115">
    </trkpt>
    <trkpt lat="47.318306757619148" lon="13.208145990975318">
    </trkpt>
    <trkpt lat="47.318303246120337" lon="13.208146997847832">
    </trkpt>
    <trkpt lat="47.318299737339871" lon="13.208147481585698">
    </trkpt>
    <trkpt lat="47.318296231277735" lon="13.208147442189023">
    </trkpt>
    <trkpt lat="47.318292727933915" lon="13.20814687965791">
    </trkpt>
    <trkpt lat="47.318289227308419" lon="13.208145793992461">
    </trkpt>
    <trkpt lat="47.318285841071017" lon="13.208144186152815">
    </trkpt>
    <trkpt lat="47.318282569221694" lon="13.208142056139057">
    </trkpt>
    <trkpt lat="47.318279411760422" lon="13.208139403951266">
    </trkpt>
    <trkpt lat="47.318276368687123" lon="13.20813622958952">
    </trkpt>
    <trkpt lat="47.318273622946492" lon="13.208132723891392">
    </trkpt>
    <trkpt lat="47.318271174538481" lon="13.208128886856874">
    </trkpt>
    <trkpt lat="47.318269023463039" lon="13.208124718485939">
    </trkpt>
    <trkpt lat="47.318267169720173" lon="13.20812021877857">
    </trkpt>
    <trkpt lat="47.31826565336204" lon="13.208115484956004">
    </trkpt>
    <trkpt lat="47.318264474388627" lon="13.208110517018168">
    </trkpt>
    <trkpt lat="47.318263632799912" lon="13.208105314964993">
    </trkpt>
    <trkpt lat="47.318263128595824" lon="13.208099878796389">
    </trkpt>
    <trkpt lat="47.31826301025243" lon="13.208094484329674">
    </trkpt>
    <trkpt lat="47.318263277769667" lon="13.208089131564734">
    </trkpt>
    <trkpt lat="47.318263931147605" lon="13.208083820501452">
    </trkpt>
    <trkpt lat="47.318264970386231" lon="13.208078551139717">
    </trkpt>
    <trkpt lat="47.318267955761662" lon="13.208070753730677">
    </trkpt>
    <trkpt lat="47.318272887273402" lon="13.20806042827305">
    </trkpt>
    <trkpt lat="47.318279764920767" lon="13.208047574764995">
    </trkpt>
    <trkpt lat="47.318288588702892" lon="13.208032193204108">
    </trkpt>
    <trkpt lat="47.318306541890095" lon="13.208004170513032">
    </trkpt>
    <trkpt lat="47.318333624472949" lon="13.207963506664431">
    </trkpt>
    <trkpt lat="47.318369836437867" lon="13.207910201617915">
    </trkpt>
    <trkpt lat="47.318415177766987" lon="13.207844255320024">
    </trkpt>
    <trkpt lat="47.318449526576025" lon="13.207793339458235">
    </trkpt>
    <trkpt lat="47.318472882885274" lon="13.20775745409345">
    </trkpt>
    <trkpt lat="47.318485246709024" lon="13.207736599267864">
    </trkpt>
    <trkpt lat="47.318486618055587" lon="13.20773077500499">
    </trkpt>
    <trkpt lat="47.318487488922102" lon="13.207724826893724">
    </trkpt>
    <trkpt lat="47.318487859308632" lon="13.207718754934261">
    </trkpt>
    <trkpt lat="47.318487729215086" lon="13.207712559126747">
    </trkpt>
    <trkpt lat="47.318487098641498" lon="13.207706239471371">
    </trkpt>
    <trkpt lat="47.318486012878168" lon="13.207700249871293">
    </trkpt>
    <trkpt lat="47.318484471925167" lon="13.207694590326639">
    </trkpt>
    <trkpt lat="47.31848247578256" lon="13.207689260837538">
    </trkpt>
    <trkpt lat="47.318480024450373" lon="13.207684261404088">
    </trkpt>
    <trkpt lat="47.318477216379804" lon="13.207679792815096">
    </trkpt>
    <trkpt lat="47.318474051570917" lon="13.207675855070566">
    </trkpt>
    <trkpt lat="47.318470530023774" lon="13.20767244817049">
    </trkpt>
    <trkpt lat="47.318466651738404" lon="13.207669572114821">
    </trkpt>
    <trkpt lat="47.318462507699216" lon="13.207667515976846">
    </trkpt>
    <trkpt lat="47.318458097906252" lon="13.207666279756397">
    </trkpt>
    <trkpt lat="47.318453422359518" lon="13.207665863453283">
    </trkpt>
    <trkpt lat="47.31844848105905" lon="13.207666267067308">
    </trkpt>
    <trkpt lat="47.318431168687439" lon="13.207674304393008">
    </trkpt>
    <trkpt lat="47.318401485243015" lon="13.20768997541726">
    </trkpt>
    <trkpt lat="47.318359430722403" lon="13.207713280116229">
    </trkpt>
    <trkpt lat="47.318305005120607" lon="13.207744218455371">
    </trkpt>
    <trkpt lat="47.318252959616522" lon="13.207772733524806">
    </trkpt>
    <trkpt lat="47.318203294211948" lon="13.207798825335518">
    </trkpt>
    <trkpt lat="47.318156008908645" lon="13.207822493897853">
    </trkpt>
    <trkpt lat="47.318111103708183" lon="13.207843739221497">
    </trkpt>
    <trkpt lat="47.318076570489673" lon="13.20785975829606">
    </trkpt>
    <trkpt lat="47.318052409255472" lon="13.207870551141204">
    </trkpt>
    <trkpt lat="47.318038620007265" lon="13.207876117770445">
    </trkpt>
    <trkpt lat="47.318035202745833" lon="13.207876458191128">
    </trkpt>
    <trkpt lat="47.318031791723769" lon="13.207876294399206">
    </trkpt>
    <trkpt lat="47.318028386941059" lon="13.207875626394761">
    </trkpt>
    <trkpt lat="47.318024988397667" lon="13.207874454177901">
    </trkpt>
    <trkpt lat="47.318021596093587" lon="13.207872777748717">
    </trkpt>
    <trkpt lat="47.318018405886598" lon="13.207870693897455">
    </trkpt>
    <trkpt lat="47.318015417776628" lon="13.207868202624164">
    </trkpt>
    <trkpt lat="47.318012631763722" lon="13.207865303928882">
    </trkpt>
    <trkpt lat="47.318010047847793" lon="13.207861997811644">
    </trkpt>
    <trkpt lat="47.318007720883216" lon="13.207858396508243">
    </trkpt>
    <trkpt lat="47.318005650869935" lon="13.207854500018657">
    </trkpt>
    <trkpt lat="47.318003837807964" lon="13.207850308342868">
    </trkpt>
    <trkpt lat="47.318002281697254" lon="13.207845821480847">
    </trkpt>
    <trkpt lat="47.318001147967578" lon="13.207840472463007">
    </trkpt>
    <trkpt lat="47.318000436618853" lon="13.207834261289271">
    </trkpt>
    <trkpt lat="47.318000147650892" lon="13.207827187959531">
    </trkpt>
    <trkpt lat="47.318000281063554" lon="13.207819252473623">
    </trkpt>
    <trkpt lat="47.318001180802192" lon="13.207811702330622">
    </trkpt>
    <trkpt lat="47.318002846866868" lon="13.207804537530199">
    </trkpt>
    <trkpt lat="47.31800527925764" lon="13.207797758072097">
    </trkpt>
    <trkpt lat="47.318008477974601" lon="13.207791363956066">
    </trkpt>
    <trkpt lat="47.318034763375103" lon="13.207763903289949">
    </trkpt>
    <trkpt lat="47.318084135443634" lon="13.207715376006481">
    </trkpt>
    <trkpt lat="47.318156594152704" lon="13.207645781983288">
    </trkpt>
    <trkpt lat="47.318252139462899" lon="13.207555121042915">
    </trkpt>
    <trkpt lat="47.318324955298948" lon="13.207485411601901">
    </trkpt>
    <trkpt lat="47.318375041700065" lon="13.207436653836407">
    </trkpt>
    <trkpt lat="47.318402398693763" lon="13.207408847868619">
    </trkpt>
    <trkpt lat="47.318407026295652" lon="13.207401993766812">
    </trkpt>
    <trkpt lat="47.318410914755233" lon="13.207395499539363">
    </trkpt>
    <trkpt lat="47.318414064072634" lon="13.207389365186637">
    </trkpt>
    <trkpt lat="47.318416474247854" lon="13.207383590708947">
    </trkpt>
    <trkpt lat="47.318418145281001" lon="13.207378176106578">
    </trkpt>
    <trkpt lat="47.318419326181953" lon="13.20737240812379">
    </trkpt>
    <trkpt lat="47.318420016950711" lon="13.207366286760719">
    </trkpt>
    <trkpt lat="47.318420217587196" lon="13.207359812017517">
    </trkpt>
    <trkpt lat="47.318419928091345" lon="13.207352983894362">
    </trkpt>
    <trkpt lat="47.318419038676758" lon="13.207346399480711">
    </trkpt>
    <trkpt lat="47.318417549343501" lon="13.20734005877679">
    </trkpt>
    <trkpt lat="47.318415460091607" lon="13.207333961782783">
    </trkpt>
    <trkpt lat="47.3184127709211" lon="13.207328108498871">
    </trkpt>
    <trkpt lat="47.31841011814489" lon="13.207323157182461">
    </trkpt>
    <trkpt lat="47.318407501763069" lon="13.207319107833413">
    </trkpt>
    <trkpt lat="47.318404921775752" lon="13.207315960451588">
    </trkpt>
    <trkpt lat="47.318402378183023" lon="13.207313715036843">
    </trkpt>
    <trkpt lat="47.318399784156" lon="13.207311807383048">
    </trkpt>
    <trkpt lat="47.318397139694696" lon="13.207310237490152">
    </trkpt>
    <trkpt lat="47.318394444799168" lon="13.207309005358114">
    </trkpt>
    <trkpt lat="47.318391699469402" lon="13.207308110986887">
    </trkpt>
    <trkpt lat="47.318387412795204" lon="13.207307908962445">
    </trkpt>
    <trkpt lat="47.318381584776546" lon="13.207308399284642">
    </trkpt>
    <trkpt lat="47.318374215413428" lon="13.207309581953194">
    </trkpt>
    <trkpt lat="47.318365304705843" lon="13.207311456967727">
    </trkpt>
    <trkpt lat="47.318340299713178" lon="13.207320944275915">
    </trkpt>
    <trkpt lat="47.31829920043338" lon="13.207338043858304">
    </trkpt>
    <trkpt lat="47.318242006862619" lon="13.207362755681539">
    </trkpt>
    <trkpt lat="47.318168718995466" lon="13.207395079698369">
    </trkpt>
    <trkpt lat="47.31811264435693" lon="13.207419077339129">
    </trkpt>
    <trkpt lat="47.318073782952766" lon="13.207434748653741">
    </trkpt>
    <trkpt lat="47.318052134786811" lon="13.207442093675848">
    </trkpt>
    <trkpt lat="47.318047699860834" lon="13.207441112422856">
    </trkpt>
    <trkpt lat="47.318043483313602" lon="13.207439374378932">
    </trkpt>
    <trkpt lat="47.318039485145007" lon="13.20743687954424">
    </trkpt>
    <trkpt lat="47.318035705355015" lon="13.207433627918913">
    </trkpt>
    <trkpt lat="47.318032143943604" lon="13.207429619503088">
    </trkpt>
    <trkpt lat="47.318029022269414" lon="13.207425103439027">
    </trkpt>
    <trkpt lat="47.318026340332409" lon="13.207420079726701">
    </trkpt>
    <trkpt lat="47.318024098132547" lon="13.207414548366073">
    </trkpt>
    <trkpt lat="47.318022295669707" lon="13.207408509357057">
    </trkpt>
    <trkpt lat="47.318021044975552" lon="13.207402338052828">
    </trkpt>
    <trkpt lat="47.318020346050062" lon="13.207396034453195">
    </trkpt>
    <trkpt lat="47.318020198893208" lon="13.207389598557972">
    </trkpt>
    <trkpt lat="47.318020603504962" lon="13.207383030366955">
    </trkpt>
    <trkpt lat="47.31802165527661" lon="13.207376591886398">
    </trkpt>
    <trkpt lat="47.318023354208151" lon="13.207370283116076">
    </trkpt>
    <trkpt lat="47.318025700299614" lon="13.207364104055769">
    </trkpt>
    <trkpt lat="47.318028693550993" lon="13.20735805470526">
    </trkpt>
    <trkpt lat="47.31804491124165" lon="13.207338352220733">
    </trkpt>
    <trkpt lat="47.318074353364374" lon="13.207304996574884">
    </trkpt>
    <trkpt lat="47.318117019906992" lon="13.207257987719984">
    </trkpt>
    <trkpt lat="47.318172910852347" lon="13.207197325587835">
    </trkpt>
    <trkpt lat="47.318250330833905" lon="13.207131830011081">
    </trkpt>
    <trkpt lat="47.318349279842401" lon="13.207061500888562">
    </trkpt>
    <trkpt lat="47.318469757867724" lon="13.206986338107278">
    </trkpt>
    <trkpt lat="47.318611764898861" lon="13.20690634154238">
    </trkpt>
    <trkpt lat="47.318719039855345" lon="13.206846203887016">
    </trkpt>
    <trkpt lat="47.31882582247276" lon="13.206804288665356">
    </trkpt>
    <trkpt lat="47.318921964643799" lon="13.206790610135632">
    </trkpt>
    <trkpt lat="47.319008377840596" lon="13.206796833716835">
    </trkpt>
    <trkpt lat="47.319122569137484" lon="13.206805318458377">
    </trkpt>
    <trkpt lat="47.319214245948672" lon="13.206815618275936">
    </trkpt>
    <trkpt lat="47.319283408274764" lon="13.206827733166049">
    </trkpt>
    <trkpt lat="47.319330056116016" lon="13.206841663120551">
    </trkpt>
    <trkpt lat="47.3193541894723" lon="13.206857408126618">
    </trkpt>
    <trkpt lat="47.319375431515326" lon="13.206869656926505">
    </trkpt>
    <trkpt lat="47.319393782246252" lon="13.206878409514015">
    </trkpt>
    <trkpt lat="47.319409241665888" lon="13.206883665884082">
    </trkpt>
    <trkpt lat="47.319421809774738" lon="13.206885426032791">
    </trkpt>
    <trkpt lat="47.319432854265742" lon="13.206885690741325">
    </trkpt>
    <trkpt lat="47.319442375138898" lon="13.206884460008718">
    </trkpt>
    <trkpt lat="47.319450372394193" lon="13.206881733834289">
    </trkpt>
    <trkpt lat="47.319456846031493" lon="13.206877512217577">
    </trkpt>
    <trkpt lat="47.319462372911538" lon="13.206873486361271">
    </trkpt>
    <trkpt lat="47.319466953034372" lon="13.206869656265631">
    </trkpt>
    <trkpt lat="47.319477081406582" lon="13.206853984594183">
    </trkpt>
    <trkpt lat="47.319482011593294" lon="13.206840225639615">
    </trkpt>
    <trkpt lat="47.319488063566688" lon="13.206821306491392">
    </trkpt>
    <trkpt lat="47.31949523732419" lon="13.20679722714655">
    </trkpt>
    <trkpt lat="47.319512024469645" lon="13.20675853165576">
    </trkpt>
    <trkpt lat="47.319530389664216" lon="13.206735405301444">
    </trkpt>
    <trkpt lat="47.31954744792057" lon="13.206712665855893">
    </trkpt>
    <trkpt lat="47.319580992244717" lon="13.206679362220211">
    </trkpt>
    <trkpt lat="47.319624965078617" lon="13.206636399089701">
    </trkpt>
    <trkpt lat="47.319679734788878" lon="13.206598165977519">
    </trkpt>
    <trkpt lat="47.319745301379875" lon="13.206564662874877">
    </trkpt>
    <trkpt lat="47.319821664855411" lon="13.206535889778765">
    </trkpt>
    <trkpt lat="47.319908825218597" lon="13.206511846691949">
    </trkpt>
    <trkpt lat="47.319976004005149" lon="13.206493200527053">
    </trkpt>
    <trkpt lat="47.32002320121844" lon="13.206479951325832">
    </trkpt>
    <trkpt lat="47.320050416860866" lon="13.206472099117807">
    </trkpt>
    <trkpt lat="47.320057650933855" lon="13.206469643920235">
    </trkpt>
    <trkpt lat="47.320063819371988" lon="13.206467182915596">
    </trkpt>
    <trkpt lat="47.320068922175231" lon="13.206464716104028">
    </trkpt>
    <trkpt lat="47.320072959343612" lon="13.206462243485692">
    </trkpt>
    <trkpt lat="47.320075930877159" lon="13.206459765060725">
    </trkpt>
    <trkpt lat="47.320078829602444" lon="13.206456449013235">
    </trkpt>
    <trkpt lat="47.320081655519409" lon="13.206452295343087">
    </trkpt>
    <trkpt lat="47.320084408627942" lon="13.206447304050174">
    </trkpt>
    <trkpt lat="47.320087088927956" lon="13.206441475134385">
    </trkpt>
    <trkpt lat="47.320089166264474" lon="13.20643534708908">
    </trkpt>
    <trkpt lat="47.320090640637481" lon="13.206428919914455">
    </trkpt>
    <trkpt lat="47.320091512046922" lon="13.206422193610685">
    </trkpt>
    <trkpt lat="47.320091780492767" lon="13.206415168178001">
    </trkpt>
    <trkpt lat="47.320091400069167" lon="13.206408299029871">
    </trkpt>
    <trkpt lat="47.320090370776192" lon="13.206401586166544">
    </trkpt>
    <trkpt lat="47.320088692613844" lon="13.206395029588265">
    </trkpt>
    <trkpt lat="47.320086365582178" lon="13.206388629295251">
    </trkpt>
    <trkpt lat="47.32008358981934" lon="13.206382935749637">
    </trkpt>
    <trkpt lat="47.320080365325438" lon="13.206377948951447">
    </trkpt>
    <trkpt lat="47.320076692100542" lon="13.20637366890068">
    </trkpt>
    <trkpt lat="47.320072570144795" lon="13.206370095597302">
    </trkpt>
    <trkpt lat="47.320066065016874" lon="13.206366340701313">
    </trkpt>
    <trkpt lat="47.320057176716752" lon="13.206362404213275">
    </trkpt>
    <trkpt lat="47.32004590524442" lon="13.20635828613382">
    </trkpt>
    <trkpt lat="47.320032250599837" lon="13.206353986463613">
    </trkpt>
    <trkpt lat="47.319999484262723" lon="13.20634629977434">
    </trkpt>
    <trkpt lat="47.319947606232084" lon="13.206335226080526">
    </trkpt>
    <trkpt lat="47.319876616506427" lon="13.206320765403984">
    </trkpt>
    <trkpt lat="47.319786515083806" lon="13.206302917773815">
    </trkpt>
    <trkpt lat="47.31969984237945" lon="13.206277765549846">
    </trkpt>
    <trkpt lat="47.319616598388777" lon="13.206245308763071">
    </trkpt>
    <trkpt lat="47.319536783105733" lon="13.206205547441661">
    </trkpt>
    <trkpt lat="47.319460396522899" lon="13.20615848161094">
    </trkpt>
    <trkpt lat="47.319387403478331" lon="13.206123729257873">
    </trkpt>
    <trkpt lat="47.319317803983303" lon="13.206101290324922">
    </trkpt>
    <trkpt lat="47.319251598045135" lon="13.206091164759266">
    </trkpt>
    <trkpt lat="47.319188785667137" lon="13.206093352512834">
    </trkpt>
    <trkpt lat="47.319138511393447" lon="13.206093943503104">
    </trkpt>
    <trkpt lat="47.319100775224413" lon="13.206092937735102">
    </trkpt>
    <trkpt lat="47.319075577160206" lon="13.206090335211579">
    </trkpt>
    <trkpt lat="47.319062917200945" lon="13.206086135933015">
    </trkpt>
    <trkpt lat="47.319052658545722" lon="13.206081937244472">
    </trkpt>
    <trkpt lat="47.319044801194572" lon="13.206077739145391">
    </trkpt>
    <trkpt lat="47.319039345147488" lon="13.206073541635202">
    </trkpt>
    <trkpt lat="47.319036290404483" lon="13.206069344713333">
    </trkpt>
    <trkpt lat="47.31903363651174" lon="13.20606469632312">
    </trkpt>
    <trkpt lat="47.319031383469209" lon="13.206059596464533">
    </trkpt>
    <trkpt lat="47.319029531276819" lon="13.206054045137501">
    </trkpt>
    <trkpt lat="47.319028079934483" lon="13.206048042341953">
    </trkpt>
    <trkpt lat="47.319027070513322" lon="13.206042289463431">
    </trkpt>
    <trkpt lat="47.319026503013333" lon="13.206036786501761">
    </trkpt>
    <trkpt lat="47.319026377434533" lon="13.206031533456809">
    </trkpt>
    <trkpt lat="47.319026693776991" lon="13.206026530328435">
    </trkpt>
    <trkpt lat="47.3190272977712" lon="13.206021706303281">
    </trkpt>
    <trkpt lat="47.319028189417224" lon="13.206017061381271">
    </trkpt>
    <trkpt lat="47.319029368715" lon="13.206012595562338">
    </trkpt>
    <trkpt lat="47.319030835664641" lon="13.206008308846419">
    </trkpt>
    <trkpt lat="47.319033485854511" lon="13.206003514260056">
    </trkpt>
    <trkpt lat="47.319037319284568" lon="13.205998211802845">
    </trkpt>
    <trkpt lat="47.319042335954755" lon="13.205992401474321">
    </trkpt>
    <trkpt lat="47.319048535864987" lon="13.205986083273952">
    </trkpt>
    <trkpt lat="47.31906216181077" lon="13.205976927328143">
    </trkpt>
    <trkpt lat="47.319083213791309" lon="13.205964933630847">
    </trkpt>
    <trkpt lat="47.319111691805674" lon="13.205950102173624">
    </trkpt>
    <trkpt lat="47.31914759585262" lon="13.205932432945636">
    </trkpt>
    <trkpt lat="47.319188213540144" lon="13.205909926263914">
    </trkpt>
    <trkpt lat="47.319233544865277" lon="13.205882582111309">
    </trkpt>
    <trkpt lat="47.319283589824423" lon="13.205850400468092">
    </trkpt>
    <trkpt lat="47.319345581627111" lon="13.205791115670326">
    </trkpt>
    <trkpt lat="47.319445641967967" lon="13.205658890046786">
    </trkpt>
    <trkpt lat="47.319513601308138" lon="13.20554874113345">
    </trkpt>
    <trkpt lat="47.319570227289105" lon="13.20541818651065">
    </trkpt>
    <trkpt lat="47.319632585886488" lon="13.205302597709764">
    </trkpt>
    <trkpt lat="47.31970067714547" lon="13.205201974746004">
    </trkpt>
    <trkpt lat="47.31977450110525" lon="13.205116317644254">
    </trkpt>
    <trkpt lat="47.319854057799176" lon="13.205045626439142">
    </trkpt>
    <trkpt lat="47.319935759153225" lon="13.204982912761137">
    </trkpt>
    <trkpt lat="47.320019605180327" lon="13.20492817663947">
    </trkpt>
    <trkpt lat="47.320105595891924" lon="13.204881418105309">
    </trkpt>
    <trkpt lat="47.320193731297714" lon="13.204842637191778">
    </trkpt>
    <trkpt lat="47.320260849825047" lon="13.20481346077265">
    </trkpt>
    <trkpt lat="47.320324555346126" lon="13.204794214376513">
    </trkpt>
    <trkpt lat="47.320386350200906" lon="13.20480036338256">
    </trkpt>
    <trkpt lat="47.320432528264298" lon="13.204817530313727">
    </trkpt>
    <trkpt lat="47.320492743034194" lon="13.204840540467098">
    </trkpt>
    <trkpt lat="47.320561813730507" lon="13.204877415831357">
    </trkpt>
    <trkpt lat="47.320639740339672" lon="13.204928156479173">
    </trkpt>
    <trkpt lat="47.320750432441514" lon="13.205012380342685">
    </trkpt>
    <trkpt lat="47.32096561867381" lon="13.205188941748915">
    </trkpt>
  </trkseg>
</trk>
<trk>
  <trkseg>
    <trkpt lat="47.321056157162786" lon="13.205290440304342">
    </trkpt>
    <trkpt lat="47.321263871524131" lon="13.205340290298343">
    </trkpt>
    <trkpt lat="47.321381219600603" lon="13.20537951162965">
    </trkpt>
    <trkpt lat="47.321477439511064" lon="13.205424720912864">
    </trkpt>
    <trkpt lat="47.3215756106135" lon="13.205481457128016">
    </trkpt>
    <trkpt lat="47.321675732890753" lon="13.205549720345438">
    </trkpt>
    <trkpt lat="47.321752012940607" lon="13.205601117477419">
    </trkpt>
    <trkpt lat="47.321804450786544" lon="13.205635648381913">
    </trkpt>
    <trkpt lat="47.321833046444389" lon="13.205653312962362">
    </trkpt>
    <trkpt lat="47.321837799922235" lon="13.205654111167682">
    </trkpt>
    <trkpt lat="47.321842454860388" lon="13.205653985013921">
    </trkpt>
    <trkpt lat="47.321847011258797" lon="13.205652934500829">
    </trkpt>
    <trkpt lat="47.32185146911749" lon="13.205650959628182">
    </trkpt>
    <trkpt lat="47.321855828436398" lon="13.205648060395752">
    </trkpt>
    <trkpt lat="47.321859837631173" lon="13.205644167207971">
    </trkpt>
    <trkpt lat="47.321863496701702" lon="13.20563928006468">
    </trkpt>
    <trkpt lat="47.321866805647865" lon="13.205633398965782">
    </trkpt>
    <trkpt lat="47.321869764469525" lon="13.205626523911199">
    </trkpt>
    <trkpt lat="47.321872050236962" lon="13.205620342697143">
    </trkpt>
    <trkpt lat="47.321873662950289" lon="13.205614855323926">
    </trkpt>
    <trkpt lat="47.321874602609626" lon="13.205610061791827">
    </trkpt>
    <trkpt lat="47.321874869215037" lon="13.205605962101062">
    </trkpt>
    <trkpt lat="47.321874903682563" lon="13.20560182865295">
    </trkpt>
    <trkpt lat="47.32187470601216" lon="13.205597661447547">
    </trkpt>
    <trkpt lat="47.321874276203864" lon="13.2055934604849">
    </trkpt>
    <trkpt lat="47.321873614257633" lon="13.205589225765067">
    </trkpt>
    <trkpt lat="47.32186886395386" lon="13.205576788169301">
    </trkpt>
    <trkpt lat="47.321860025289901" lon="13.205556147702689">
    </trkpt>
    <trkpt lat="47.321847098261287" lon="13.205527304374119">
    </trkpt>
    <trkpt lat="47.321830082861759" lon="13.205490258196265">
    </trkpt>
    <trkpt lat="47.321806920612374" lon="13.205445058269657">
    </trkpt>
    <trkpt lat="47.321777611503336" lon="13.205391704620698">
    </trkpt>
    <trkpt lat="47.321742155523275" lon="13.205330197281501">
    </trkpt>
    <trkpt lat="47.321700552658953" lon="13.205260536289828">
    </trkpt>
    <trkpt lat="47.32166354043369" lon="13.205199134800827">
    </trkpt>
    <trkpt lat="47.321631118860836" lon="13.205145992781231">
    </trkpt>
    <trkpt lat="47.321603287951902" lon="13.20510111020206">
    </trkpt>
    <trkpt lat="47.321580047716687" lon="13.205064487038628">
    </trkpt>
    <trkpt lat="47.321556820281806" lon="13.205031087643532">
    </trkpt>
    <trkpt lat="47.321533605650117" lon="13.205000912012482">
    </trkpt>
    <trkpt lat="47.321504606570123" lon="13.204968028110351">
    </trkpt>
    <trkpt lat="47.32145243126984" lon="13.204914639890839">
    </trkpt>
  </trkseg>
</trk>
<trk>
  <trkseg>
    <trkpt lat="47.321381167097094" lon="13.204761582659264">
    </trkpt>
    <trkpt lat="47.321240041318624" lon="13.204557682151098">
    </trkpt>
    <trkpt lat="47.321171179082619" lon="13.204452264499249">
    </trkpt>
    <trkpt lat="47.321127538588307" lon="13.204377362477565">
    </trkpt>
    <trkpt lat="47.321093439186718" lon="13.2043103204812">
    </trkpt>
    <trkpt lat="47.321068880891723" lon="13.204251138458785">
    </trkpt>
    <trkpt lat="47.321039777060278" lon="13.204187444717641">
    </trkpt>
    <trkpt lat="47.321006127684804" lon="13.204119239281608">
    </trkpt>
    <trkpt lat="47.320967932757178" lon="13.204046522176814">
    </trkpt>
    <trkpt lat="47.320925192268781" lon="13.203969293431737">
    </trkpt>
    <trkpt lat="47.320873600234904" lon="13.203890357558221">
    </trkpt>
    <trkpt lat="47.320813156651788" lon="13.20380971460076">
    </trkpt>
    <trkpt lat="47.320743861515652" lon="13.203727364605546">
    </trkpt>
    <trkpt lat="47.320665714822518" lon="13.203643307620487">
    </trkpt>
    <trkpt lat="47.320594529291007" lon="13.203569894345829">
    </trkpt>
    <trkpt lat="47.320530304941812" lon="13.20350712470978">
    </trkpt>
    <trkpt lat="47.320460466310337" lon="13.203444628006359">
    </trkpt>
    <trkpt lat="47.320347286927159" lon="13.203351292444678">
    </trkpt>
  </trkseg>
</trk>
<trk>
  <trkseg>
    <trkpt lat="47.319210176233732" lon="13.202071881104125">
    </trkpt>
    <trkpt lat="47.319326170900595" lon="13.202003464100311">
    </trkpt>
    <trkpt lat="47.319392034668581" lon="13.201973448362045">
    </trkpt>
    <trkpt lat="47.319446432444195" lon="13.201959028332388">
    </trkpt>
    <trkpt lat="47.31950225252411" lon="13.201952602126973">
    </trkpt>
    <trkpt lat="47.319559494909619" lon="13.201954169770515">
    </trkpt>
    <trkpt lat="47.31961192862817" lon="13.20195149031886">
    </trkpt>
    <trkpt lat="47.319659553679521" lon="13.20194456376016">
    </trkpt>
    <trkpt lat="47.319702370063027" lon="13.201933390084877">
    </trkpt>
    <trkpt lat="47.31974037777757" lon="13.201917969285795">
    </trkpt>
    <trkpt lat="47.319769861868217" lon="13.201905210185227">
    </trkpt>
    <trkpt lat="47.319790822336039" lon="13.20189511279381">
    </trkpt>
    <trkpt lat="47.319803259181818" lon="13.201887677119593">
    </trkpt>
    <trkpt lat="47.319807172406072" lon="13.201882903168039">
    </trkpt>
    <trkpt lat="47.319810489647395" lon="13.201877482380226">
    </trkpt>
    <trkpt lat="47.319813210905629" lon="13.201871414756232">
    </trkpt>
    <trkpt lat="47.319815336180625" lon="13.201864700296142">
    </trkpt>
    <trkpt lat="47.319816865472362" lon="13.20185733900011">
    </trkpt>
    <trkpt lat="47.319817805022865" lon="13.201850426632713">
    </trkpt>
    <trkpt lat="47.319818154832213" lon="13.201843963194195">
    </trkpt>
    <trkpt lat="47.31981791490054" lon="13.201837948684785">
    </trkpt>
    <trkpt lat="47.319817085227839" lon="13.201832383104673">
    </trkpt>
    <trkpt lat="47.319815906350513" lon="13.201827112461276">
    </trkpt>
    <trkpt lat="47.319814378268589" lon="13.201822136754684">
    </trkpt>
    <trkpt lat="47.319812500982103" lon="13.201817455984955">
    </trkpt>
    <trkpt lat="47.319810274491125" lon="13.201813070152168">
    </trkpt>
    <trkpt lat="47.319801152099792" lon="13.201801468493251">
    </trkpt>
    <trkpt lat="47.319785133805944" lon="13.201782651016467">
    </trkpt>
    <trkpt lat="47.31976221960597" lon="13.201756617735695">
    </trkpt>
    <trkpt lat="47.319732409494875" lon="13.201723368670446">
    </trkpt>
    <trkpt lat="47.319684264478724" lon="13.201682996103221">
    </trkpt>
    <trkpt lat="47.319617784549528" lon="13.201635500095236">
    </trkpt>
    <trkpt lat="47.319532969697917" lon="13.201580880722464">
    </trkpt>
    <trkpt lat="47.319429819912941" lon="13.201519138075644">
    </trkpt>
    <trkpt lat="47.319348223309156" lon="13.20146855945181">
    </trkpt>
    <trkpt lat="47.319288179902124" lon="13.201429144737878">
    </trkpt>
    <trkpt lat="47.319249689703973" lon="13.201400893847948">
    </trkpt>
    <trkpt lat="47.319232752723337" lon="13.201383806723314">
    </trkpt>
    <trkpt lat="47.319219470556838" lon="13.201370063955554">
    </trkpt>
    <trkpt lat="47.319209843205677" lon="13.201359665539316">
    </trkpt>
    <trkpt lat="47.31920387067079" lon="13.201352611470625">
    </trkpt>
    <trkpt lat="47.319201552952819" lon="13.201348901746899">
    </trkpt>
    <trkpt lat="47.319199506841223" lon="13.201344883830949">
    </trkpt>
    <trkpt lat="47.319197732336036" lon="13.201340557722757">
    </trkpt>
    <trkpt lat="47.319196229437196" lon="13.201335923422294">
    </trkpt>
    <trkpt lat="47.319194998144653" lon="13.201330980929509">
    </trkpt>
    <trkpt lat="47.319194109564719" lon="13.20132601566997">
    </trkpt>
    <trkpt lat="47.319193563697397" lon="13.201321027643592">
    </trkpt>
    <trkpt lat="47.319193360542656" lon="13.201316016850265">
    </trkpt>
    <trkpt lat="47.319193500100525" lon="13.2013109832899">
    </trkpt>
    <trkpt lat="47.31919395707952" lon="13.201306060183811">
    </trkpt>
    <trkpt lat="47.319194731479698" lon="13.201301247531916">
    </trkpt>
    <trkpt lat="47.31919582330098" lon="13.201296545334131">
    </trkpt>
    <trkpt lat="47.319197232543466" lon="13.201291953590367">
    </trkpt>
    <trkpt lat="47.3191989081011" lon="13.201287638819725">
    </trkpt>
    <trkpt lat="47.319200849973917" lon="13.201283601022144">
    </trkpt>
    <trkpt lat="47.319203058161946" lon="13.201279840197612">
    </trkpt>
    <trkpt lat="47.319205532665222" lon="13.201276356346098">
    </trkpt>
    <trkpt lat="47.319208494616788" lon="13.201273221081065">
    </trkpt>
    <trkpt lat="47.319211944016658" lon="13.201270434402495">
    </trkpt>
    <trkpt lat="47.319215880864846" lon="13.201267996310369">
    </trkpt>
    <trkpt lat="47.319220305161394" lon="13.201265906804707">
    </trkpt>
    <trkpt lat="47.319236453350122" lon="13.201263799959001">
    </trkpt>
    <trkpt lat="47.319264325430915" lon="13.201261675771811">
    </trkpt>
    <trkpt lat="47.319303921403666" lon="13.201259534241666">
    </trkpt>
    <trkpt lat="47.319355241268035" lon="13.201257375367044">
    </trkpt>
    <trkpt lat="47.319417415200547" lon="13.201265839312224">
    </trkpt>
    <trkpt lat="47.319490443198497" lon="13.201284926119719">
    </trkpt>
    <trkpt lat="47.319574325256234" lon="13.201314635845078">
    </trkpt>
    <trkpt lat="47.319669061365062" lon="13.201354968556902">
    </trkpt>
    <trkpt lat="47.319746669191666" lon="13.201385717990805">
    </trkpt>
    <trkpt lat="47.319807148744324" lon="13.201406884075006">
    </trkpt>
    <trkpt lat="47.319850500028856" lon="13.201418466756289">
    </trkpt>
    <trkpt lat="47.319876723048559" lon="13.201420466">
    </trkpt>
    <trkpt lat="47.319897134119721" lon="13.201421466847574">
    </trkpt>
    <trkpt lat="47.319911733242421" lon="13.201421469297557">
    </trkpt>
    <trkpt lat="47.319920520416744" lon="13.201420473349124">
    </trkpt>
    <trkpt lat="47.319923495642641" lon="13.201418479002127">
    </trkpt>
    <trkpt lat="47.319926278311648" lon="13.201416173985182">
    </trkpt>
    <trkpt lat="47.319928868423652" lon="13.201413558298269">
    </trkpt>
    <trkpt lat="47.31993126597871" lon="13.20141063194137">
    </trkpt>
    <trkpt lat="47.319933470976785" lon="13.201407394914485">
    </trkpt>
    <trkpt lat="47.31993545516513" lon="13.201403929876141">
    </trkpt>
    <trkpt lat="47.319937218543785" lon="13.201400236826373">
    </trkpt>
    <trkpt lat="47.319938761112667" lon="13.201396315765191">
    </trkpt>
    <trkpt lat="47.319940082871788" lon="13.201392166692633">
    </trkpt>
    <trkpt lat="47.319941140544785" lon="13.20138785675366">
    </trkpt>
    <trkpt lat="47.319941934131649" lon="13.201383385948327">
    </trkpt>
    <trkpt lat="47.319942463632358" lon="13.201378754276693">
    </trkpt>
    <trkpt lat="47.319942729046886" lon="13.201373961738822">
    </trkpt>
    <trkpt lat="47.319942680906777" lon="13.201369162316821">
    </trkpt>
    <trkpt lat="47.319942319212096" lon="13.201364356010785">
    </trkpt>
    <trkpt lat="47.319941643962771" lon="13.201359542820793">
    </trkpt>
    <trkpt lat="47.319940655158845" lon="13.201354722746922">
    </trkpt>
    <trkpt lat="47.319939378069982" lon="13.201350125802785">
    </trkpt>
    <trkpt lat="47.31993781269621" lon="13.201345751988434">
    </trkpt>
    <trkpt lat="47.319935959037593" lon="13.201341601303932">
    </trkpt>
    <trkpt lat="47.319933817094103" lon="13.201337673749309">
    </trkpt>
    <trkpt lat="47.319920634677132" lon="13.201321370286298">
    </trkpt>
    <trkpt lat="47.319896411781286" lon="13.201292690934302">
    </trkpt>
    <trkpt lat="47.319861148397244" lon="13.201251635728212">
    </trkpt>
    <trkpt lat="47.319814844511498" lon="13.201198204718372">
    </trkpt>
    <trkpt lat="47.319748032637889" lon="13.201141494794179">
    </trkpt>
    <trkpt lat="47.319660712770883" lon="13.201081506033709">
    </trkpt>
    <trkpt lat="47.319552884904503" lon="13.201018238522618">
    </trkpt>
    <trkpt lat="47.319424549032234" lon="13.200951692354082">
    </trkpt>
    <trkpt lat="47.319327407057287" lon="13.200901624625384">
    </trkpt>
    <trkpt lat="47.319261459002668" lon="13.200868035157818">
    </trkpt>
    <trkpt lat="47.319226704883832" lon="13.200850923830767">
    </trkpt>
    <trkpt lat="47.31922314470863" lon="13.200850290581728">
    </trkpt>
    <trkpt lat="47.319205656062806" lon="13.200851948151902">
    </trkpt>
    <trkpt lat="47.319174238946076" lon="13.200855896537682">
    </trkpt>
    <trkpt lat="47.319128893357991" lon="13.200862135731832">
    </trkpt>
    <trkpt lat="47.319069619297863" lon="13.200870665723478">
    </trkpt>
    <trkpt lat="47.319024356420037" lon="13.200876900145756">
    </trkpt>
    <trkpt lat="47.318993104725187" lon="13.200880839009573">
    </trkpt>
    <trkpt lat="47.31897586421384" lon="13.200882482322164">
    </trkpt>
    <trkpt lat="47.318972634886229" lon="13.200881830087104">
    </trkpt>
    <trkpt lat="47.318969498092855" lon="13.200880765429909">
    </trkpt>
    <trkpt lat="47.318966453833731" lon="13.200879288350661">
    </trkpt>
    <trkpt lat="47.318963502108815" lon="13.200877398849412">
    </trkpt>
    <trkpt lat="47.318960642918078" lon="13.200875096926223">
    </trkpt>
    <trkpt lat="47.318957757024208" lon="13.200871720607106">
    </trkpt>
    <trkpt lat="47.31895484442709" lon="13.200867269892226">
    </trkpt>
    <trkpt lat="47.318951905126596" lon="13.200861744781781">
    </trkpt>
    <trkpt lat="47.318948939122606" lon="13.200855145275954">
    </trkpt>
    <trkpt lat="47.318946758876358" lon="13.200848164357822">
    </trkpt>
    <trkpt lat="47.318945364387808" lon="13.200840802027127">
    </trkpt>
    <trkpt lat="47.318944755656872" lon="13.200833058283564">
    </trkpt>
    <trkpt lat="47.318944932683515" lon="13.200824933126812">
    </trkpt>
    <trkpt lat="47.318953922502089" lon="13.200789160557504">
    </trkpt>
    <trkpt lat="47.318971725086669" lon="13.200725740543778">
    </trkpt>
    <trkpt lat="47.319007197392359" lon="13.200604994263967">
    </trkpt>
    <trkpt lat="47.319086910055873" lon="13.200337884958055">
    </trkpt>
  </trkseg>
</trk>
</gpx>
