<?xml version="1.0" encoding="UTF-8"?>
<gpx xmlns="http://www.topografix.com/GPX/1/1" xmlns:xsi="http://www.w3.org/2001/XMLSchema-instance" xsi:schemaLocation="http://www.topografix.com/GPX/1/1 http://www.topografix.com/GPX/1/1/gpx.xsd" version="1.1" creator="gpx.py -- https://github.com/tkrajina/gpxpy">
  <wpt lat="47.23707" lon="11.49354">
    <ele>1343.39</ele>
    <name>curve_1</name>
  </wpt>
  <wpt lat="47.23704" lon="11.49335">
    <ele>1342.34</ele>
    <name>curve_2</name>
  </wpt>
  <wpt lat="47.23709" lon="11.49332">
    <ele>1340.02</ele>
    <name>curve_3</name>
  </wpt>
  <wpt lat="47.23927" lon="11.49103">
    <ele>1202.01</ele>
    <name>curve_1</name>
  </wpt>
  <wpt lat="47.23925" lon="11.49091">
    <ele>1199.53</ele>
    <name>curve_2</name>
  </wpt>
  <wpt lat="47.23929" lon="11.49085">
    <ele>1196.62</ele>
    <name>curve_3</name>
  </wpt>
  <wpt lat="47.23937" lon="11.49089">
    <ele>1195.01</ele>
    <name>curve_4</name>
  </wpt>
  <wpt lat="47.24192" lon="11.4975">
    <ele>1125.58</ele>
    <name>curve_1</name>
  </wpt>
  <wpt lat="47.24195" lon="11.49756">
    <ele>1124.57</ele>
    <name>curve_2</name>
  </wpt>
  <wpt lat="47.24199" lon="11.49755">
    <ele>1122.5</ele>
    <name>curve_3</name>
  </wpt>
  <wpt lat="47.24206" lon="11.49739">
    <ele>1118.17</ele>
    <name>curve_4</name>
  </wpt>
  <wpt lat="47.24213" lon="11.497">
    <ele>1114.95</ele>
    <name>curve_5</name>
  </wpt>
</gpx>