<?xml version="1.0" encoding="UTF-8"?>
<gpx xmlns="http://www.topografix.com/GPX/1/1" xmlns:xsi="http://www.w3.org/2001/XMLSchema-instance" xsi:schemaLocation="http://www.topografix.com/GPX/1/1 http://www.topografix.com/GPX/1/1/gpx.xsd" version="1.1" creator="gpx.py -- https://github.com/tkrajina/gpxpy">
  <wpt lat="47.23696" lon="11.49876">
    <ele>1399.67</ele>
    <name>straight_1</name>
  </wpt>
  <wpt lat="47.2369" lon="11.49823">
    <ele>1392.59</ele>
    <name>straight_2</name>
  </wpt>
  <wpt lat="47.23642" lon="11.49694">
    <ele>1378.11</ele>
    <name>straight_3</name>
  </wpt>
  <wpt lat="47.23637" lon="11.49668">
    <ele>1375.25</ele>
    <name>straight_4</name>
  </wpt>
  <wpt lat="47.23647" lon="11.49624">
    <ele>1370.41</ele>
    <name>straight_5</name>
  </wpt>
  <wpt lat="47.23674" lon="11.49557">
    <ele>1362.46</ele>
    <name>straight_6</name>
  </wpt>
  <wpt lat="47.23683" lon="11.49493">
    <ele>1355.75</ele>
    <name>straight_7</name>
  </wpt>
  <wpt lat="47.237" lon="11.49447">
    <ele>1348.99</ele>
    <name>straight_8</name>
  </wpt>
  <wpt lat="47.23707" lon="11.49394">
    <ele>1344.13</ele>
    <name>straight_9</name>
  </wpt>
  <wpt lat="47.23707" lon="11.49354">
    <ele>1343.39</ele>
    <name>straight_10</name>
  </wpt>
  <wpt lat="47.23709" lon="11.49332">
    <ele>1340.02</ele>
    <name>straight_1</name>
  </wpt>
  <wpt lat="47.23715" lon="11.49338">
    <ele>1338.72</ele>
    <name>straight_2</name>
  </wpt>
  <wpt lat="47.23744" lon="11.49415">
    <ele>1331.16</ele>
    <name>straight_3</name>
  </wpt>
  <wpt lat="47.23766" lon="11.49459">
    <ele>1327.03</ele>
    <name>straight_4</name>
  </wpt>
  <wpt lat="47.23777" lon="11.49502">
    <ele>1323.39</ele>
    <name>straight_5</name>
  </wpt>
  <wpt lat="47.23779" lon="11.49543">
    <ele>1319.77</ele>
    <name>straight_6</name>
  </wpt>
  <wpt lat="47.23773" lon="11.49595">
    <ele>1320.31</ele>
    <name>straight_7</name>
  </wpt>
  <wpt lat="47.23776" lon="11.49638">
    <ele>1317.8</ele>
    <name>straight_8</name>
  </wpt>
  <wpt lat="47.23786" lon="11.49661">
    <ele>1315.34</ele>
    <name>straight_9</name>
  </wpt>
  <wpt lat="47.238" lon="11.49673">
    <ele>1311.92</ele>
    <name>straight_10</name>
  </wpt>
  <wpt lat="47.23807" lon="11.49678">
    <ele>1310.45</ele>
    <name>straight_11</name>
  </wpt>
  <wpt lat="47.23833" lon="11.49693">
    <ele>1304.73</ele>
    <name>straight_12</name>
  </wpt>
  <wpt lat="47.23861" lon="11.49728">
    <ele>1302.87</ele>
    <name>straight_13</name>
  </wpt>
  <wpt lat="47.23884" lon="11.49778">
    <ele>1295.16</ele>
    <name>straight_14</name>
  </wpt>
  <wpt lat="47.23898" lon="11.49829">
    <ele>1286.37</ele>
    <name>straight_15</name>
  </wpt>
  <wpt lat="47.23909" lon="11.4989">
    <ele>1279.85</ele>
    <name>straight_16</name>
  </wpt>
  <wpt lat="47.2391" lon="11.49924">
    <ele>1277.52</ele>
    <name>straight_17</name>
  </wpt>
  <wpt lat="47.23914" lon="11.49928">
    <ele>1274.5</ele>
    <name>straight_18</name>
  </wpt>
  <wpt lat="47.23921" lon="11.49918">
    <ele>1271.33</ele>
    <name>straight_19</name>
  </wpt>
  <wpt lat="47.23931" lon="11.49843">
    <ele>1265.64</ele>
    <name>straight_20</name>
  </wpt>
  <wpt lat="47.23949" lon="11.49799">
    <ele>1255.22</ele>
    <name>straight_21</name>
  </wpt>
  <wpt lat="47.23952" lon="11.49758">
    <ele>1252.85</ele>
    <name>straight_22</name>
  </wpt>
  <wpt lat="47.23936" lon="11.49691">
    <ele>1252.58</ele>
    <name>straight_23</name>
  </wpt>
  <wpt lat="47.23934" lon="11.49632">
    <ele>1243.0</ele>
    <name>straight_24</name>
  </wpt>
  <wpt lat="47.23916" lon="11.49574">
    <ele>1241.34</ele>
    <name>straight_25</name>
  </wpt>
  <wpt lat="47.23916" lon="11.49549">
    <ele>1239.51</ele>
    <name>straight_26</name>
  </wpt>
  <wpt lat="47.23936" lon="11.49467">
    <ele>1228.32</ele>
    <name>straight_27</name>
  </wpt>
  <wpt lat="47.23938" lon="11.49458">
    <ele>1228.04</ele>
    <name>straight_28</name>
  </wpt>
  <wpt lat="47.23941" lon="11.49424">
    <ele>1229.11</ele>
    <name>straight_29</name>
  </wpt>
  <wpt lat="47.23949" lon="11.49373">
    <ele>1224.56</ele>
    <name>straight_30</name>
  </wpt>
  <wpt lat="47.23951" lon="11.49344">
    <ele>1221.6</ele>
    <name>straight_31</name>
  </wpt>
  <wpt lat="47.23945" lon="11.49312">
    <ele>1219.61</ele>
    <name>straight_32</name>
  </wpt>
  <wpt lat="47.23931" lon="11.49285">
    <ele>1219.44</ele>
    <name>straight_33</name>
  </wpt>
  <wpt lat="47.23932" lon="11.49218">
    <ele>1212.43</ele>
    <name>straight_34</name>
  </wpt>
  <wpt lat="47.2394" lon="11.49172">
    <ele>1208.84</ele>
    <name>straight_35</name>
  </wpt>
  <wpt lat="47.23943" lon="11.4915">
    <ele>1204.91</ele>
    <name>straight_36</name>
  </wpt>
  <wpt lat="47.23942" lon="11.49132">
    <ele>1202.46</ele>
    <name>straight_37</name>
  </wpt>
  <wpt lat="47.23927" lon="11.49103">
    <ele>1202.01</ele>
    <name>straight_38</name>
  </wpt>
  <wpt lat="47.23937" lon="11.49089">
    <ele>1195.01</ele>
    <name>straight_1</name>
  </wpt>
  <wpt lat="47.2394" lon="11.491">
    <ele>1196.62</ele>
    <name>straight_2</name>
  </wpt>
  <wpt lat="47.23969" lon="11.49128">
    <ele>1189.75</ele>
    <name>straight_3</name>
  </wpt>
  <wpt lat="47.2399" lon="11.49189">
    <ele>1186.23</ele>
    <name>straight_4</name>
  </wpt>
  <wpt lat="47.23999" lon="11.49217">
    <ele>1184.16</ele>
    <name>straight_5</name>
  </wpt>
  <wpt lat="47.2401" lon="11.4924">
    <ele>1180.71</ele>
    <name>straight_6</name>
  </wpt>
  <wpt lat="47.24032" lon="11.49278">
    <ele>1172.17</ele>
    <name>straight_7</name>
  </wpt>
  <wpt lat="47.24052" lon="11.49335">
    <ele>1163.65</ele>
    <name>straight_8</name>
  </wpt>
  <wpt lat="47.24056" lon="11.49389">
    <ele>1159.47</ele>
    <name>straight_9</name>
  </wpt>
  <wpt lat="47.24049" lon="11.49466">
    <ele>1163.57</ele>
    <name>straight_10</name>
  </wpt>
  <wpt lat="47.24054" lon="11.49476">
    <ele>1160.98</ele>
    <name>straight_11</name>
  </wpt>
  <wpt lat="47.24109" lon="11.49537">
    <ele>1145.04</ele>
    <name>straight_12</name>
  </wpt>
  <wpt lat="47.24149" lon="11.49604">
    <ele>1135.79</ele>
    <name>straight_13</name>
  </wpt>
  <wpt lat="47.24154" lon="11.49613">
    <ele>1134.81</ele>
    <name>straight_14</name>
  </wpt>
  <wpt lat="47.24165" lon="11.49625">
    <ele>1131.41</ele>
    <name>straight_15</name>
  </wpt>
  <wpt lat="47.24173" lon="11.49656">
    <ele>1132.66</ele>
    <name>straight_16</name>
  </wpt>
  <wpt lat="47.24191" lon="11.49698">
    <ele>1125.96</ele>
    <name>straight_17</name>
  </wpt>
  <wpt lat="47.24194" lon="11.4972">
    <ele>1124.09</ele>
    <name>straight_18</name>
  </wpt>
  <wpt lat="47.24192" lon="11.4975">
    <ele>1125.58</ele>
    <name>straight_19</name>
  </wpt>
  <wpt lat="47.24213" lon="11.497">
    <ele>1114.95</ele>
    <name>straight_1</name>
  </wpt>
  <wpt lat="47.24212" lon="11.49633">
    <ele>1109.58</ele>
    <name>straight_2</name>
  </wpt>
  <wpt lat="47.24208" lon="11.49588">
    <ele>1103.5</ele>
    <name>straight_3</name>
  </wpt>
  <wpt lat="47.24208" lon="11.49512">
    <ele>1097.79</ele>
    <name>straight_4</name>
  </wpt>
  <wpt lat="47.24199" lon="11.49448">
    <ele>1091.03</ele>
    <name>straight_5</name>
  </wpt>
  <wpt lat="47.24192" lon="11.49435">
    <ele>1090.29</ele>
    <name>straight_6</name>
  </wpt>
  <wpt lat="47.24193" lon="11.49424">
    <ele>1088.53</ele>
    <name>straight_7</name>
  </wpt>
  <wpt lat="47.24231" lon="11.49363">
    <ele>1077.76</ele>
    <name>straight_8</name>
  </wpt>
  <wpt lat="47.24251" lon="11.49358">
    <ele>1070.68</ele>
    <name>straight_9</name>
  </wpt>
  <wpt lat="47.24274" lon="11.49369">
    <ele>1062.53</ele>
    <name>straight_10</name>
  </wpt>
  <wpt lat="47.24283" lon="11.49392">
    <ele>1060.36</ele>
    <name>straight_11</name>
  </wpt>
  <wpt lat="47.24289" lon="11.49438">
    <ele>1058.69</ele>
    <name>straight_12</name>
  </wpt>
  <wpt lat="47.24289" lon="11.49484">
    <ele>1058.12</ele>
    <name>straight_13</name>
  </wpt>
  <wpt lat="47.24308" lon="11.49531">
    <ele>1049.93</ele>
    <name>straight_14</name>
  </wpt>
  <wpt lat="47.24313" lon="11.49553">
    <ele>1049.66</ele>
    <name>straight_15</name>
  </wpt>
  <wpt lat="47.24322" lon="11.49572">
    <ele>1046.97</ele>
    <name>straight_16</name>
  </wpt>
  <wpt lat="47.24324" lon="11.49628">
    <ele>1045.25</ele>
    <name>straight_17</name>
  </wpt>
  <wpt lat="47.24336" lon="11.49702">
    <ele>1044.73</ele>
    <name>straight_18</name>
  </wpt>
  <wpt lat="47.24391" lon="11.49835">
    <ele>1033.54</ele>
    <name>straight_19</name>
  </wpt>
  <wpt lat="47.24427" lon="11.4988">
    <ele>1018.28</ele>
    <name>straight_20</name>
  </wpt>
  <wpt lat="47.24437" lon="11.49889">
    <ele>1016.0</ele>
    <name>straight_21</name>
  </wpt>
  <wpt lat="47.24454" lon="11.49904">
    <ele>1014.16</ele>
    <name>straight_22</name>
  </wpt>
  <wpt lat="47.24467" lon="11.49924">
    <ele>1014.08</ele>
    <name>straight_23</name>
  </wpt>
  <wpt lat="47.24515" lon="11.50016">
    <ele>1002.11</ele>
    <name>straight_24</name>
  </wpt>
  <wpt lat="47.24543" lon="11.50066">
    <ele>995.54</ele>
    <name>straight_25</name>
  </wpt>
  <wpt lat="47.24573" lon="11.50114">
    <ele>989.02</ele>
    <name>straight_26</name>
  </wpt>
  <wpt lat="47.24587" lon="11.50142">
    <ele>985.24</ele>
    <name>straight_27</name>
  </wpt>
  <wpt lat="47.24606" lon="11.50203">
    <ele>981.95</ele>
    <name>straight_28</name>
  </wpt>
  <wpt lat="47.24624" lon="11.50229">
    <ele>977.94</ele>
    <name>straight_29</name>
  </wpt>
  <wpt lat="47.24634" lon="11.5024">
    <ele>975.59</ele>
    <name>straight_30</name>
  </wpt>
  <wpt lat="47.24643" lon="11.50245">
    <ele>973.29</ele>
    <name>straight_31</name>
  </wpt>
  <wpt lat="47.24652" lon="11.50259">
    <ele>971.62</ele>
    <name>straight_32</name>
  </wpt>
  <wpt lat="47.24731" lon="11.5032">
    <ele>957.23</ele>
    <name>straight_33</name>
  </wpt>
  <wpt lat="47.24746" lon="11.50333">
    <ele>954.89</ele>
    <name>straight_34</name>
  </wpt>
  <wpt lat="47.24764" lon="11.50347">
    <ele>951.84</ele>
    <name>straight_35</name>
  </wpt>
  <wpt lat="47.24775" lon="11.50358">
    <ele>950.12</ele>
    <name>straight_36</name>
  </wpt>
  <wpt lat="47.2478" lon="11.50367">
    <ele>949.61</ele>
    <name>straight_37</name>
  </wpt>
  <wpt lat="47.24783" lon="11.50369">
    <ele>949.05</ele>
    <name>straight_38</name>
  </wpt>
  <wpt lat="47.24803" lon="11.50381">
    <ele>945.18</ele>
    <name>straight_39</name>
  </wpt>
</gpx>