<?xml version="1.0" encoding="UTF-8" standalone="no"?>
<gpx version="1.1" creator="Trailforks.com" xmlns="http://www.topografix.com/GPX/1/1" xmlns:xsi="http://www.w3.org/2001/XMLSchema-instance" xsi:schemaLocation="http://www.topografix.com/GPX/1/1 http://www.topografix.com/GPX/1/1/gpx.xsd">
<metadata>
<name>B-Line - Upper Trailforks Trail</name>
<link href="https://www.trailforks.com/">
<text>Trailforks</text>
</link>
</metadata>
<trk>
<name>
B-Line - Upper
</name>
<trkseg>
<trkpt lat="50.0996" lon="-122.95061">
<ele>1022.743</ele>
<time>2025-03-24T03:50:14-07:00</time>
</trkpt>
<trkpt lat="50.09965" lon="-122.9506">
<ele>1022.246</ele>
<time>2025-03-24T03:50:15-07:00</time>
</trkpt>
<trkpt lat="50.09969" lon="-122.95057">
<ele>1021.722</ele>
<time>2025-03-24T03:50:16-07:00</time>
</trkpt>
<trkpt lat="50.09978" lon="-122.95058">
<ele>1020.658</ele>
<time>2025-03-24T03:50:17-07:00</time>
</trkpt>
<trkpt lat="50.09982" lon="-122.9506">
<ele>1020.472</ele>
<time>2025-03-24T03:50:18-07:00</time>
</trkpt>
<trkpt lat="50.10014" lon="-122.95093">
<ele>1016.514</ele>
<time>2025-03-24T03:50:19-07:00</time>
</trkpt>
<trkpt lat="50.10016" lon="-122.95096">
<ele>1017.203</ele>
<time>2025-03-24T03:50:20-07:00</time>
</trkpt>
<trkpt lat="50.10016" lon="-122.95112">
<ele>1015.851</ele>
<time>2025-03-24T03:50:21-07:00</time>
</trkpt>
<trkpt lat="50.10016" lon="-122.95115">
<ele>1015.242</ele>
<time>2025-03-24T03:50:22-07:00</time>
</trkpt>
<trkpt lat="50.10029" lon="-122.95145">
<ele>1011.981</ele>
<time>2025-03-24T03:50:23-07:00</time>
</trkpt>
<trkpt lat="50.10029" lon="-122.9516">
<ele>1010.813</ele>
<time>2025-03-24T03:50:24-07:00</time>
</trkpt>
<trkpt lat="50.10023" lon="-122.95174">
<ele>1009.932</ele>
<time>2025-03-24T03:50:25-07:00</time>
</trkpt>
<trkpt lat="50.10021" lon="-122.95178">
<ele>1010.033</ele>
<time>2025-03-24T03:50:26-07:00</time>
</trkpt>
<trkpt lat="50.10007" lon="-122.95186">
<ele>1007.319</ele>
<time>2025-03-24T03:50:27-07:00</time>
</trkpt>
<trkpt lat="50.10004" lon="-122.95189">
<ele>1006.7</ele>
<time>2025-03-24T03:50:28-07:00</time>
</trkpt>
<trkpt lat="50.10002" lon="-122.95197">
<ele>1005.218</ele>
<time>2025-03-24T03:50:29-07:00</time>
</trkpt>
<trkpt lat="50.10004" lon="-122.95201">
<ele>1004.711</ele>
<time>2025-03-24T03:50:30-07:00</time>
</trkpt>
<trkpt lat="50.10016" lon="-122.95205">
<ele>1003.794</ele>
<time>2025-03-24T03:50:31-07:00</time>
</trkpt>
<trkpt lat="50.10032" lon="-122.95203">
<ele>1003.449</ele>
<time>2025-03-24T03:50:32-07:00</time>
</trkpt>
<trkpt lat="50.10052" lon="-122.95185">
<ele>1005.172</ele>
<time>2025-03-24T03:50:33-07:00</time>
</trkpt>
<trkpt lat="50.10055" lon="-122.95185">
<ele>1004.583</ele>
<time>2025-03-24T03:50:34-07:00</time>
</trkpt>
<trkpt lat="50.10058" lon="-122.95188">
<ele>1003.343</ele>
<time>2025-03-24T03:50:35-07:00</time>
</trkpt>
<trkpt lat="50.10061" lon="-122.95192">
<ele>1001.963</ele>
<time>2025-03-24T03:50:36-07:00</time>
</trkpt>
<trkpt lat="50.10062" lon="-122.952">
<ele>1000.62</ele>
<time>2025-03-24T03:50:37-07:00</time>
</trkpt>
<trkpt lat="50.10061" lon="-122.95206">
<ele>1000.152</ele>
<time>2025-03-24T03:50:38-07:00</time>
</trkpt>
<trkpt lat="50.10058" lon="-122.95211">
<ele>999.834</ele>
<time>2025-03-24T03:50:39-07:00</time>
</trkpt>
<trkpt lat="50.10055" lon="-122.95214">
<ele>999.657</ele>
<time>2025-03-24T03:50:40-07:00</time>
</trkpt>
<trkpt lat="50.10038" lon="-122.95222">
<ele>996.797</ele>
<time>2025-03-24T03:50:41-07:00</time>
</trkpt>
<trkpt lat="50.10035" lon="-122.95227">
<ele>996.849</ele>
<time>2025-03-24T03:50:42-07:00</time>
</trkpt>
<trkpt lat="50.10048" lon="-122.95233">
<ele>998.12</ele>
<time>2025-03-24T03:50:43-07:00</time>
</trkpt>
<trkpt lat="50.10057" lon="-122.95232">
<ele>998.441</ele>
<time>2025-03-24T03:50:44-07:00</time>
</trkpt>
<trkpt lat="50.10068" lon="-122.9523">
<ele>999.831</ele>
<time>2025-03-24T03:50:45-07:00</time>
</trkpt>
<trkpt lat="50.10073" lon="-122.95224">
<ele>1000.132</ele>
<time>2025-03-24T03:50:46-07:00</time>
</trkpt>
<trkpt lat="50.10088" lon="-122.95218">
<ele>1000.333</ele>
<time>2025-03-24T03:50:47-07:00</time>
</trkpt>
<trkpt lat="50.1009" lon="-122.95219">
<ele>999.955</ele>
<time>2025-03-24T03:50:48-07:00</time>
</trkpt>
<trkpt lat="50.10094" lon="-122.95226">
<ele>996.938</ele>
<time>2025-03-24T03:50:49-07:00</time>
</trkpt>
<trkpt lat="50.10094" lon="-122.95233">
<ele>995.982</ele>
<time>2025-03-24T03:50:50-07:00</time>
</trkpt>
<trkpt lat="50.10088" lon="-122.95253">
<ele>994.235</ele>
<time>2025-03-24T03:50:51-07:00</time>
</trkpt>
<trkpt lat="50.10088" lon="-122.95257">
<ele>993.242</ele>
<time>2025-03-24T03:50:52-07:00</time>
</trkpt>
<trkpt lat="50.10095" lon="-122.95264">
<ele>991.802</ele>
<time>2025-03-24T03:50:53-07:00</time>
</trkpt>
<trkpt lat="50.10101" lon="-122.95268">
<ele>991.461</ele>
<time>2025-03-24T03:50:54-07:00</time>
</trkpt>
<trkpt lat="50.10111" lon="-122.95268">
<ele>991.369</ele>
<time>2025-03-24T03:50:55-07:00</time>
</trkpt>
<trkpt lat="50.10116" lon="-122.95268">
<ele>991.61</ele>
<time>2025-03-24T03:50:56-07:00</time>
</trkpt>
<trkpt lat="50.10131" lon="-122.95252">
<ele>991.744</ele>
<time>2025-03-24T03:50:57-07:00</time>
</trkpt>
<trkpt lat="50.10134" lon="-122.95249">
<ele>989.093</ele>
<time>2025-03-24T03:50:58-07:00</time>
</trkpt>
<trkpt lat="50.10138" lon="-122.95249">
<ele>987.734</ele>
<time>2025-03-24T03:50:59-07:00</time>
</trkpt>
<trkpt lat="50.10145" lon="-122.95263">
<ele>986.222</ele>
<time>2025-03-24T03:51:00-07:00</time>
</trkpt>
<trkpt lat="50.10148" lon="-122.95265">
<ele>986.136</ele>
<time>2025-03-24T03:51:01-07:00</time>
</trkpt>
<trkpt lat="50.10164" lon="-122.9525">
<ele>985.211</ele>
<time>2025-03-24T03:51:02-07:00</time>
</trkpt>
<trkpt lat="50.10165" lon="-122.95249">
<ele>984.251</ele>
<time>2025-03-24T03:51:03-07:00</time>
</trkpt>
<trkpt lat="50.10168" lon="-122.95254">
<ele>982.815</ele>
<time>2025-03-24T03:51:04-07:00</time>
</trkpt>
<trkpt lat="50.10168" lon="-122.95259">
<ele>982.119</ele>
<time>2025-03-24T03:51:05-07:00</time>
</trkpt>
<trkpt lat="50.1016" lon="-122.95273">
<ele>979.17</ele>
<time>2025-03-24T03:51:06-07:00</time>
</trkpt>
<trkpt lat="50.10158" lon="-122.95276">
<ele>978.155</ele>
<time>2025-03-24T03:51:07-07:00</time>
</trkpt>
<trkpt lat="50.10157" lon="-122.95287">
<ele>977.561</ele>
<time>2025-03-24T03:51:08-07:00</time>
</trkpt>
<trkpt lat="50.10158" lon="-122.95291">
<ele>977.153</ele>
<time>2025-03-24T03:51:09-07:00</time>
</trkpt>
<trkpt lat="50.10162" lon="-122.95294">
<ele>974.411</ele>
<time>2025-03-24T03:51:10-07:00</time>
</trkpt>
<trkpt lat="50.10164" lon="-122.95294">
<ele>973.595</ele>
<time>2025-03-24T03:51:11-07:00</time>
</trkpt>
<trkpt lat="50.10186" lon="-122.95285">
<ele>972.281</ele>
<time>2025-03-24T03:51:12-07:00</time>
</trkpt>
<trkpt lat="50.10188" lon="-122.95284">
<ele>971.312</ele>
<time>2025-03-24T03:51:13-07:00</time>
</trkpt>
<trkpt lat="50.10192" lon="-122.95284">
<ele>971.376</ele>
<time>2025-03-24T03:51:14-07:00</time>
</trkpt>
<trkpt lat="50.10193" lon="-122.95284">
<ele>971.97</ele>
<time>2025-03-24T03:51:15-07:00</time>
</trkpt>
<trkpt lat="50.10196" lon="-122.95287">
<ele>971.511</ele>
<time>2025-03-24T03:51:16-07:00</time>
</trkpt>
<trkpt lat="50.10198" lon="-122.95291">
<ele>970.339</ele>
<time>2025-03-24T03:51:17-07:00</time>
</trkpt>
<trkpt lat="50.10196" lon="-122.95295">
<ele>970.203</ele>
<time>2025-03-24T03:51:18-07:00</time>
</trkpt>
<trkpt lat="50.1019" lon="-122.95298">
<ele>971.389</ele>
<time>2025-03-24T03:51:19-07:00</time>
</trkpt>
<trkpt lat="50.10188" lon="-122.95301">
<ele>972.023</ele>
<time>2025-03-24T03:51:20-07:00</time>
</trkpt>
<trkpt lat="50.10185" lon="-122.95315">
<ele>972.181</ele>
<time>2025-03-24T03:51:21-07:00</time>
</trkpt>
<trkpt lat="50.10183" lon="-122.95319">
<ele>971.177</ele>
<time>2025-03-24T03:51:22-07:00</time>
</trkpt>
<trkpt lat="50.10176" lon="-122.95324">
<ele>969.115</ele>
<time>2025-03-24T03:51:23-07:00</time>
</trkpt>
<trkpt lat="50.10168" lon="-122.95324">
<ele>968.259</ele>
<time>2025-03-24T03:51:24-07:00</time>
</trkpt>
<trkpt lat="50.10162" lon="-122.95331">
<ele>966.502</ele>
<time>2025-03-24T03:51:25-07:00</time>
</trkpt>
<trkpt lat="50.10163" lon="-122.95335">
<ele>965.897</ele>
<time>2025-03-24T03:51:26-07:00</time>
</trkpt>
<trkpt lat="50.10168" lon="-122.95336">
<ele>965.301</ele>
<time>2025-03-24T03:51:27-07:00</time>
</trkpt>
<trkpt lat="50.10173" lon="-122.95336">
<ele>963.033</ele>
<time>2025-03-24T03:51:28-07:00</time>
</trkpt>
<trkpt lat="50.10179" lon="-122.95332">
<ele>962.464</ele>
<time>2025-03-24T03:51:29-07:00</time>
</trkpt>
<trkpt lat="50.1023" lon="-122.95324">
<ele>961.266</ele>
<time>2025-03-24T03:51:30-07:00</time>
</trkpt>
<trkpt lat="50.10234" lon="-122.95326">
<ele>960.784</ele>
<time>2025-03-24T03:51:31-07:00</time>
</trkpt>
<trkpt lat="50.10238" lon="-122.95337">
<ele>957.29</ele>
<time>2025-03-24T03:51:32-07:00</time>
</trkpt>
<trkpt lat="50.10239" lon="-122.9534">
<ele>956.538</ele>
<time>2025-03-24T03:51:33-07:00</time>
</trkpt>
<trkpt lat="50.10251" lon="-122.9535">
<ele>955.196</ele>
<time>2025-03-24T03:51:34-07:00</time>
</trkpt>
<trkpt lat="50.10252" lon="-122.95352">
<ele>954.669</ele>
<time>2025-03-24T03:51:35-07:00</time>
</trkpt>
<trkpt lat="50.10252" lon="-122.95355">
<ele>951.156</ele>
<time>2025-03-24T03:51:36-07:00</time>
</trkpt>
<trkpt lat="50.1025" lon="-122.95357">
<ele>950.694</ele>
<time>2025-03-24T03:51:37-07:00</time>
</trkpt>
<trkpt lat="50.1024" lon="-122.9536">
<ele>949.79</ele>
<time>2025-03-24T03:51:38-07:00</time>
</trkpt>
<trkpt lat="50.10239" lon="-122.95362">
<ele>949.32</ele>
<time>2025-03-24T03:51:39-07:00</time>
</trkpt>
<trkpt lat="50.10242" lon="-122.95373">
<ele>944.813</ele>
<time>2025-03-24T03:51:40-07:00</time>
</trkpt>
<trkpt lat="50.10242" lon="-122.95378">
<ele>944.351</ele>
<time>2025-03-24T03:51:41-07:00</time>
</trkpt>
<trkpt lat="50.10252" lon="-122.95382">
<ele>943.802</ele>
<time>2025-03-24T03:51:42-07:00</time>
</trkpt>
<trkpt lat="50.10267" lon="-122.95378">
<ele>944.388</ele>
<time>2025-03-24T03:51:43-07:00</time>
</trkpt>
<trkpt lat="50.10268" lon="-122.9538">
<ele>944.537</ele>
<time>2025-03-24T03:51:44-07:00</time>
</trkpt>
<trkpt lat="50.10265" lon="-122.95399">
<ele>943.608</ele>
<time>2025-03-24T03:51:45-07:00</time>
</trkpt>
<trkpt lat="50.10266" lon="-122.95401">
<ele>942.705</ele>
<time>2025-03-24T03:51:46-07:00</time>
</trkpt>
<trkpt lat="50.10292" lon="-122.954">
<ele>941.859</ele>
<time>2025-03-24T03:51:47-07:00</time>
</trkpt>
<trkpt lat="50.10296" lon="-122.95398">
<ele>941.439</ele>
<time>2025-03-24T03:51:48-07:00</time>
</trkpt>
<trkpt lat="50.10306" lon="-122.95391">
<ele>939.304</ele>
<time>2025-03-24T03:51:49-07:00</time>
</trkpt>
<trkpt lat="50.10309" lon="-122.95388">
<ele>937.936</ele>
<time>2025-03-24T03:51:50-07:00</time>
</trkpt>
<trkpt lat="50.10318" lon="-122.95372">
<ele>937.01</ele>
<time>2025-03-24T03:51:51-07:00</time>
</trkpt>
<trkpt lat="50.1032" lon="-122.9537">
<ele>936.185</ele>
<time>2025-03-24T03:51:52-07:00</time>
</trkpt>
<trkpt lat="50.10324" lon="-122.95371">
<ele>931.854</ele>
<time>2025-03-24T03:51:53-07:00</time>
</trkpt>
<trkpt lat="50.10326" lon="-122.95373">
<ele>931.429</ele>
<time>2025-03-24T03:51:54-07:00</time>
</trkpt>
<trkpt lat="50.10328" lon="-122.95379">
<ele>931.003</ele>
<time>2025-03-24T03:51:55-07:00</time>
</trkpt>
<trkpt lat="50.1033" lon="-122.95387">
<ele>930.577</ele>
<time>2025-03-24T03:51:56-07:00</time>
</trkpt>
<trkpt lat="50.10329" lon="-122.95408">
<ele>929.863</ele>
<time>2025-03-24T03:51:57-07:00</time>
</trkpt>
<trkpt lat="50.1033" lon="-122.95411">
<ele>929.148</ele>
<time>2025-03-24T03:51:58-07:00</time>
</trkpt>
<trkpt lat="50.10333" lon="-122.95412">
<ele>926.249</ele>
<time>2025-03-24T03:51:59-07:00</time>
</trkpt>
<trkpt lat="50.10334" lon="-122.95412">
<ele>924.996</ele>
<time>2025-03-24T03:52:00-07:00</time>
</trkpt>
<trkpt lat="50.10338" lon="-122.95409">
<ele>923.916</ele>
<time>2025-03-24T03:52:01-07:00</time>
</trkpt>
<trkpt lat="50.1034" lon="-122.95407">
<ele>923.506</ele>
<time>2025-03-24T03:52:02-07:00</time>
</trkpt>
<trkpt lat="50.10348" lon="-122.95406">
<ele>920.796</ele>
<time>2025-03-24T03:52:03-07:00</time>
</trkpt>
<trkpt lat="50.1035" lon="-122.9541">
<ele>919.464</ele>
<time>2025-03-24T03:52:04-07:00</time>
</trkpt>
<trkpt lat="50.1035" lon="-122.95418">
<ele>915.035</ele>
<time>2025-03-24T03:52:05-07:00</time>
</trkpt>
<trkpt lat="50.10349" lon="-122.95422">
<ele>914.746</ele>
<time>2025-03-24T03:52:06-07:00</time>
</trkpt>
<trkpt lat="50.10336" lon="-122.95456">
<ele>914.458</ele>
<time>2025-03-24T03:52:07-07:00</time>
</trkpt>
<trkpt lat="50.10333" lon="-122.9546">
<ele>914.169</ele>
<time>2025-03-24T03:52:08-07:00</time>
</trkpt>
<trkpt lat="50.10329" lon="-122.95477">
<ele>912.785</ele>
<time>2025-03-24T03:52:09-07:00</time>
</trkpt>
<trkpt lat="50.10329" lon="-122.95481">
<ele>912.619</ele>
<time>2025-03-24T03:52:10-07:00</time>
</trkpt>
<trkpt lat="50.10332" lon="-122.95482">
<ele>912.484</ele>
<time>2025-03-24T03:52:11-07:00</time>
</trkpt>
<trkpt lat="50.10335" lon="-122.95482">
<ele>911.906</ele>
<time>2025-03-24T03:52:12-07:00</time>
</trkpt>
<trkpt lat="50.10356" lon="-122.95467">
<ele>911.13</ele>
<time>2025-03-24T03:52:13-07:00</time>
</trkpt>
<trkpt lat="50.10361" lon="-122.95463">
<ele>910.397</ele>
<time>2025-03-24T03:52:14-07:00</time>
</trkpt>
<trkpt lat="50.10367" lon="-122.95467">
<ele>905.98</ele>
<time>2025-03-24T03:52:15-07:00</time>
</trkpt>
<trkpt lat="50.10368" lon="-122.9547">
<ele>905.13</ele>
<time>2025-03-24T03:52:16-07:00</time>
</trkpt>
<trkpt lat="50.10367" lon="-122.95475">
<ele>904.406</ele>
<time>2025-03-24T03:52:17-07:00</time>
</trkpt>
<trkpt lat="50.10366" lon="-122.95481">
<ele>903.847</ele>
<time>2025-03-24T03:52:18-07:00</time>
</trkpt>
<trkpt lat="50.10345" lon="-122.95517">
<ele>902.522</ele>
<time>2025-03-24T03:52:19-07:00</time>
</trkpt>
<trkpt lat="50.10343" lon="-122.95522">
<ele>902.237</ele>
<time>2025-03-24T03:52:20-07:00</time>
</trkpt>
<trkpt lat="50.10341" lon="-122.9554">
<ele>902.178</ele>
<time>2025-03-24T03:52:21-07:00</time>
</trkpt>
<trkpt lat="50.10349" lon="-122.95567">
<ele>901.873</ele>
<time>2025-03-24T03:52:22-07:00</time>
</trkpt>
<trkpt lat="50.10353" lon="-122.9557">
<ele>900.366</ele>
<time>2025-03-24T03:52:23-07:00</time>
</trkpt>
<trkpt lat="50.10357" lon="-122.95572">
<ele>899.757</ele>
<time>2025-03-24T03:52:24-07:00</time>
</trkpt>
<trkpt lat="50.10365" lon="-122.9557">
<ele>896.468</ele>
<time>2025-03-24T03:52:25-07:00</time>
</trkpt>
<trkpt lat="50.10371" lon="-122.95563">
<ele>896.468</ele>
<time>2025-03-24T03:52:26-07:00</time>
</trkpt>
<trkpt lat="50.10381" lon="-122.95534">
<ele>896.468</ele>
<time>2025-03-24T03:52:27-07:00</time>
</trkpt>
<trkpt lat="50.10386" lon="-122.95523">
<ele>896.468</ele>
<time>2025-03-24T03:52:28-07:00</time>
</trkpt>
<trkpt lat="50.10416" lon="-122.95482">
<ele>896.468</ele>
<time>2025-03-24T03:52:29-07:00</time>
</trkpt>
</trkseg>
</trk>
</gpx>
