<?xml version="1.0" encoding="UTF-8" standalone="no"?>
<gpx version="1.1" creator="Trailforks.com" xmlns="http://www.topografix.com/GPX/1/1" xmlns:xsi="http://www.w3.org/2001/XMLSchema-instance" xsi:schemaLocation="http://www.topografix.com/GPX/1/1 http://www.topografix.com/GPX/1/1/gpx.xsd">
<metadata>
<name>Crank It Up - Lower Trailforks Trail</name>
<link href="https://www.trailforks.com/">
<text>Trailforks</text>
</link>
</metadata>
<trk>
<name>
Crank It Up - Lower
</name>
<trkseg>
<trkpt lat="50.10356" lon="-122.95064">
<ele>926.1</ele>
<time>2025-03-24T03:51:08-07:00</time>
</trkpt>
<trkpt lat="50.10368" lon="-122.9507">
<ele>919.4</ele>
<time>2025-03-24T03:51:09-07:00</time>
</trkpt>
<trkpt lat="50.10379" lon="-122.95068">
<ele>919.4</ele>
<time>2025-03-24T03:51:10-07:00</time>
</trkpt>
<trkpt lat="50.10392" lon="-122.95068">
<ele>910.7</ele>
<time>2025-03-24T03:51:11-07:00</time>
</trkpt>
<trkpt lat="50.10406" lon="-122.95084">
<ele>911.6</ele>
<time>2025-03-24T03:51:12-07:00</time>
</trkpt>
<trkpt lat="50.1041" lon="-122.95097">
<ele>911.6</ele>
<time>2025-03-24T03:51:13-07:00</time>
</trkpt>
<trkpt lat="50.10416" lon="-122.95116">
<ele>911.3</ele>
<time>2025-03-24T03:51:14-07:00</time>
</trkpt>
<trkpt lat="50.10413" lon="-122.95169">
<ele>907.7</ele>
<time>2025-03-24T03:51:15-07:00</time>
</trkpt>
<trkpt lat="50.10421" lon="-122.95219">
<ele>899.8</ele>
<time>2025-03-24T03:51:16-07:00</time>
</trkpt>
<trkpt lat="50.10416" lon="-122.95269">
<ele>906.1</ele>
<time>2025-03-24T03:51:17-07:00</time>
</trkpt>
<trkpt lat="50.10428" lon="-122.9531">
<ele>898.5</ele>
<time>2025-03-24T03:51:18-07:00</time>
</trkpt>
<trkpt lat="50.10435" lon="-122.95304">
<ele>899.2</ele>
<time>2025-03-24T03:51:19-07:00</time>
</trkpt>
<trkpt lat="50.10435" lon="-122.95285">
<ele>899.2</ele>
<time>2025-03-24T03:51:20-07:00</time>
</trkpt>
<trkpt lat="50.10462" lon="-122.95203">
<ele>893</ele>
<time>2025-03-24T03:51:21-07:00</time>
</trkpt>
<trkpt lat="50.10469" lon="-122.95143">
<ele>891.4</ele>
<time>2025-03-24T03:51:22-07:00</time>
</trkpt>
<trkpt lat="50.10478" lon="-122.95109">
<ele>880.7</ele>
<time>2025-03-24T03:51:23-07:00</time>
</trkpt>
<trkpt lat="50.10478" lon="-122.951">
<ele>880.7</ele>
<time>2025-03-24T03:51:24-07:00</time>
</trkpt>
<trkpt lat="50.10465" lon="-122.95081">
<ele>888.7</ele>
<time>2025-03-24T03:51:25-07:00</time>
</trkpt>
<trkpt lat="50.10455" lon="-122.95053">
<ele>887</ele>
<time>2025-03-24T03:51:26-07:00</time>
</trkpt>
<trkpt lat="50.10456" lon="-122.95027">
<ele>884.7</ele>
<time>2025-03-24T03:51:27-07:00</time>
</trkpt>
<trkpt lat="50.10446" lon="-122.94969">
<ele>874</ele>
<time>2025-03-24T03:51:28-07:00</time>
</trkpt>
<trkpt lat="50.10438" lon="-122.94956">
<ele>886.2</ele>
<time>2025-03-24T03:51:29-07:00</time>
</trkpt>
<trkpt lat="50.10409" lon="-122.94873">
<ele>883.2</ele>
<time>2025-03-24T03:51:30-07:00</time>
</trkpt>
<trkpt lat="50.1041" lon="-122.94868">
<ele>883.2</ele>
<time>2025-03-24T03:51:31-07:00</time>
</trkpt>
<trkpt lat="50.1042" lon="-122.9488">
<ele>867.6</ele>
<time>2025-03-24T03:51:32-07:00</time>
</trkpt>
<trkpt lat="50.10434" lon="-122.94912">
<ele>872.9</ele>
<time>2025-03-24T03:51:33-07:00</time>
</trkpt>
<trkpt lat="50.1044" lon="-122.94921">
<ele>878.8</ele>
<time>2025-03-24T03:51:34-07:00</time>
</trkpt>
<trkpt lat="50.10442" lon="-122.94921">
<ele>878.8</ele>
<time>2025-03-24T03:51:35-07:00</time>
</trkpt>
<trkpt lat="50.10445" lon="-122.94914">
<ele>858.1</ele>
<time>2025-03-24T03:51:36-07:00</time>
</trkpt>
<trkpt lat="50.10444" lon="-122.94909">
<ele>872.9</ele>
<time>2025-03-24T03:51:37-07:00</time>
</trkpt>
<trkpt lat="50.10403" lon="-122.94832">
<ele>864.4</ele>
<time>2025-03-24T03:51:38-07:00</time>
</trkpt>
<trkpt lat="50.10368" lon="-122.94781">
<ele>864</ele>
<time>2025-03-24T03:51:39-07:00</time>
</trkpt>
<trkpt lat="50.10357" lon="-122.94756">
<ele>872.3</ele>
<time>2025-03-24T03:51:40-07:00</time>
</trkpt>
<trkpt lat="50.10351" lon="-122.94728">
<ele>868.9</ele>
<time>2025-03-24T03:51:41-07:00</time>
</trkpt>
<trkpt lat="50.10339" lon="-122.94701">
<ele>864.3</ele>
<time>2025-03-24T03:51:42-07:00</time>
</trkpt>
<trkpt lat="50.10337" lon="-122.9464">
<ele>848.6</ele>
<time>2025-03-24T03:51:43-07:00</time>
</trkpt>
<trkpt lat="50.10332" lon="-122.94616">
<ele>856.4</ele>
<time>2025-03-24T03:51:44-07:00</time>
</trkpt>
<trkpt lat="50.1032" lon="-122.94582">
<ele>849.4</ele>
<time>2025-03-24T03:51:45-07:00</time>
</trkpt>
<trkpt lat="50.10318" lon="-122.94562">
<ele>849.4</ele>
<time>2025-03-24T03:51:46-07:00</time>
</trkpt>
<trkpt lat="50.10321" lon="-122.94545">
<ele>845.6</ele>
<time>2025-03-24T03:51:47-07:00</time>
</trkpt>
<trkpt lat="50.10318" lon="-122.94534">
<ele>845.6</ele>
<time>2025-03-24T03:51:48-07:00</time>
</trkpt>
<trkpt lat="50.1031" lon="-122.94525">
<ele>844.2</ele>
<time>2025-03-24T03:51:49-07:00</time>
</trkpt>
<trkpt lat="50.10311" lon="-122.94517">
<ele>844.2</ele>
<time>2025-03-24T03:51:50-07:00</time>
</trkpt>
<trkpt lat="50.10321" lon="-122.94519">
<ele>844.2</ele>
<time>2025-03-24T03:51:51-07:00</time>
</trkpt>
<trkpt lat="50.10324" lon="-122.94522">
<ele>844.2</ele>
<time>2025-03-24T03:51:52-07:00</time>
</trkpt>
<trkpt lat="50.10358" lon="-122.94577">
<ele>840.4</ele>
<time>2025-03-24T03:51:53-07:00</time>
</trkpt>
<trkpt lat="50.1038" lon="-122.94599">
<ele>834</ele>
<time>2025-03-24T03:51:54-07:00</time>
</trkpt>
<trkpt lat="50.10395" lon="-122.94648">
<ele>827.8</ele>
<time>2025-03-24T03:51:55-07:00</time>
</trkpt>
<trkpt lat="50.10399" lon="-122.94645">
<ele>827.8</ele>
<time>2025-03-24T03:51:56-07:00</time>
</trkpt>
<trkpt lat="50.10395" lon="-122.94613">
<ele>827.1</ele>
<time>2025-03-24T03:51:57-07:00</time>
</trkpt>
<trkpt lat="50.10397" lon="-122.94559">
<ele>826.4</ele>
<time>2025-03-24T03:51:58-07:00</time>
</trkpt>
<trkpt lat="50.10384" lon="-122.94533">
<ele>831</ele>
<time>2025-03-24T03:51:59-07:00</time>
</trkpt>
<trkpt lat="50.10387" lon="-122.94523">
<ele>829.7</ele>
<time>2025-03-24T03:52:00-07:00</time>
</trkpt>
<trkpt lat="50.104" lon="-122.94537">
<ele>824.6</ele>
<time>2025-03-24T03:52:01-07:00</time>
</trkpt>
<trkpt lat="50.10427" lon="-122.94584">
<ele>821</ele>
<time>2025-03-24T03:52:02-07:00</time>
</trkpt>
<trkpt lat="50.10436" lon="-122.94597">
<ele>821</ele>
<time>2025-03-24T03:52:03-07:00</time>
</trkpt>
<trkpt lat="50.10445" lon="-122.94604">
<ele>811.8</ele>
<time>2025-03-24T03:52:04-07:00</time>
</trkpt>
<trkpt lat="50.10452" lon="-122.94616">
<ele>813</ele>
<time>2025-03-24T03:52:05-07:00</time>
</trkpt>
<trkpt lat="50.10459" lon="-122.94624">
<ele>813</ele>
<time>2025-03-24T03:52:06-07:00</time>
</trkpt>
<trkpt lat="50.10472" lon="-122.94665">
<ele>816</ele>
<time>2025-03-24T03:52:07-07:00</time>
</trkpt>
<trkpt lat="50.1049" lon="-122.94686">
<ele>813.3</ele>
<time>2025-03-24T03:52:08-07:00</time>
</trkpt>
<trkpt lat="50.10498" lon="-122.9469">
<ele>813.3</ele>
<time>2025-03-24T03:52:09-07:00</time>
</trkpt>
<trkpt lat="50.10523" lon="-122.94726">
<ele>809.4</ele>
<time>2025-03-24T03:52:10-07:00</time>
</trkpt>
<trkpt lat="50.10533" lon="-122.94754">
<ele>803.4</ele>
<time>2025-03-24T03:52:11-07:00</time>
</trkpt>
<trkpt lat="50.10535" lon="-122.94756">
<ele>803.4</ele>
<time>2025-03-24T03:52:12-07:00</time>
</trkpt>
<trkpt lat="50.10538" lon="-122.94754">
<ele>803.4</ele>
<time>2025-03-24T03:52:13-07:00</time>
</trkpt>
<trkpt lat="50.10535" lon="-122.94734">
<ele>800.6</ele>
<time>2025-03-24T03:52:14-07:00</time>
</trkpt>
<trkpt lat="50.10536" lon="-122.94731">
<ele>800.6</ele>
<time>2025-03-24T03:52:15-07:00</time>
</trkpt>
<trkpt lat="50.10541" lon="-122.94726">
<ele>800.6</ele>
<time>2025-03-24T03:52:16-07:00</time>
</trkpt>
<trkpt lat="50.10583" lon="-122.94772">
<ele>795</ele>
<time>2025-03-24T03:52:17-07:00</time>
</trkpt>
<trkpt lat="50.10602" lon="-122.94789">
<ele>792.1</ele>
<time>2025-03-24T03:52:18-07:00</time>
</trkpt>
<trkpt lat="50.1062" lon="-122.94821">
<ele>788.1</ele>
<time>2025-03-24T03:52:19-07:00</time>
</trkpt>
<trkpt lat="50.1064" lon="-122.94844">
<ele>779.1</ele>
<time>2025-03-24T03:52:20-07:00</time>
</trkpt>
<trkpt lat="50.10658" lon="-122.94872">
<ele>781.5</ele>
<time>2025-03-24T03:52:21-07:00</time>
</trkpt>
<trkpt lat="50.1067" lon="-122.9491">
<ele>778.7</ele>
<time>2025-03-24T03:52:22-07:00</time>
</trkpt>
<trkpt lat="50.10678" lon="-122.94924">
<ele>779.7</ele>
<time>2025-03-24T03:52:23-07:00</time>
</trkpt>
<trkpt lat="50.10681" lon="-122.94937">
<ele>779.7</ele>
<time>2025-03-24T03:52:24-07:00</time>
</trkpt>
<trkpt lat="50.10691" lon="-122.94957">
<ele>778.5</ele>
<time>2025-03-24T03:52:25-07:00</time>
</trkpt>
<trkpt lat="50.10709" lon="-122.94983">
<ele>774</ele>
<time>2025-03-24T03:52:26-07:00</time>
</trkpt>
<trkpt lat="50.10727" lon="-122.95043">
<ele>769</ele>
<time>2025-03-24T03:52:27-07:00</time>
</trkpt>
<trkpt lat="50.10771" lon="-122.95143">
<ele>766.9</ele>
<time>2025-03-24T03:52:28-07:00</time>
</trkpt>
<trkpt lat="50.10804" lon="-122.952">
<ele>761</ele>
<time>2025-03-24T03:52:29-07:00</time>
</trkpt>
<trkpt lat="50.10833" lon="-122.95242">
<ele>758.2</ele>
<time>2025-03-24T03:52:30-07:00</time>
</trkpt>
<trkpt lat="50.10865" lon="-122.95261">
<ele>753.6</ele>
<time>2025-03-24T03:52:31-07:00</time>
</trkpt>
</trkseg>
</trk>
</gpx>
