<?xml version="1.0" encoding="UTF-8" standalone="no"?>
<gpx version="1.1" creator="Trailforks.com" xmlns="http://www.topografix.com/GPX/1/1" xmlns:xsi="http://www.w3.org/2001/XMLSchema-instance" xsi:schemaLocation="http://www.topografix.com/GPX/1/1 http://www.topografix.com/GPX/1/1/gpx.xsd">
<metadata>
<name>Top of the World Trailforks Trail</name>
<link href="https://www.trailforks.com/">
<text>Trailforks</text>
</link>
</metadata>
<trk>
<name>
Top of the World
</name>
<trkseg>
<trkpt lat="50.05664" lon="-122.9554">
<ele>2132.6</ele>
<time>2025-03-24T04:07:33-07:00</time>
</trkpt>
<trkpt lat="50.05649" lon="-122.95546">
<ele>2132.6</ele>
<time>2025-03-24T04:07:34-07:00</time>
</trkpt>
<trkpt lat="50.05645" lon="-122.95548">
<ele>2132.6</ele>
<time>2025-03-24T04:07:35-07:00</time>
</trkpt>
<trkpt lat="50.05643" lon="-122.95554">
<ele>2132.6</ele>
<time>2025-03-24T04:07:36-07:00</time>
</trkpt>
<trkpt lat="50.05643" lon="-122.9556">
<ele>2121.7</ele>
<time>2025-03-24T04:07:37-07:00</time>
</trkpt>
<trkpt lat="50.05646" lon="-122.95566">
<ele>2121.7</ele>
<time>2025-03-24T04:07:38-07:00</time>
</trkpt>
<trkpt lat="50.0565" lon="-122.9557">
<ele>2121.7</ele>
<time>2025-03-24T04:07:39-07:00</time>
</trkpt>
<trkpt lat="50.0566" lon="-122.95575">
<ele>2121.7</ele>
<time>2025-03-24T04:07:40-07:00</time>
</trkpt>
<trkpt lat="50.05665" lon="-122.95581">
<ele>2121.7</ele>
<time>2025-03-24T04:07:41-07:00</time>
</trkpt>
<trkpt lat="50.05668" lon="-122.95589">
<ele>2120.7</ele>
<time>2025-03-24T04:07:42-07:00</time>
</trkpt>
<trkpt lat="50.05674" lon="-122.95594">
<ele>2120.7</ele>
<time>2025-03-24T04:07:43-07:00</time>
</trkpt>
<trkpt lat="50.0568" lon="-122.95603">
<ele>2120.7</ele>
<time>2025-03-24T04:07:44-07:00</time>
</trkpt>
<trkpt lat="50.05682" lon="-122.95613">
<ele>2110.5</ele>
<time>2025-03-24T04:07:45-07:00</time>
</trkpt>
<trkpt lat="50.05682" lon="-122.95621">
<ele>2110.5</ele>
<time>2025-03-24T04:07:46-07:00</time>
</trkpt>
<trkpt lat="50.05679" lon="-122.95635">
<ele>2110.5</ele>
<time>2025-03-24T04:07:47-07:00</time>
</trkpt>
<trkpt lat="50.05677" lon="-122.95641">
<ele>2104.3</ele>
<time>2025-03-24T04:07:48-07:00</time>
</trkpt>
<trkpt lat="50.05672" lon="-122.95645">
<ele>2104.3</ele>
<time>2025-03-24T04:07:49-07:00</time>
</trkpt>
<trkpt lat="50.05666" lon="-122.95647">
<ele>2094.8</ele>
<time>2025-03-24T04:07:50-07:00</time>
</trkpt>
<trkpt lat="50.05661" lon="-122.95649">
<ele>2094.8</ele>
<time>2025-03-24T04:07:51-07:00</time>
</trkpt>
<trkpt lat="50.05655" lon="-122.95653">
<ele>2094.8</ele>
<time>2025-03-24T04:07:52-07:00</time>
</trkpt>
<trkpt lat="50.05651" lon="-122.95657">
<ele>2094.8</ele>
<time>2025-03-24T04:07:53-07:00</time>
</trkpt>
<trkpt lat="50.05651" lon="-122.95664">
<ele>2094.8</ele>
<time>2025-03-24T04:07:54-07:00</time>
</trkpt>
<trkpt lat="50.05654" lon="-122.95668">
<ele>2088.6</ele>
<time>2025-03-24T04:07:55-07:00</time>
</trkpt>
<trkpt lat="50.05659" lon="-122.95669">
<ele>2088.6</ele>
<time>2025-03-24T04:07:56-07:00</time>
</trkpt>
<trkpt lat="50.05664" lon="-122.95674">
<ele>2088.6</ele>
<time>2025-03-24T04:07:57-07:00</time>
</trkpt>
<trkpt lat="50.05662" lon="-122.95678">
<ele>2088.6</ele>
<time>2025-03-24T04:07:58-07:00</time>
</trkpt>
<trkpt lat="50.05657" lon="-122.95682">
<ele>2088.6</ele>
<time>2025-03-24T04:07:59-07:00</time>
</trkpt>
<trkpt lat="50.05652" lon="-122.95683">
<ele>2088.6</ele>
<time>2025-03-24T04:08:00-07:00</time>
</trkpt>
<trkpt lat="50.05647" lon="-122.95683">
<ele>2088.6</ele>
<time>2025-03-24T04:08:01-07:00</time>
</trkpt>
<trkpt lat="50.05638" lon="-122.9568">
<ele>2077.8</ele>
<time>2025-03-24T04:08:02-07:00</time>
</trkpt>
<trkpt lat="50.05635" lon="-122.95683">
<ele>2077.8</ele>
<time>2025-03-24T04:08:03-07:00</time>
</trkpt>
<trkpt lat="50.05636" lon="-122.9569">
<ele>2077.8</ele>
<time>2025-03-24T04:08:04-07:00</time>
</trkpt>
<trkpt lat="50.05641" lon="-122.95692">
<ele>2088.6</ele>
<time>2025-03-24T04:08:05-07:00</time>
</trkpt>
<trkpt lat="50.05646" lon="-122.95694">
<ele>2088.6</ele>
<time>2025-03-24T04:08:06-07:00</time>
</trkpt>
<trkpt lat="50.05662" lon="-122.95704">
<ele>2081.8</ele>
<time>2025-03-24T04:08:07-07:00</time>
</trkpt>
<trkpt lat="50.05668" lon="-122.95708">
<ele>2092.7</ele>
<time>2025-03-24T04:08:08-07:00</time>
</trkpt>
<trkpt lat="50.05672" lon="-122.95713">
<ele>2092.7</ele>
<time>2025-03-24T04:08:09-07:00</time>
</trkpt>
<trkpt lat="50.05675" lon="-122.95733">
<ele>2088.1</ele>
<time>2025-03-24T04:08:10-07:00</time>
</trkpt>
<trkpt lat="50.05675" lon="-122.95745">
<ele>2088.1</ele>
<time>2025-03-24T04:08:11-07:00</time>
</trkpt>
<trkpt lat="50.05671" lon="-122.95759">
<ele>2087.7</ele>
<time>2025-03-24T04:08:12-07:00</time>
</trkpt>
<trkpt lat="50.05667" lon="-122.95774">
<ele>2087.7</ele>
<time>2025-03-24T04:08:13-07:00</time>
</trkpt>
<trkpt lat="50.05662" lon="-122.95782">
<ele>2076.1</ele>
<time>2025-03-24T04:08:14-07:00</time>
</trkpt>
<trkpt lat="50.0566" lon="-122.95791">
<ele>2076.1</ele>
<time>2025-03-24T04:08:15-07:00</time>
</trkpt>
<trkpt lat="50.05657" lon="-122.958">
<ele>2076.1</ele>
<time>2025-03-24T04:08:16-07:00</time>
</trkpt>
<trkpt lat="50.05654" lon="-122.95801">
<ele>2076.1</ele>
<time>2025-03-24T04:08:17-07:00</time>
</trkpt>
<trkpt lat="50.05651" lon="-122.95804">
<ele>2076.1</ele>
<time>2025-03-24T04:08:18-07:00</time>
</trkpt>
<trkpt lat="50.05649" lon="-122.9581">
<ele>2076.1</ele>
<time>2025-03-24T04:08:19-07:00</time>
</trkpt>
<trkpt lat="50.05649" lon="-122.95825">
<ele>2076.1</ele>
<time>2025-03-24T04:08:20-07:00</time>
</trkpt>
<trkpt lat="50.05648" lon="-122.95833">
<ele>2076.1</ele>
<time>2025-03-24T04:08:21-07:00</time>
</trkpt>
<trkpt lat="50.05645" lon="-122.95843">
<ele>2074.5</ele>
<time>2025-03-24T04:08:22-07:00</time>
</trkpt>
<trkpt lat="50.05637" lon="-122.95858">
<ele>2062.7</ele>
<time>2025-03-24T04:08:23-07:00</time>
</trkpt>
<trkpt lat="50.05635" lon="-122.95863">
<ele>2060</ele>
<time>2025-03-24T04:08:24-07:00</time>
</trkpt>
<trkpt lat="50.0563" lon="-122.95863">
<ele>2060</ele>
<time>2025-03-24T04:08:25-07:00</time>
</trkpt>
<trkpt lat="50.05627" lon="-122.95859">
<ele>2062.7</ele>
<time>2025-03-24T04:08:26-07:00</time>
</trkpt>
<trkpt lat="50.05625" lon="-122.95853">
<ele>2062.7</ele>
<time>2025-03-24T04:08:27-07:00</time>
</trkpt>
<trkpt lat="50.05626" lon="-122.95839">
<ele>2062.7</ele>
<time>2025-03-24T04:08:28-07:00</time>
</trkpt>
<trkpt lat="50.05626" lon="-122.95832">
<ele>2064.8</ele>
<time>2025-03-24T04:08:29-07:00</time>
</trkpt>
<trkpt lat="50.05624" lon="-122.95825">
<ele>2064.8</ele>
<time>2025-03-24T04:08:30-07:00</time>
</trkpt>
<trkpt lat="50.05621" lon="-122.95819">
<ele>2064.8</ele>
<time>2025-03-24T04:08:31-07:00</time>
</trkpt>
<trkpt lat="50.05617" lon="-122.95819">
<ele>2064.8</ele>
<time>2025-03-24T04:08:32-07:00</time>
</trkpt>
<trkpt lat="50.05614" lon="-122.95823">
<ele>2064.8</ele>
<time>2025-03-24T04:08:33-07:00</time>
</trkpt>
<trkpt lat="50.05612" lon="-122.95831">
<ele>2064.8</ele>
<time>2025-03-24T04:08:34-07:00</time>
</trkpt>
<trkpt lat="50.05613" lon="-122.95854">
<ele>2062.7</ele>
<time>2025-03-24T04:08:35-07:00</time>
</trkpt>
<trkpt lat="50.05613" lon="-122.95859">
<ele>2062.7</ele>
<time>2025-03-24T04:08:36-07:00</time>
</trkpt>
<trkpt lat="50.0561" lon="-122.9586">
<ele>2048.5</ele>
<time>2025-03-24T04:08:37-07:00</time>
</trkpt>
<trkpt lat="50.05606" lon="-122.95856">
<ele>2048.5</ele>
<time>2025-03-24T04:08:38-07:00</time>
</trkpt>
<trkpt lat="50.05603" lon="-122.95851">
<ele>2048.5</ele>
<time>2025-03-24T04:08:39-07:00</time>
</trkpt>
<trkpt lat="50.05602" lon="-122.95844">
<ele>2048.5</ele>
<time>2025-03-24T04:08:40-07:00</time>
</trkpt>
<trkpt lat="50.056" lon="-122.95841">
<ele>2048.5</ele>
<time>2025-03-24T04:08:41-07:00</time>
</trkpt>
<trkpt lat="50.05597" lon="-122.95842">
<ele>2048.5</ele>
<time>2025-03-24T04:08:42-07:00</time>
</trkpt>
<trkpt lat="50.05594" lon="-122.95846">
<ele>2048.5</ele>
<time>2025-03-24T04:08:43-07:00</time>
</trkpt>
<trkpt lat="50.05593" lon="-122.95852">
<ele>2048.5</ele>
<time>2025-03-24T04:08:44-07:00</time>
</trkpt>
<trkpt lat="50.05595" lon="-122.95859">
<ele>2048.5</ele>
<time>2025-03-24T04:08:45-07:00</time>
</trkpt>
<trkpt lat="50.05597" lon="-122.95868">
<ele>2045.9</ele>
<time>2025-03-24T04:08:46-07:00</time>
</trkpt>
<trkpt lat="50.05592" lon="-122.95929">
<ele>2039.8</ele>
<time>2025-03-24T04:08:47-07:00</time>
</trkpt>
<trkpt lat="50.05592" lon="-122.95948">
<ele>2037</ele>
<time>2025-03-24T04:08:48-07:00</time>
</trkpt>
<trkpt lat="50.05591" lon="-122.95951">
<ele>2037</ele>
<time>2025-03-24T04:08:49-07:00</time>
</trkpt>
<trkpt lat="50.05589" lon="-122.95948">
<ele>2037</ele>
<time>2025-03-24T04:08:50-07:00</time>
</trkpt>
<trkpt lat="50.05587" lon="-122.95941">
<ele>2039.8</ele>
<time>2025-03-24T04:08:51-07:00</time>
</trkpt>
<trkpt lat="50.05584" lon="-122.9594">
<ele>2039.8</ele>
<time>2025-03-24T04:08:52-07:00</time>
</trkpt>
<trkpt lat="50.05582" lon="-122.95945">
<ele>2024.2</ele>
<time>2025-03-24T04:08:53-07:00</time>
</trkpt>
<trkpt lat="50.05585" lon="-122.95994">
<ele>2035.4</ele>
<time>2025-03-24T04:08:54-07:00</time>
</trkpt>
<trkpt lat="50.05586" lon="-122.96002">
<ele>2033.8</ele>
<time>2025-03-24T04:08:55-07:00</time>
</trkpt>
<trkpt lat="50.05583" lon="-122.96006">
<ele>2021</ele>
<time>2025-03-24T04:08:56-07:00</time>
</trkpt>
<trkpt lat="50.0558" lon="-122.96">
<ele>2022.6</ele>
<time>2025-03-24T04:08:57-07:00</time>
</trkpt>
<trkpt lat="50.05575" lon="-122.95992">
<ele>2022.6</ele>
<time>2025-03-24T04:08:58-07:00</time>
</trkpt>
<trkpt lat="50.05569" lon="-122.95967">
<ele>2024.2</ele>
<time>2025-03-24T04:08:59-07:00</time>
</trkpt>
<trkpt lat="50.05565" lon="-122.95954">
<ele>2024.2</ele>
<time>2025-03-24T04:09:00-07:00</time>
</trkpt>
<trkpt lat="50.05563" lon="-122.95933">
<ele>2025.9</ele>
<time>2025-03-24T04:09:01-07:00</time>
</trkpt>
<trkpt lat="50.05562" lon="-122.95924">
<ele>2025.9</ele>
<time>2025-03-24T04:09:02-07:00</time>
</trkpt>
<trkpt lat="50.05555" lon="-122.95909">
<ele>2014.6</ele>
<time>2025-03-24T04:09:03-07:00</time>
</trkpt>
<trkpt lat="50.0555" lon="-122.959">
<ele>2014.6</ele>
<time>2025-03-24T04:09:04-07:00</time>
</trkpt>
<trkpt lat="50.05547" lon="-122.95889">
<ele>2014.6</ele>
<time>2025-03-24T04:09:05-07:00</time>
</trkpt>
<trkpt lat="50.05544" lon="-122.95878">
<ele>2017</ele>
<time>2025-03-24T04:09:06-07:00</time>
</trkpt>
<trkpt lat="50.05533" lon="-122.95864">
<ele>2017</ele>
<time>2025-03-24T04:09:07-07:00</time>
</trkpt>
<trkpt lat="50.05529" lon="-122.95861">
<ele>2018.4</ele>
<time>2025-03-24T04:09:08-07:00</time>
</trkpt>
<trkpt lat="50.05524" lon="-122.95861">
<ele>2007.6</ele>
<time>2025-03-24T04:09:09-07:00</time>
</trkpt>
<trkpt lat="50.05519" lon="-122.95866">
<ele>2005</ele>
<time>2025-03-24T04:09:10-07:00</time>
</trkpt>
<trkpt lat="50.0551" lon="-122.95869">
<ele>2005</ele>
<time>2025-03-24T04:09:11-07:00</time>
</trkpt>
<trkpt lat="50.05507" lon="-122.95866">
<ele>2005</ele>
<time>2025-03-24T04:09:12-07:00</time>
</trkpt>
<trkpt lat="50.05506" lon="-122.9586">
<ele>2007.6</ele>
<time>2025-03-24T04:09:13-07:00</time>
</trkpt>
<trkpt lat="50.05509" lon="-122.95853">
<ele>2007.6</ele>
<time>2025-03-24T04:09:14-07:00</time>
</trkpt>
<trkpt lat="50.05512" lon="-122.95845">
<ele>2007.6</ele>
<time>2025-03-24T04:09:15-07:00</time>
</trkpt>
<trkpt lat="50.05512" lon="-122.9584">
<ele>2007.6</ele>
<time>2025-03-24T04:09:16-07:00</time>
</trkpt>
<trkpt lat="50.0551" lon="-122.95836">
<ele>2007.6</ele>
<time>2025-03-24T04:09:17-07:00</time>
</trkpt>
<trkpt lat="50.05505" lon="-122.95837">
<ele>2007.6</ele>
<time>2025-03-24T04:09:18-07:00</time>
</trkpt>
<trkpt lat="50.055" lon="-122.95842">
<ele>2007.6</ele>
<time>2025-03-24T04:09:19-07:00</time>
</trkpt>
<trkpt lat="50.05494" lon="-122.95849">
<ele>1997.2</ele>
<time>2025-03-24T04:09:20-07:00</time>
</trkpt>
<trkpt lat="50.05487" lon="-122.95862">
<ele>1994.8</ele>
<time>2025-03-24T04:09:21-07:00</time>
</trkpt>
<trkpt lat="50.05482" lon="-122.95876">
<ele>1994.8</ele>
<time>2025-03-24T04:09:22-07:00</time>
</trkpt>
<trkpt lat="50.0548" lon="-122.95888">
<ele>1994.8</ele>
<time>2025-03-24T04:09:23-07:00</time>
</trkpt>
<trkpt lat="50.05481" lon="-122.959">
<ele>1993.5</ele>
<time>2025-03-24T04:09:24-07:00</time>
</trkpt>
<trkpt lat="50.05483" lon="-122.95911">
<ele>1993.5</ele>
<time>2025-03-24T04:09:25-07:00</time>
</trkpt>
<trkpt lat="50.05488" lon="-122.95922">
<ele>1990.9</ele>
<time>2025-03-24T04:09:26-07:00</time>
</trkpt>
<trkpt lat="50.05492" lon="-122.95934">
<ele>1990.9</ele>
<time>2025-03-24T04:09:27-07:00</time>
</trkpt>
<trkpt lat="50.05501" lon="-122.95951">
<ele>1999.9</ele>
<time>2025-03-24T04:09:28-07:00</time>
</trkpt>
<trkpt lat="50.05503" lon="-122.95958">
<ele>1999.9</ele>
<time>2025-03-24T04:09:29-07:00</time>
</trkpt>
<trkpt lat="50.05502" lon="-122.95985">
<ele>1995.9</ele>
<time>2025-03-24T04:09:30-07:00</time>
</trkpt>
<trkpt lat="50.05502" lon="-122.96">
<ele>1995.9</ele>
<time>2025-03-24T04:09:31-07:00</time>
</trkpt>
<trkpt lat="50.05509" lon="-122.96029">
<ele>1986.6</ele>
<time>2025-03-24T04:09:32-07:00</time>
</trkpt>
<trkpt lat="50.05511" lon="-122.96041">
<ele>1986.6</ele>
<time>2025-03-24T04:09:33-07:00</time>
</trkpt>
<trkpt lat="50.05516" lon="-122.96057">
<ele>1978.8</ele>
<time>2025-03-24T04:09:34-07:00</time>
</trkpt>
<trkpt lat="50.05524" lon="-122.96077">
<ele>1978.8</ele>
<time>2025-03-24T04:09:35-07:00</time>
</trkpt>
<trkpt lat="50.05534" lon="-122.961">
<ele>1986.5</ele>
<time>2025-03-24T04:09:36-07:00</time>
</trkpt>
<trkpt lat="50.05541" lon="-122.96114">
<ele>1977</ele>
<time>2025-03-24T04:09:37-07:00</time>
</trkpt>
<trkpt lat="50.0555" lon="-122.96128">
<ele>1977</ele>
<time>2025-03-24T04:09:38-07:00</time>
</trkpt>
<trkpt lat="50.0556" lon="-122.96146">
<ele>1981</ele>
<time>2025-03-24T04:09:39-07:00</time>
</trkpt>
<trkpt lat="50.05579" lon="-122.96162">
<ele>1981</ele>
<time>2025-03-24T04:09:40-07:00</time>
</trkpt>
<trkpt lat="50.0559" lon="-122.96172">
<ele>1984.6</ele>
<time>2025-03-24T04:09:41-07:00</time>
</trkpt>
<trkpt lat="50.056" lon="-122.96184">
<ele>1984.6</ele>
<time>2025-03-24T04:09:42-07:00</time>
</trkpt>
<trkpt lat="50.05606" lon="-122.96191">
<ele>1984.6</ele>
<time>2025-03-24T04:09:43-07:00</time>
</trkpt>
<trkpt lat="50.0561" lon="-122.96203">
<ele>1977.8</ele>
<time>2025-03-24T04:09:44-07:00</time>
</trkpt>
<trkpt lat="50.05619" lon="-122.96227">
<ele>1981.9</ele>
<time>2025-03-24T04:09:45-07:00</time>
</trkpt>
<trkpt lat="50.05628" lon="-122.96244">
<ele>1981.9</ele>
<time>2025-03-24T04:09:46-07:00</time>
</trkpt>
<trkpt lat="50.05638" lon="-122.96262">
<ele>1973.4</ele>
<time>2025-03-24T04:09:47-07:00</time>
</trkpt>
<trkpt lat="50.05649" lon="-122.96275">
<ele>1987</ele>
<time>2025-03-24T04:09:48-07:00</time>
</trkpt>
<trkpt lat="50.05661" lon="-122.96289">
<ele>1980.4</ele>
<time>2025-03-24T04:09:49-07:00</time>
</trkpt>
<trkpt lat="50.05689" lon="-122.96348">
<ele>1979.7</ele>
<time>2025-03-24T04:09:50-07:00</time>
</trkpt>
<trkpt lat="50.05697" lon="-122.96364">
<ele>1984</ele>
<time>2025-03-24T04:09:51-07:00</time>
</trkpt>
<trkpt lat="50.057" lon="-122.96375">
<ele>1984</ele>
<time>2025-03-24T04:09:52-07:00</time>
</trkpt>
<trkpt lat="50.05701" lon="-122.96392">
<ele>1977.2</ele>
<time>2025-03-24T04:09:53-07:00</time>
</trkpt>
<trkpt lat="50.05704" lon="-122.96403">
<ele>1977.2</ele>
<time>2025-03-24T04:09:54-07:00</time>
</trkpt>
<trkpt lat="50.05713" lon="-122.96426">
<ele>1970.8</ele>
<time>2025-03-24T04:09:55-07:00</time>
</trkpt>
<trkpt lat="50.05724" lon="-122.96446">
<ele>1980.3</ele>
<time>2025-03-24T04:09:56-07:00</time>
</trkpt>
<trkpt lat="50.05731" lon="-122.96474">
<ele>1975.5</ele>
<time>2025-03-24T04:09:57-07:00</time>
</trkpt>
<trkpt lat="50.05737" lon="-122.96493">
<ele>1975.5</ele>
<time>2025-03-24T04:09:58-07:00</time>
</trkpt>
<trkpt lat="50.05745" lon="-122.96537">
<ele>1971.6</ele>
<time>2025-03-24T04:09:59-07:00</time>
</trkpt>
<trkpt lat="50.05745" lon="-122.96548">
<ele>1971.6</ele>
<time>2025-03-24T04:10:00-07:00</time>
</trkpt>
<trkpt lat="50.0574" lon="-122.96565">
<ele>1967</ele>
<time>2025-03-24T04:10:01-07:00</time>
</trkpt>
<trkpt lat="50.05728" lon="-122.96581">
<ele>1967</ele>
<time>2025-03-24T04:10:02-07:00</time>
</trkpt>
<trkpt lat="50.05719" lon="-122.96593">
<ele>1956.7</ele>
<time>2025-03-24T04:10:03-07:00</time>
</trkpt>
<trkpt lat="50.05703" lon="-122.96623">
<ele>1957</ele>
<time>2025-03-24T04:10:04-07:00</time>
</trkpt>
<trkpt lat="50.057" lon="-122.96633">
<ele>1957</ele>
<time>2025-03-24T04:10:05-07:00</time>
</trkpt>
<trkpt lat="50.05694" lon="-122.96668">
<ele>1949</ele>
<time>2025-03-24T04:10:06-07:00</time>
</trkpt>
<trkpt lat="50.05694" lon="-122.96677">
<ele>1949</ele>
<time>2025-03-24T04:10:07-07:00</time>
</trkpt>
<trkpt lat="50.05696" lon="-122.96683">
<ele>1958.6</ele>
<time>2025-03-24T04:10:08-07:00</time>
</trkpt>
<trkpt lat="50.057" lon="-122.96687">
<ele>1958.6</ele>
<time>2025-03-24T04:10:09-07:00</time>
</trkpt>
<trkpt lat="50.05702" lon="-122.96691">
<ele>1958.6</ele>
<time>2025-03-24T04:10:10-07:00</time>
</trkpt>
<trkpt lat="50.05701" lon="-122.96713">
<ele>1955</ele>
<time>2025-03-24T04:10:11-07:00</time>
</trkpt>
<trkpt lat="50.05703" lon="-122.9672">
<ele>1955</ele>
<time>2025-03-24T04:10:12-07:00</time>
</trkpt>
<trkpt lat="50.05706" lon="-122.96725">
<ele>1949.6</ele>
<time>2025-03-24T04:10:13-07:00</time>
</trkpt>
<trkpt lat="50.05718" lon="-122.96729">
<ele>1949.6</ele>
<time>2025-03-24T04:10:14-07:00</time>
</trkpt>
<trkpt lat="50.05721" lon="-122.96731">
<ele>1949.6</ele>
<time>2025-03-24T04:10:15-07:00</time>
</trkpt>
<trkpt lat="50.05725" lon="-122.9673">
<ele>1953.2</ele>
<time>2025-03-24T04:10:16-07:00</time>
</trkpt>
<trkpt lat="50.05729" lon="-122.96729">
<ele>1953.2</ele>
<time>2025-03-24T04:10:17-07:00</time>
</trkpt>
<trkpt lat="50.05733" lon="-122.9673">
<ele>1953.2</ele>
<time>2025-03-24T04:10:18-07:00</time>
</trkpt>
<trkpt lat="50.05737" lon="-122.96733">
<ele>1953.2</ele>
<time>2025-03-24T04:10:19-07:00</time>
</trkpt>
<trkpt lat="50.0574" lon="-122.96739">
<ele>1953.2</ele>
<time>2025-03-24T04:10:20-07:00</time>
</trkpt>
<trkpt lat="50.05742" lon="-122.96744">
<ele>1953.2</ele>
<time>2025-03-24T04:10:21-07:00</time>
</trkpt>
<trkpt lat="50.05741" lon="-122.96766">
<ele>1948.3</ele>
<time>2025-03-24T04:10:22-07:00</time>
</trkpt>
<trkpt lat="50.05739" lon="-122.96772">
<ele>1948.3</ele>
<time>2025-03-24T04:10:23-07:00</time>
</trkpt>
<trkpt lat="50.05741" lon="-122.96778">
<ele>1943.5</ele>
<time>2025-03-24T04:10:24-07:00</time>
</trkpt>
<trkpt lat="50.05745" lon="-122.96784">
<ele>1943.5</ele>
<time>2025-03-24T04:10:25-07:00</time>
</trkpt>
<trkpt lat="50.0575" lon="-122.968">
<ele>1947.7</ele>
<time>2025-03-24T04:10:26-07:00</time>
</trkpt>
<trkpt lat="50.05752" lon="-122.96805">
<ele>1947.7</ele>
<time>2025-03-24T04:10:27-07:00</time>
</trkpt>
<trkpt lat="50.05763" lon="-122.96812">
<ele>1939.6</ele>
<time>2025-03-24T04:10:28-07:00</time>
</trkpt>
<trkpt lat="50.05769" lon="-122.96819">
<ele>1939.6</ele>
<time>2025-03-24T04:10:29-07:00</time>
</trkpt>
<trkpt lat="50.05796" lon="-122.9683">
<ele>1938.9</ele>
<time>2025-03-24T04:10:30-07:00</time>
</trkpt>
<trkpt lat="50.05805" lon="-122.96833">
<ele>1938.9</ele>
<time>2025-03-24T04:10:31-07:00</time>
</trkpt>
<trkpt lat="50.05816" lon="-122.96834">
<ele>1930.5</ele>
<time>2025-03-24T04:10:32-07:00</time>
</trkpt>
<trkpt lat="50.05826" lon="-122.96833">
<ele>1937.5</ele>
<time>2025-03-24T04:10:33-07:00</time>
</trkpt>
<trkpt lat="50.0584" lon="-122.96841">
<ele>1928.6</ele>
<time>2025-03-24T04:10:34-07:00</time>
</trkpt>
<trkpt lat="50.05849" lon="-122.96843">
<ele>1928.6</ele>
<time>2025-03-24T04:10:35-07:00</time>
</trkpt>
<trkpt lat="50.05856" lon="-122.96848">
<ele>1928.6</ele>
<time>2025-03-24T04:10:36-07:00</time>
</trkpt>
<trkpt lat="50.05863" lon="-122.96852">
<ele>1928.1</ele>
<time>2025-03-24T04:10:37-07:00</time>
</trkpt>
<trkpt lat="50.05877" lon="-122.96849">
<ele>1928.1</ele>
<time>2025-03-24T04:10:38-07:00</time>
</trkpt>
<trkpt lat="50.05882" lon="-122.96848">
<ele>1928.1</ele>
<time>2025-03-24T04:10:39-07:00</time>
</trkpt>
<trkpt lat="50.0589" lon="-122.96851">
<ele>1925.8</ele>
<time>2025-03-24T04:10:40-07:00</time>
</trkpt>
<trkpt lat="50.05898" lon="-122.96854">
<ele>1925.8</ele>
<time>2025-03-24T04:10:41-07:00</time>
</trkpt>
<trkpt lat="50.05903" lon="-122.96853">
<ele>1925.8</ele>
<time>2025-03-24T04:10:42-07:00</time>
</trkpt>
<trkpt lat="50.05907" lon="-122.96855">
<ele>1925.8</ele>
<time>2025-03-24T04:10:43-07:00</time>
</trkpt>
<trkpt lat="50.05908" lon="-122.96861">
<ele>1925.8</ele>
<time>2025-03-24T04:10:44-07:00</time>
</trkpt>
<trkpt lat="50.05906" lon="-122.96868">
<ele>1917.1</ele>
<time>2025-03-24T04:10:45-07:00</time>
</trkpt>
<trkpt lat="50.05902" lon="-122.96873">
<ele>1917.1</ele>
<time>2025-03-24T04:10:46-07:00</time>
</trkpt>
<trkpt lat="50.05897" lon="-122.96877">
<ele>1917.1</ele>
<time>2025-03-24T04:10:47-07:00</time>
</trkpt>
<trkpt lat="50.05886" lon="-122.96881">
<ele>1920</ele>
<time>2025-03-24T04:10:48-07:00</time>
</trkpt>
<trkpt lat="50.0588" lon="-122.96885">
<ele>1920</ele>
<time>2025-03-24T04:10:49-07:00</time>
</trkpt>
<trkpt lat="50.05869" lon="-122.96897">
<ele>1911.3</ele>
<time>2025-03-24T04:10:50-07:00</time>
</trkpt>
<trkpt lat="50.05863" lon="-122.96901">
<ele>1911.3</ele>
<time>2025-03-24T04:10:51-07:00</time>
</trkpt>
<trkpt lat="50.05846" lon="-122.96907">
<ele>1913.3</ele>
<time>2025-03-24T04:10:52-07:00</time>
</trkpt>
<trkpt lat="50.0584" lon="-122.9691">
<ele>1913.3</ele>
<time>2025-03-24T04:10:53-07:00</time>
</trkpt>
<trkpt lat="50.05837" lon="-122.96914">
<ele>1913.3</ele>
<time>2025-03-24T04:10:54-07:00</time>
</trkpt>
<trkpt lat="50.05832" lon="-122.96922">
<ele>1906.9</ele>
<time>2025-03-24T04:10:55-07:00</time>
</trkpt>
<trkpt lat="50.05833" lon="-122.96934">
<ele>1906.9</ele>
<time>2025-03-24T04:10:56-07:00</time>
</trkpt>
<trkpt lat="50.05831" lon="-122.96951">
<ele>1898.5</ele>
<time>2025-03-24T04:10:57-07:00</time>
</trkpt>
<trkpt lat="50.05825" lon="-122.96964">
<ele>1898.5</ele>
<time>2025-03-24T04:10:58-07:00</time>
</trkpt>
<trkpt lat="50.05817" lon="-122.96972">
<ele>1898.5</ele>
<time>2025-03-24T04:10:59-07:00</time>
</trkpt>
<trkpt lat="50.05811" lon="-122.96982">
<ele>1889.5</ele>
<time>2025-03-24T04:11:00-07:00</time>
</trkpt>
<trkpt lat="50.05803" lon="-122.96987">
<ele>1891.4</ele>
<time>2025-03-24T04:11:01-07:00</time>
</trkpt>
<trkpt lat="50.05792" lon="-122.96989">
<ele>1891.4</ele>
<time>2025-03-24T04:11:02-07:00</time>
</trkpt>
<trkpt lat="50.05778" lon="-122.96982">
<ele>1891.4</ele>
<time>2025-03-24T04:11:03-07:00</time>
</trkpt>
<trkpt lat="50.05763" lon="-122.96978">
<ele>1893</ele>
<time>2025-03-24T04:11:04-07:00</time>
</trkpt>
<trkpt lat="50.05746" lon="-122.96978">
<ele>1892.6</ele>
<time>2025-03-24T04:11:05-07:00</time>
</trkpt>
<trkpt lat="50.05735" lon="-122.9698">
<ele>1892.6</ele>
<time>2025-03-24T04:11:06-07:00</time>
</trkpt>
<trkpt lat="50.05724" lon="-122.96978">
<ele>1892.6</ele>
<time>2025-03-24T04:11:07-07:00</time>
</trkpt>
<trkpt lat="50.05714" lon="-122.96977">
<ele>1888.9</ele>
<time>2025-03-24T04:11:08-07:00</time>
</trkpt>
<trkpt lat="50.0569" lon="-122.9697">
<ele>1891.4</ele>
<time>2025-03-24T04:11:09-07:00</time>
</trkpt>
<trkpt lat="50.05686" lon="-122.96974">
<ele>1884.9</ele>
<time>2025-03-24T04:11:10-07:00</time>
</trkpt>
<trkpt lat="50.05681" lon="-122.96982">
<ele>1884.9</ele>
<time>2025-03-24T04:11:11-07:00</time>
</trkpt>
<trkpt lat="50.05684" lon="-122.96991">
<ele>1884.9</ele>
<time>2025-03-24T04:11:12-07:00</time>
</trkpt>
<trkpt lat="50.05685" lon="-122.97001">
<ele>1883.3</ele>
<time>2025-03-24T04:11:13-07:00</time>
</trkpt>
<trkpt lat="50.05683" lon="-122.97009">
<ele>1883.3</ele>
<time>2025-03-24T04:11:14-07:00</time>
</trkpt>
<trkpt lat="50.0568" lon="-122.97014">
<ele>1883.3</ele>
<time>2025-03-24T04:11:15-07:00</time>
</trkpt>
<trkpt lat="50.05675" lon="-122.97014">
<ele>1883.3</ele>
<time>2025-03-24T04:11:16-07:00</time>
</trkpt>
<trkpt lat="50.05669" lon="-122.9701">
<ele>1883.3</ele>
<time>2025-03-24T04:11:17-07:00</time>
</trkpt>
<trkpt lat="50.05665" lon="-122.97013">
<ele>1874.2</ele>
<time>2025-03-24T04:11:18-07:00</time>
</trkpt>
<trkpt lat="50.05661" lon="-122.97019">
<ele>1874.2</ele>
<time>2025-03-24T04:11:19-07:00</time>
</trkpt>
<trkpt lat="50.05662" lon="-122.97037">
<ele>1871.3</ele>
<time>2025-03-24T04:11:20-07:00</time>
</trkpt>
<trkpt lat="50.05657" lon="-122.97055">
<ele>1871.3</ele>
<time>2025-03-24T04:11:21-07:00</time>
</trkpt>
<trkpt lat="50.05656" lon="-122.97064">
<ele>1869.6</ele>
<time>2025-03-24T04:11:22-07:00</time>
</trkpt>
<trkpt lat="50.05666" lon="-122.97118">
<ele>1866.8</ele>
<time>2025-03-24T04:11:23-07:00</time>
</trkpt>
<trkpt lat="50.05669" lon="-122.97147">
<ele>1871.1</ele>
<time>2025-03-24T04:11:24-07:00</time>
</trkpt>
<trkpt lat="50.05668" lon="-122.9716">
<ele>1871.1</ele>
<time>2025-03-24T04:11:25-07:00</time>
</trkpt>
<trkpt lat="50.05663" lon="-122.97171">
<ele>1864.7</ele>
<time>2025-03-24T04:11:26-07:00</time>
</trkpt>
<trkpt lat="50.05659" lon="-122.97193">
<ele>1864.7</ele>
<time>2025-03-24T04:11:27-07:00</time>
</trkpt>
<trkpt lat="50.05653" lon="-122.9721">
<ele>1860.8</ele>
<time>2025-03-24T04:11:28-07:00</time>
</trkpt>
<trkpt lat="50.05646" lon="-122.97243">
<ele>1858.3</ele>
<time>2025-03-24T04:11:29-07:00</time>
</trkpt>
<trkpt lat="50.05645" lon="-122.97258">
<ele>1854.4</ele>
<time>2025-03-24T04:11:30-07:00</time>
</trkpt>
<trkpt lat="50.05648" lon="-122.97264">
<ele>1854.4</ele>
<time>2025-03-24T04:11:31-07:00</time>
</trkpt>
<trkpt lat="50.05648" lon="-122.97271">
<ele>1854.4</ele>
<time>2025-03-24T04:11:32-07:00</time>
</trkpt>
<trkpt lat="50.05645" lon="-122.97272">
<ele>1854.4</ele>
<time>2025-03-24T04:11:33-07:00</time>
</trkpt>
<trkpt lat="50.05641" lon="-122.97272">
<ele>1854.4</ele>
<time>2025-03-24T04:11:34-07:00</time>
</trkpt>
<trkpt lat="50.05636" lon="-122.97263">
<ele>1846.4</ele>
<time>2025-03-24T04:11:35-07:00</time>
</trkpt>
<trkpt lat="50.05632" lon="-122.97262">
<ele>1846.4</ele>
<time>2025-03-24T04:11:36-07:00</time>
</trkpt>
<trkpt lat="50.05629" lon="-122.97267">
<ele>1846.4</ele>
<time>2025-03-24T04:11:37-07:00</time>
</trkpt>
<trkpt lat="50.05629" lon="-122.97288">
<ele>1844</ele>
<time>2025-03-24T04:11:38-07:00</time>
</trkpt>
<trkpt lat="50.05627" lon="-122.9731">
<ele>1839.1</ele>
<time>2025-03-24T04:11:39-07:00</time>
</trkpt>
<trkpt lat="50.05629" lon="-122.97329">
<ele>1839.1</ele>
<time>2025-03-24T04:11:40-07:00</time>
</trkpt>
<trkpt lat="50.0563" lon="-122.97342">
<ele>1837.4</ele>
<time>2025-03-24T04:11:41-07:00</time>
</trkpt>
<trkpt lat="50.05628" lon="-122.97363">
<ele>1835</ele>
<time>2025-03-24T04:11:42-07:00</time>
</trkpt>
<trkpt lat="50.05629" lon="-122.97372">
<ele>1835</ele>
<time>2025-03-24T04:11:43-07:00</time>
</trkpt>
<trkpt lat="50.05636" lon="-122.97379">
<ele>1835</ele>
<time>2025-03-24T04:11:44-07:00</time>
</trkpt>
<trkpt lat="50.05642" lon="-122.9739">
<ele>1832.4</ele>
<time>2025-03-24T04:11:45-07:00</time>
</trkpt>
<trkpt lat="50.05657" lon="-122.97401">
<ele>1832.4</ele>
<time>2025-03-24T04:11:46-07:00</time>
</trkpt>
<trkpt lat="50.05673" lon="-122.97419">
<ele>1830.5</ele>
<time>2025-03-24T04:11:47-07:00</time>
</trkpt>
<trkpt lat="50.05685" lon="-122.97429">
<ele>1830.5</ele>
<time>2025-03-24T04:11:48-07:00</time>
</trkpt>
<trkpt lat="50.0569" lon="-122.97439">
<ele>1830.5</ele>
<time>2025-03-24T04:11:49-07:00</time>
</trkpt>
<trkpt lat="50.05696" lon="-122.97458">
<ele>1827</ele>
<time>2025-03-24T04:11:50-07:00</time>
</trkpt>
<trkpt lat="50.05706" lon="-122.97473">
<ele>1825.6</ele>
<time>2025-03-24T04:11:51-07:00</time>
</trkpt>
<trkpt lat="50.05714" lon="-122.97487">
<ele>1825.6</ele>
<time>2025-03-24T04:11:52-07:00</time>
</trkpt>
<trkpt lat="50.0572" lon="-122.97502">
<ele>1824.2</ele>
<time>2025-03-24T04:11:53-07:00</time>
</trkpt>
<trkpt lat="50.05728" lon="-122.97515">
<ele>1820.7</ele>
<time>2025-03-24T04:11:54-07:00</time>
</trkpt>
<trkpt lat="50.05736" lon="-122.97523">
<ele>1820.7</ele>
<time>2025-03-24T04:11:55-07:00</time>
</trkpt>
<trkpt lat="50.05747" lon="-122.97531">
<ele>1822</ele>
<time>2025-03-24T04:11:56-07:00</time>
</trkpt>
<trkpt lat="50.05765" lon="-122.97539">
<ele>1818.1</ele>
<time>2025-03-24T04:11:57-07:00</time>
</trkpt>
<trkpt lat="50.05772" lon="-122.97542">
<ele>1818.1</ele>
<time>2025-03-24T04:11:58-07:00</time>
</trkpt>
<trkpt lat="50.05781" lon="-122.97549">
<ele>1814</ele>
<time>2025-03-24T04:11:59-07:00</time>
</trkpt>
<trkpt lat="50.05787" lon="-122.97556">
<ele>1817</ele>
<time>2025-03-24T04:12:00-07:00</time>
</trkpt>
<trkpt lat="50.05795" lon="-122.9757">
<ele>1817</ele>
<time>2025-03-24T04:12:01-07:00</time>
</trkpt>
<trkpt lat="50.05799" lon="-122.9758">
<ele>1817</ele>
<time>2025-03-24T04:12:02-07:00</time>
</trkpt>
<trkpt lat="50.05802" lon="-122.97591">
<ele>1820.4</ele>
<time>2025-03-24T04:12:03-07:00</time>
</trkpt>
<trkpt lat="50.05805" lon="-122.97604">
<ele>1820.4</ele>
<time>2025-03-24T04:12:04-07:00</time>
</trkpt>
<trkpt lat="50.05816" lon="-122.97627">
<ele>1812.5</ele>
<time>2025-03-24T04:12:05-07:00</time>
</trkpt>
<trkpt lat="50.0582" lon="-122.97636">
<ele>1812.5</ele>
<time>2025-03-24T04:12:06-07:00</time>
</trkpt>
<trkpt lat="50.05826" lon="-122.97656">
<ele>1809.4</ele>
<time>2025-03-24T04:12:07-07:00</time>
</trkpt>
<trkpt lat="50.05829" lon="-122.97664">
<ele>1809.4</ele>
<time>2025-03-24T04:12:08-07:00</time>
</trkpt>
<trkpt lat="50.05835" lon="-122.9767">
<ele>1797.9</ele>
<time>2025-03-24T04:12:09-07:00</time>
</trkpt>
<trkpt lat="50.0584" lon="-122.97674">
<ele>1797.9</ele>
<time>2025-03-24T04:12:10-07:00</time>
</trkpt>
<trkpt lat="50.05845" lon="-122.97672">
<ele>1797.9</ele>
<time>2025-03-24T04:12:11-07:00</time>
</trkpt>
<trkpt lat="50.05849" lon="-122.97668">
<ele>1797.9</ele>
<time>2025-03-24T04:12:12-07:00</time>
</trkpt>
<trkpt lat="50.05856" lon="-122.97666">
<ele>1801.7</ele>
<time>2025-03-24T04:12:13-07:00</time>
</trkpt>
<trkpt lat="50.05861" lon="-122.97664">
<ele>1801.7</ele>
<time>2025-03-24T04:12:14-07:00</time>
</trkpt>
<trkpt lat="50.0587" lon="-122.97649">
<ele>1801.5</ele>
<time>2025-03-24T04:12:15-07:00</time>
</trkpt>
<trkpt lat="50.05873" lon="-122.97644">
<ele>1801.5</ele>
<time>2025-03-24T04:12:16-07:00</time>
</trkpt>
<trkpt lat="50.05878" lon="-122.97641">
<ele>1801.5</ele>
<time>2025-03-24T04:12:17-07:00</time>
</trkpt>
<trkpt lat="50.05883" lon="-122.97639">
<ele>1801.5</ele>
<time>2025-03-24T04:12:18-07:00</time>
</trkpt>
<trkpt lat="50.05887" lon="-122.9764">
<ele>1801.5</ele>
<time>2025-03-24T04:12:19-07:00</time>
</trkpt>
<trkpt lat="50.05892" lon="-122.97638">
<ele>1799.5</ele>
<time>2025-03-24T04:12:20-07:00</time>
</trkpt>
<trkpt lat="50.05896" lon="-122.9763">
<ele>1799.5</ele>
<time>2025-03-24T04:12:21-07:00</time>
</trkpt>
<trkpt lat="50.05901" lon="-122.97624">
<ele>1799.5</ele>
<time>2025-03-24T04:12:22-07:00</time>
</trkpt>
<trkpt lat="50.05909" lon="-122.97621">
<ele>1799.5</ele>
<time>2025-03-24T04:12:23-07:00</time>
</trkpt>
<trkpt lat="50.0592" lon="-122.97623">
<ele>1788.5</ele>
<time>2025-03-24T04:12:24-07:00</time>
</trkpt>
<trkpt lat="50.05924" lon="-122.97626">
<ele>1788.5</ele>
<time>2025-03-24T04:12:25-07:00</time>
</trkpt>
<trkpt lat="50.05925" lon="-122.97619">
<ele>1788.5</ele>
<time>2025-03-24T04:12:26-07:00</time>
</trkpt>
<trkpt lat="50.05923" lon="-122.9761">
<ele>1782.9</ele>
<time>2025-03-24T04:12:27-07:00</time>
</trkpt>
<trkpt lat="50.05918" lon="-122.97601">
<ele>1782.9</ele>
<time>2025-03-24T04:12:28-07:00</time>
</trkpt>
<trkpt lat="50.05913" lon="-122.97592">
<ele>1795.4</ele>
<time>2025-03-24T04:12:29-07:00</time>
</trkpt>
<trkpt lat="50.05907" lon="-122.97585">
<ele>1795.4</ele>
<time>2025-03-24T04:12:30-07:00</time>
</trkpt>
<trkpt lat="50.05894" lon="-122.9758">
<ele>1789.1</ele>
<time>2025-03-24T04:12:31-07:00</time>
</trkpt>
<trkpt lat="50.05889" lon="-122.97578">
<ele>1789.1</ele>
<time>2025-03-24T04:12:32-07:00</time>
</trkpt>
<trkpt lat="50.05889" lon="-122.9757">
<ele>1789.1</ele>
<time>2025-03-24T04:12:33-07:00</time>
</trkpt>
<trkpt lat="50.05892" lon="-122.97564">
<ele>1789.1</ele>
<time>2025-03-24T04:12:34-07:00</time>
</trkpt>
<trkpt lat="50.05898" lon="-122.97559">
<ele>1789.1</ele>
<time>2025-03-24T04:12:35-07:00</time>
</trkpt>
<trkpt lat="50.05904" lon="-122.97557">
<ele>1789.1</ele>
<time>2025-03-24T04:12:36-07:00</time>
</trkpt>
<trkpt lat="50.05912" lon="-122.97556">
<ele>1789.1</ele>
<time>2025-03-24T04:12:37-07:00</time>
</trkpt>
<trkpt lat="50.05924" lon="-122.9756">
<ele>1778.4</ele>
<time>2025-03-24T04:12:38-07:00</time>
</trkpt>
<trkpt lat="50.05935" lon="-122.97568">
<ele>1778.4</ele>
<time>2025-03-24T04:12:39-07:00</time>
</trkpt>
<trkpt lat="50.0595" lon="-122.97574">
<ele>1766.2</ele>
<time>2025-03-24T04:12:40-07:00</time>
</trkpt>
<trkpt lat="50.0596" lon="-122.97586">
<ele>1773.4</ele>
<time>2025-03-24T04:12:41-07:00</time>
</trkpt>
<trkpt lat="50.05963" lon="-122.97597">
<ele>1773.4</ele>
<time>2025-03-24T04:12:42-07:00</time>
</trkpt>
<trkpt lat="50.05965" lon="-122.97603">
<ele>1773.4</ele>
<time>2025-03-24T04:12:43-07:00</time>
</trkpt>
<trkpt lat="50.0597" lon="-122.97605">
<ele>1773.4</ele>
<time>2025-03-24T04:12:44-07:00</time>
</trkpt>
<trkpt lat="50.05971" lon="-122.97599">
<ele>1773.4</ele>
<time>2025-03-24T04:12:45-07:00</time>
</trkpt>
<trkpt lat="50.05969" lon="-122.97588">
<ele>1773.4</ele>
<time>2025-03-24T04:12:46-07:00</time>
</trkpt>
<trkpt lat="50.05972" lon="-122.97585">
<ele>1773.4</ele>
<time>2025-03-24T04:12:47-07:00</time>
</trkpt>
<trkpt lat="50.05977" lon="-122.97592">
<ele>1759.3</ele>
<time>2025-03-24T04:12:48-07:00</time>
</trkpt>
<trkpt lat="50.05994" lon="-122.97627">
<ele>1767.7</ele>
<time>2025-03-24T04:12:49-07:00</time>
</trkpt>
<trkpt lat="50.05997" lon="-122.97632">
<ele>1767.7</ele>
<time>2025-03-24T04:12:50-07:00</time>
</trkpt>
<trkpt lat="50.05999" lon="-122.97638">
<ele>1767.7</ele>
<time>2025-03-24T04:12:51-07:00</time>
</trkpt>
<trkpt lat="50.05997" lon="-122.97645">
<ele>1774.5</ele>
<time>2025-03-24T04:12:52-07:00</time>
</trkpt>
<trkpt lat="50.06" lon="-122.97653">
<ele>1761.2</ele>
<time>2025-03-24T04:12:53-07:00</time>
</trkpt>
<trkpt lat="50.06002" lon="-122.97653">
<ele>1761.2</ele>
<time>2025-03-24T04:12:54-07:00</time>
</trkpt>
<trkpt lat="50.06007" lon="-122.97639">
<ele>1761.2</ele>
<time>2025-03-24T04:12:55-07:00</time>
</trkpt>
<trkpt lat="50.06008" lon="-122.97632">
<ele>1753.2</ele>
<time>2025-03-24T04:12:56-07:00</time>
</trkpt>
<trkpt lat="50.06007" lon="-122.97606">
<ele>1744.7</ele>
<time>2025-03-24T04:12:57-07:00</time>
</trkpt>
<trkpt lat="50.06005" lon="-122.97597">
<ele>1744.7</ele>
<time>2025-03-24T04:12:58-07:00</time>
</trkpt>
<trkpt lat="50.05991" lon="-122.97568">
<ele>1751.2</ele>
<time>2025-03-24T04:12:59-07:00</time>
</trkpt>
<trkpt lat="50.05976" lon="-122.97544">
<ele>1744</ele>
<time>2025-03-24T04:13:00-07:00</time>
</trkpt>
<trkpt lat="50.05975" lon="-122.97538">
<ele>1744</ele>
<time>2025-03-24T04:13:01-07:00</time>
</trkpt>
<trkpt lat="50.05977" lon="-122.97531">
<ele>1744</ele>
<time>2025-03-24T04:13:02-07:00</time>
</trkpt>
<trkpt lat="50.05984" lon="-122.97533">
<ele>1744</ele>
<time>2025-03-24T04:13:03-07:00</time>
</trkpt>
<trkpt lat="50.05998" lon="-122.97558">
<ele>1751.2</ele>
<time>2025-03-24T04:13:04-07:00</time>
</trkpt>
<trkpt lat="50.06002" lon="-122.97563">
<ele>1737.9</ele>
<time>2025-03-24T04:13:05-07:00</time>
</trkpt>
<trkpt lat="50.06007" lon="-122.97565">
<ele>1737.9</ele>
<time>2025-03-24T04:13:06-07:00</time>
</trkpt>
<trkpt lat="50.0601" lon="-122.97562">
<ele>1737.9</ele>
<time>2025-03-24T04:13:07-07:00</time>
</trkpt>
<trkpt lat="50.06002" lon="-122.97544">
<ele>1732.8</ele>
<time>2025-03-24T04:13:08-07:00</time>
</trkpt>
<trkpt lat="50.06002" lon="-122.9754">
<ele>1732.8</ele>
<time>2025-03-24T04:13:09-07:00</time>
</trkpt>
<trkpt lat="50.06008" lon="-122.97539">
<ele>1732.8</ele>
<time>2025-03-24T04:13:10-07:00</time>
</trkpt>
<trkpt lat="50.06012" lon="-122.97544">
<ele>1732.8</ele>
<time>2025-03-24T04:13:11-07:00</time>
</trkpt>
<trkpt lat="50.06019" lon="-122.97548">
<ele>1732.8</ele>
<time>2025-03-24T04:13:12-07:00</time>
</trkpt>
<trkpt lat="50.06024" lon="-122.97552">
<ele>1732.8</ele>
<time>2025-03-24T04:13:13-07:00</time>
</trkpt>
<trkpt lat="50.06031" lon="-122.97563">
<ele>1730</ele>
<time>2025-03-24T04:13:14-07:00</time>
</trkpt>
<trkpt lat="50.06036" lon="-122.97567">
<ele>1730</ele>
<time>2025-03-24T04:13:15-07:00</time>
</trkpt>
<trkpt lat="50.06039" lon="-122.97567">
<ele>1730</ele>
<time>2025-03-24T04:13:16-07:00</time>
</trkpt>
<trkpt lat="50.0604" lon="-122.97559">
<ele>1730</ele>
<time>2025-03-24T04:13:17-07:00</time>
</trkpt>
<trkpt lat="50.06039" lon="-122.97549">
<ele>1727</ele>
<time>2025-03-24T04:13:18-07:00</time>
</trkpt>
<trkpt lat="50.06037" lon="-122.97543">
<ele>1727</ele>
<time>2025-03-24T04:13:19-07:00</time>
</trkpt>
<trkpt lat="50.06037" lon="-122.97534">
<ele>1727</ele>
<time>2025-03-24T04:13:20-07:00</time>
</trkpt>
<trkpt lat="50.06033" lon="-122.97512">
<ele>1724.2</ele>
<time>2025-03-24T04:13:21-07:00</time>
</trkpt>
<trkpt lat="50.06029" lon="-122.97505">
<ele>1724.2</ele>
<time>2025-03-24T04:13:22-07:00</time>
</trkpt>
<trkpt lat="50.06032" lon="-122.97496">
<ele>1722.4</ele>
<time>2025-03-24T04:13:23-07:00</time>
</trkpt>
<trkpt lat="50.06036" lon="-122.97486">
<ele>1722.4</ele>
<time>2025-03-24T04:13:24-07:00</time>
</trkpt>
<trkpt lat="50.06043" lon="-122.97479">
<ele>1722.4</ele>
<time>2025-03-24T04:13:25-07:00</time>
</trkpt>
<trkpt lat="50.06055" lon="-122.97472">
<ele>1729</ele>
<time>2025-03-24T04:13:26-07:00</time>
</trkpt>
<trkpt lat="50.06064" lon="-122.97466">
<ele>1722.2</ele>
<time>2025-03-24T04:13:27-07:00</time>
</trkpt>
<trkpt lat="50.06103" lon="-122.9745">
<ele>1714.9</ele>
<time>2025-03-24T04:13:28-07:00</time>
</trkpt>
<trkpt lat="50.06111" lon="-122.97446">
<ele>1714.9</ele>
<time>2025-03-24T04:13:29-07:00</time>
</trkpt>
<trkpt lat="50.06118" lon="-122.97437">
<ele>1717.3</ele>
<time>2025-03-24T04:13:30-07:00</time>
</trkpt>
<trkpt lat="50.06144" lon="-122.97423">
<ele>1710.9</ele>
<time>2025-03-24T04:13:31-07:00</time>
</trkpt>
<trkpt lat="50.06157" lon="-122.9741">
<ele>1712.4</ele>
<time>2025-03-24T04:13:32-07:00</time>
</trkpt>
<trkpt lat="50.0617" lon="-122.97385">
<ele>1702.6</ele>
<time>2025-03-24T04:13:33-07:00</time>
</trkpt>
<trkpt lat="50.06181" lon="-122.9737">
<ele>1702.6</ele>
<time>2025-03-24T04:13:34-07:00</time>
</trkpt>
<trkpt lat="50.06199" lon="-122.97354">
<ele>1698.7</ele>
<time>2025-03-24T04:13:35-07:00</time>
</trkpt>
<trkpt lat="50.06213" lon="-122.97334">
<ele>1698.7</ele>
<time>2025-03-24T04:13:36-07:00</time>
</trkpt>
<trkpt lat="50.06237" lon="-122.97307">
<ele>1695.4</ele>
<time>2025-03-24T04:13:37-07:00</time>
</trkpt>
<trkpt lat="50.06252" lon="-122.97285">
<ele>1689.3</ele>
<time>2025-03-24T04:13:38-07:00</time>
</trkpt>
<trkpt lat="50.06281" lon="-122.97236">
<ele>1683.8</ele>
<time>2025-03-24T04:13:39-07:00</time>
</trkpt>
<trkpt lat="50.063" lon="-122.97209">
<ele>1689</ele>
<time>2025-03-24T04:13:40-07:00</time>
</trkpt>
<trkpt lat="50.06324" lon="-122.97164">
<ele>1688.5</ele>
<time>2025-03-24T04:13:41-07:00</time>
</trkpt>
<trkpt lat="50.06348" lon="-122.97124">
<ele>1685.1</ele>
<time>2025-03-24T04:13:42-07:00</time>
</trkpt>
<trkpt lat="50.06367" lon="-122.97081">
<ele>1685.6</ele>
<time>2025-03-24T04:13:43-07:00</time>
</trkpt>
<trkpt lat="50.06385" lon="-122.97061">
<ele>1685.6</ele>
<time>2025-03-24T04:13:44-07:00</time>
</trkpt>
<trkpt lat="50.06399" lon="-122.97048">
<ele>1682.5</ele>
<time>2025-03-24T04:13:45-07:00</time>
</trkpt>
<trkpt lat="50.0642" lon="-122.97031">
<ele>1674.2</ele>
<time>2025-03-24T04:13:46-07:00</time>
</trkpt>
<trkpt lat="50.06435" lon="-122.97016">
<ele>1679.6</ele>
<time>2025-03-24T04:13:47-07:00</time>
</trkpt>
<trkpt lat="50.06447" lon="-122.97003">
<ele>1672.2</ele>
<time>2025-03-24T04:13:48-07:00</time>
</trkpt>
<trkpt lat="50.06463" lon="-122.96992">
<ele>1677.8</ele>
<time>2025-03-24T04:13:49-07:00</time>
</trkpt>
<trkpt lat="50.06483" lon="-122.96977">
<ele>1668</ele>
<time>2025-03-24T04:13:50-07:00</time>
</trkpt>
<trkpt lat="50.06503" lon="-122.96964">
<ele>1667</ele>
<time>2025-03-24T04:13:51-07:00</time>
</trkpt>
<trkpt lat="50.0655" lon="-122.96938">
<ele>1669.2</ele>
<time>2025-03-24T04:13:52-07:00</time>
</trkpt>
<trkpt lat="50.06592" lon="-122.96918">
<ele>1654.7</ele>
<time>2025-03-24T04:13:53-07:00</time>
</trkpt>
<trkpt lat="50.0661" lon="-122.96904">
<ele>1661.2</ele>
<time>2025-03-24T04:13:54-07:00</time>
</trkpt>
<trkpt lat="50.0664" lon="-122.96888">
<ele>1660.6</ele>
<time>2025-03-24T04:13:55-07:00</time>
</trkpt>
<trkpt lat="50.06657" lon="-122.96882">
<ele>1660.6</ele>
<time>2025-03-24T04:13:56-07:00</time>
</trkpt>
<trkpt lat="50.0668" lon="-122.96879">
<ele>1655.5</ele>
<time>2025-03-24T04:13:57-07:00</time>
</trkpt>
<trkpt lat="50.06731" lon="-122.96876">
<ele>1650.2</ele>
<time>2025-03-24T04:13:58-07:00</time>
</trkpt>
<trkpt lat="50.06769" lon="-122.96881">
<ele>1647.9</ele>
<time>2025-03-24T04:13:59-07:00</time>
</trkpt>
<trkpt lat="50.068" lon="-122.96864">
<ele>1643</ele>
<time>2025-03-24T04:14:00-07:00</time>
</trkpt>
<trkpt lat="50.06831" lon="-122.96855">
<ele>1640</ele>
<time>2025-03-24T04:14:01-07:00</time>
</trkpt>
<trkpt lat="50.06851" lon="-122.96842">
<ele>1635.6</ele>
<time>2025-03-24T04:14:02-07:00</time>
</trkpt>
<trkpt lat="50.06862" lon="-122.96825">
<ele>1631.9</ele>
<time>2025-03-24T04:14:03-07:00</time>
</trkpt>
<trkpt lat="50.06871" lon="-122.9681">
<ele>1631.9</ele>
<time>2025-03-24T04:14:04-07:00</time>
</trkpt>
<trkpt lat="50.06892" lon="-122.96783">
<ele>1634.2</ele>
<time>2025-03-24T04:14:05-07:00</time>
</trkpt>
<trkpt lat="50.069" lon="-122.96772">
<ele>1642.2</ele>
<time>2025-03-24T04:14:06-07:00</time>
</trkpt>
<trkpt lat="50.06915" lon="-122.96766">
<ele>1642.2</ele>
<time>2025-03-24T04:14:07-07:00</time>
</trkpt>
<trkpt lat="50.06929" lon="-122.96761">
<ele>1628.6</ele>
<time>2025-03-24T04:14:08-07:00</time>
</trkpt>
<trkpt lat="50.06938" lon="-122.9675">
<ele>1631.9</ele>
<time>2025-03-24T04:14:09-07:00</time>
</trkpt>
<trkpt lat="50.06948" lon="-122.96735">
<ele>1626.3</ele>
<time>2025-03-24T04:14:10-07:00</time>
</trkpt>
<trkpt lat="50.06961" lon="-122.9672">
<ele>1629</ele>
<time>2025-03-24T04:14:11-07:00</time>
</trkpt>
<trkpt lat="50.06974" lon="-122.96709">
<ele>1623.7</ele>
<time>2025-03-24T04:14:12-07:00</time>
</trkpt>
<trkpt lat="50.06979" lon="-122.96699">
<ele>1623.7</ele>
<time>2025-03-24T04:14:13-07:00</time>
</trkpt>
<trkpt lat="50.06992" lon="-122.96691">
<ele>1627.9</ele>
<time>2025-03-24T04:14:14-07:00</time>
</trkpt>
<trkpt lat="50.07003" lon="-122.96681">
<ele>1622.4</ele>
<time>2025-03-24T04:14:15-07:00</time>
</trkpt>
<trkpt lat="50.07005" lon="-122.96666">
<ele>1623.2</ele>
<time>2025-03-24T04:14:16-07:00</time>
</trkpt>
<trkpt lat="50.07011" lon="-122.96656">
<ele>1623.2</ele>
<time>2025-03-24T04:14:17-07:00</time>
</trkpt>
<trkpt lat="50.07033" lon="-122.96643">
<ele>1620.5</ele>
<time>2025-03-24T04:14:18-07:00</time>
</trkpt>
<trkpt lat="50.07044" lon="-122.96636">
<ele>1618</ele>
<time>2025-03-24T04:14:19-07:00</time>
</trkpt>
<trkpt lat="50.07072" lon="-122.96616">
<ele>1613.6</ele>
<time>2025-03-24T04:14:20-07:00</time>
</trkpt>
<trkpt lat="50.07082" lon="-122.9661">
<ele>1613.1</ele>
<time>2025-03-24T04:14:21-07:00</time>
</trkpt>
<trkpt lat="50.07111" lon="-122.96613">
<ele>1609</ele>
<time>2025-03-24T04:14:22-07:00</time>
</trkpt>
<trkpt lat="50.07122" lon="-122.96618">
<ele>1606</ele>
<time>2025-03-24T04:14:23-07:00</time>
</trkpt>
<trkpt lat="50.07143" lon="-122.96631">
<ele>1598.4</ele>
<time>2025-03-24T04:14:24-07:00</time>
</trkpt>
<trkpt lat="50.07153" lon="-122.96637">
<ele>1598.4</ele>
<time>2025-03-24T04:14:25-07:00</time>
</trkpt>
<trkpt lat="50.07161" lon="-122.9665">
<ele>1603.8</ele>
<time>2025-03-24T04:14:26-07:00</time>
</trkpt>
<trkpt lat="50.07171" lon="-122.96655">
<ele>1594.1</ele>
<time>2025-03-24T04:14:27-07:00</time>
</trkpt>
<trkpt lat="50.07169" lon="-122.96636">
<ele>1587.8</ele>
<time>2025-03-24T04:14:28-07:00</time>
</trkpt>
<trkpt lat="50.07162" lon="-122.96626">
<ele>1598.4</ele>
<time>2025-03-24T04:14:29-07:00</time>
</trkpt>
<trkpt lat="50.07159" lon="-122.96601">
<ele>1593</ele>
<time>2025-03-24T04:14:30-07:00</time>
</trkpt>
<trkpt lat="50.0716" lon="-122.96594">
<ele>1593</ele>
<time>2025-03-24T04:14:31-07:00</time>
</trkpt>
<trkpt lat="50.07167" lon="-122.96599">
<ele>1583.4</ele>
<time>2025-03-24T04:14:32-07:00</time>
</trkpt>
<trkpt lat="50.07172" lon="-122.96614">
<ele>1587.8</ele>
<time>2025-03-24T04:14:33-07:00</time>
</trkpt>
<trkpt lat="50.07175" lon="-122.9662">
<ele>1587.8</ele>
<time>2025-03-24T04:14:34-07:00</time>
</trkpt>
<trkpt lat="50.07181" lon="-122.96622">
<ele>1587.8</ele>
<time>2025-03-24T04:14:35-07:00</time>
</trkpt>
<trkpt lat="50.07187" lon="-122.96625">
<ele>1587.8</ele>
<time>2025-03-24T04:14:36-07:00</time>
</trkpt>
<trkpt lat="50.0719" lon="-122.96631">
<ele>1587.8</ele>
<time>2025-03-24T04:14:37-07:00</time>
</trkpt>
<trkpt lat="50.07193" lon="-122.96636">
<ele>1587.8</ele>
<time>2025-03-24T04:14:38-07:00</time>
</trkpt>
<trkpt lat="50.07198" lon="-122.96633">
<ele>1578</ele>
<time>2025-03-24T04:14:39-07:00</time>
</trkpt>
<trkpt lat="50.07199" lon="-122.96624">
<ele>1578</ele>
<time>2025-03-24T04:14:40-07:00</time>
</trkpt>
<trkpt lat="50.07192" lon="-122.96605">
<ele>1583.4</ele>
<time>2025-03-24T04:14:41-07:00</time>
</trkpt>
<trkpt lat="50.07191" lon="-122.96595">
<ele>1583.4</ele>
<time>2025-03-24T04:14:42-07:00</time>
</trkpt>
<trkpt lat="50.07192" lon="-122.96588">
<ele>1583.4</ele>
<time>2025-03-24T04:14:43-07:00</time>
</trkpt>
<trkpt lat="50.07196" lon="-122.96585">
<ele>1575.6</ele>
<time>2025-03-24T04:14:44-07:00</time>
</trkpt>
<trkpt lat="50.072" lon="-122.96584">
<ele>1575.6</ele>
<time>2025-03-24T04:14:45-07:00</time>
</trkpt>
<trkpt lat="50.07205" lon="-122.96586">
<ele>1575.6</ele>
<time>2025-03-24T04:14:46-07:00</time>
</trkpt>
<trkpt lat="50.07212" lon="-122.96592">
<ele>1575.6</ele>
<time>2025-03-24T04:14:47-07:00</time>
</trkpt>
<trkpt lat="50.07226" lon="-122.96615">
<ele>1568.5</ele>
<time>2025-03-24T04:14:48-07:00</time>
</trkpt>
<trkpt lat="50.07233" lon="-122.96625">
<ele>1568.5</ele>
<time>2025-03-24T04:14:49-07:00</time>
</trkpt>
<trkpt lat="50.07241" lon="-122.96641">
<ele>1573.7</ele>
<time>2025-03-24T04:14:50-07:00</time>
</trkpt>
<trkpt lat="50.07244" lon="-122.96648">
<ele>1573.7</ele>
<time>2025-03-24T04:14:51-07:00</time>
</trkpt>
<trkpt lat="50.07252" lon="-122.96656">
<ele>1563.7</ele>
<time>2025-03-24T04:14:52-07:00</time>
</trkpt>
<trkpt lat="50.0726" lon="-122.96661">
<ele>1563.7</ele>
<time>2025-03-24T04:14:53-07:00</time>
</trkpt>
<trkpt lat="50.07265" lon="-122.9666">
<ele>1563.7</ele>
<time>2025-03-24T04:14:54-07:00</time>
</trkpt>
<trkpt lat="50.07267" lon="-122.9665">
<ele>1563.7</ele>
<time>2025-03-24T04:14:55-07:00</time>
</trkpt>
<trkpt lat="50.07265" lon="-122.96636">
<ele>1560.5</ele>
<time>2025-03-24T04:14:56-07:00</time>
</trkpt>
<trkpt lat="50.07261" lon="-122.96625">
<ele>1560.5</ele>
<time>2025-03-24T04:14:57-07:00</time>
</trkpt>
<trkpt lat="50.07259" lon="-122.9661">
<ele>1558.3</ele>
<time>2025-03-24T04:14:58-07:00</time>
</trkpt>
<trkpt lat="50.07263" lon="-122.96597">
<ele>1558.3</ele>
<time>2025-03-24T04:14:59-07:00</time>
</trkpt>
<trkpt lat="50.07264" lon="-122.96582">
<ele>1556.4</ele>
<time>2025-03-24T04:15:00-07:00</time>
</trkpt>
<trkpt lat="50.07263" lon="-122.96567">
<ele>1556.4</ele>
<time>2025-03-24T04:15:01-07:00</time>
</trkpt>
<trkpt lat="50.07263" lon="-122.96554">
<ele>1554.5</ele>
<time>2025-03-24T04:15:02-07:00</time>
</trkpt>
<trkpt lat="50.07265" lon="-122.96544">
<ele>1554.5</ele>
<time>2025-03-24T04:15:03-07:00</time>
</trkpt>
<trkpt lat="50.07268" lon="-122.96537">
<ele>1554.5</ele>
<time>2025-03-24T04:15:04-07:00</time>
</trkpt>
<trkpt lat="50.07274" lon="-122.96542">
<ele>1554.5</ele>
<time>2025-03-24T04:15:05-07:00</time>
</trkpt>
<trkpt lat="50.07278" lon="-122.96551">
<ele>1542</ele>
<time>2025-03-24T04:15:06-07:00</time>
</trkpt>
<trkpt lat="50.0728" lon="-122.96561">
<ele>1543.3</ele>
<time>2025-03-24T04:15:07-07:00</time>
</trkpt>
<trkpt lat="50.07287" lon="-122.96578">
<ele>1543.3</ele>
<time>2025-03-24T04:15:08-07:00</time>
</trkpt>
<trkpt lat="50.07292" lon="-122.96592">
<ele>1545.3</ele>
<time>2025-03-24T04:15:09-07:00</time>
</trkpt>
<trkpt lat="50.07294" lon="-122.96605">
<ele>1545.3</ele>
<time>2025-03-24T04:15:10-07:00</time>
</trkpt>
<trkpt lat="50.07296" lon="-122.96614">
<ele>1548</ele>
<time>2025-03-24T04:15:11-07:00</time>
</trkpt>
<trkpt lat="50.073" lon="-122.96615">
<ele>1548</ele>
<time>2025-03-24T04:15:12-07:00</time>
</trkpt>
<trkpt lat="50.07304" lon="-122.96605">
<ele>1545.3</ele>
<time>2025-03-24T04:15:13-07:00</time>
</trkpt>
<trkpt lat="50.07308" lon="-122.96566">
<ele>1527.4</ele>
<time>2025-03-24T04:15:14-07:00</time>
</trkpt>
<trkpt lat="50.07312" lon="-122.96565">
<ele>1527.4</ele>
<time>2025-03-24T04:15:15-07:00</time>
</trkpt>
<trkpt lat="50.07315" lon="-122.96571">
<ele>1527.4</ele>
<time>2025-03-24T04:15:16-07:00</time>
</trkpt>
<trkpt lat="50.07317" lon="-122.9658">
<ele>1527.4</ele>
<time>2025-03-24T04:15:17-07:00</time>
</trkpt>
<trkpt lat="50.07319" lon="-122.96593">
<ele>1531.3</ele>
<time>2025-03-24T04:15:18-07:00</time>
</trkpt>
<trkpt lat="50.07323" lon="-122.96604">
<ele>1531.3</ele>
<time>2025-03-24T04:15:19-07:00</time>
</trkpt>
<trkpt lat="50.07327" lon="-122.96614">
<ele>1535.5</ele>
<time>2025-03-24T04:15:20-07:00</time>
</trkpt>
<trkpt lat="50.07345" lon="-122.96637">
<ele>1523.1</ele>
<time>2025-03-24T04:15:21-07:00</time>
</trkpt>
<trkpt lat="50.07352" lon="-122.96643">
<ele>1524.2</ele>
<time>2025-03-24T04:15:22-07:00</time>
</trkpt>
<trkpt lat="50.07354" lon="-122.96637">
<ele>1523.1</ele>
<time>2025-03-24T04:15:23-07:00</time>
</trkpt>
<trkpt lat="50.07351" lon="-122.96627">
<ele>1523.1</ele>
<time>2025-03-24T04:15:24-07:00</time>
</trkpt>
<trkpt lat="50.07347" lon="-122.96619">
<ele>1523.1</ele>
<time>2025-03-24T04:15:25-07:00</time>
</trkpt>
<trkpt lat="50.07345" lon="-122.96599">
<ele>1518.8</ele>
<time>2025-03-24T04:15:26-07:00</time>
</trkpt>
<trkpt lat="50.07345" lon="-122.9659">
<ele>1518.8</ele>
<time>2025-03-24T04:15:27-07:00</time>
</trkpt>
<trkpt lat="50.07347" lon="-122.96578">
<ele>1514.6</ele>
<time>2025-03-24T04:15:28-07:00</time>
</trkpt>
<trkpt lat="50.07351" lon="-122.96581">
<ele>1514.6</ele>
<time>2025-03-24T04:15:29-07:00</time>
</trkpt>
<trkpt lat="50.07354" lon="-122.96587">
<ele>1518.8</ele>
<time>2025-03-24T04:15:30-07:00</time>
</trkpt>
<trkpt lat="50.07357" lon="-122.96593">
<ele>1518.8</ele>
<time>2025-03-24T04:15:31-07:00</time>
</trkpt>
<trkpt lat="50.0736" lon="-122.96586">
<ele>1518.8</ele>
<time>2025-03-24T04:15:32-07:00</time>
</trkpt>
<trkpt lat="50.0736" lon="-122.96577">
<ele>1514.6</ele>
<time>2025-03-24T04:15:33-07:00</time>
</trkpt>
<trkpt lat="50.07346" lon="-122.96533">
<ele>1510.7</ele>
<time>2025-03-24T04:15:34-07:00</time>
</trkpt>
<trkpt lat="50.07347" lon="-122.96524">
<ele>1510.6</ele>
<time>2025-03-24T04:15:35-07:00</time>
</trkpt>
<trkpt lat="50.07352" lon="-122.96519">
<ele>1510.6</ele>
<time>2025-03-24T04:15:36-07:00</time>
</trkpt>
<trkpt lat="50.07358" lon="-122.96518">
<ele>1510.6</ele>
<time>2025-03-24T04:15:37-07:00</time>
</trkpt>
<trkpt lat="50.07366" lon="-122.96519">
<ele>1498.7</ele>
<time>2025-03-24T04:15:38-07:00</time>
</trkpt>
<trkpt lat="50.07373" lon="-122.96516">
<ele>1498.7</ele>
<time>2025-03-24T04:15:39-07:00</time>
</trkpt>
<trkpt lat="50.0738" lon="-122.96513">
<ele>1498.7</ele>
<time>2025-03-24T04:15:40-07:00</time>
</trkpt>
<trkpt lat="50.07383" lon="-122.96507">
<ele>1498.7</ele>
<time>2025-03-24T04:15:41-07:00</time>
</trkpt>
<trkpt lat="50.07381" lon="-122.96498">
<ele>1503.5</ele>
<time>2025-03-24T04:15:42-07:00</time>
</trkpt>
<trkpt lat="50.07382" lon="-122.9649">
<ele>1503.5</ele>
<time>2025-03-24T04:15:43-07:00</time>
</trkpt>
<trkpt lat="50.07384" lon="-122.96486">
<ele>1503.5</ele>
<time>2025-03-24T04:15:44-07:00</time>
</trkpt>
<trkpt lat="50.07388" lon="-122.96493">
<ele>1503.5</ele>
<time>2025-03-24T04:15:45-07:00</time>
</trkpt>
<trkpt lat="50.07389" lon="-122.965">
<ele>1494.6</ele>
<time>2025-03-24T04:15:46-07:00</time>
</trkpt>
<trkpt lat="50.07394" lon="-122.96501">
<ele>1490.8</ele>
<time>2025-03-24T04:15:47-07:00</time>
</trkpt>
<trkpt lat="50.074" lon="-122.9649">
<ele>1494.6</ele>
<time>2025-03-24T04:15:48-07:00</time>
</trkpt>
<trkpt lat="50.07414" lon="-122.96473">
<ele>1494.6</ele>
<time>2025-03-24T04:15:49-07:00</time>
</trkpt>
<trkpt lat="50.07424" lon="-122.9646">
<ele>1489.8</ele>
<time>2025-03-24T04:15:50-07:00</time>
</trkpt>
<trkpt lat="50.07434" lon="-122.96455">
<ele>1489.8</ele>
<time>2025-03-24T04:15:51-07:00</time>
</trkpt>
<trkpt lat="50.07453" lon="-122.96449">
<ele>1486</ele>
<time>2025-03-24T04:15:52-07:00</time>
</trkpt>
<trkpt lat="50.07464" lon="-122.96441">
<ele>1490.3</ele>
<time>2025-03-24T04:15:53-07:00</time>
</trkpt>
<trkpt lat="50.07475" lon="-122.96439">
<ele>1485.5</ele>
<time>2025-03-24T04:15:54-07:00</time>
</trkpt>
<trkpt lat="50.07484" lon="-122.96437">
<ele>1485.5</ele>
<time>2025-03-24T04:15:55-07:00</time>
</trkpt>
<trkpt lat="50.07498" lon="-122.96438">
<ele>1485.5</ele>
<time>2025-03-24T04:15:56-07:00</time>
</trkpt>
<trkpt lat="50.07508" lon="-122.96439">
<ele>1481.6</ele>
<time>2025-03-24T04:15:57-07:00</time>
</trkpt>
<trkpt lat="50.07517" lon="-122.96438">
<ele>1481.6</ele>
<time>2025-03-24T04:15:58-07:00</time>
</trkpt>
<trkpt lat="50.07527" lon="-122.9644">
<ele>1481.6</ele>
<time>2025-03-24T04:15:59-07:00</time>
</trkpt>
<trkpt lat="50.07544" lon="-122.96436">
<ele>1474.2</ele>
<time>2025-03-24T04:16:00-07:00</time>
</trkpt>
<trkpt lat="50.07552" lon="-122.96428">
<ele>1474.2</ele>
<time>2025-03-24T04:16:01-07:00</time>
</trkpt>
<trkpt lat="50.07558" lon="-122.96419">
<ele>1464.9</ele>
<time>2025-03-24T04:16:02-07:00</time>
</trkpt>
<trkpt lat="50.07565" lon="-122.96407">
<ele>1468.1</ele>
<time>2025-03-24T04:16:03-07:00</time>
</trkpt>
<trkpt lat="50.07569" lon="-122.96377">
<ele>1470.4</ele>
<time>2025-03-24T04:16:04-07:00</time>
</trkpt>
<trkpt lat="50.07569" lon="-122.96358">
<ele>1469.4</ele>
<time>2025-03-24T04:16:05-07:00</time>
</trkpt>
<trkpt lat="50.07572" lon="-122.9634">
<ele>1469.4</ele>
<time>2025-03-24T04:16:06-07:00</time>
</trkpt>
<trkpt lat="50.0758" lon="-122.96321">
<ele>1469.2</ele>
<time>2025-03-24T04:16:07-07:00</time>
</trkpt>
<trkpt lat="50.07593" lon="-122.96301">
<ele>1454.7</ele>
<time>2025-03-24T04:16:08-07:00</time>
</trkpt>
<trkpt lat="50.07609" lon="-122.96281">
<ele>1454.7</ele>
<time>2025-03-24T04:16:09-07:00</time>
</trkpt>
<trkpt lat="50.07624" lon="-122.9626">
<ele>1454.2</ele>
<time>2025-03-24T04:16:10-07:00</time>
</trkpt>
<trkpt lat="50.07657" lon="-122.96221">
<ele>1450.4</ele>
<time>2025-03-24T04:16:11-07:00</time>
</trkpt>
<trkpt lat="50.07668" lon="-122.96208">
<ele>1440.9</ele>
<time>2025-03-24T04:16:12-07:00</time>
</trkpt>
<trkpt lat="50.07678" lon="-122.96185">
<ele>1443</ele>
<time>2025-03-24T04:16:13-07:00</time>
</trkpt>
</trkseg>
</trk>
</gpx>
