<?xml version="1.0" encoding="UTF-8"?>
<gpx xmlns="http://www.topografix.com/GPX/1/1" xmlns:xsi="http://www.w3.org/2001/XMLSchema-instance" xsi:schemaLocation="http://www.topografix.com/GPX/1/1 http://www.topografix.com/GPX/1/1/gpx.xsd" version="1.1" creator="gpx.py -- https://github.com/tkrajina/gpxpy">
  <trk>
    <trkseg>
      <trkpt lat="50.09715" lon="-122.95326">
        <ele>1024.9</ele>
        <time>2025-03-24T03:52:38-07:00</time>
      </trkpt>
      <trkpt lat="50.09705" lon="-122.95368">
        <ele>1024.0</ele>
        <time>2025-03-24T03:52:40-07:00</time>
      </trkpt>
      <trkpt lat="50.09718" lon="-122.95432">
        <ele>1026.0</ele>
        <time>2025-03-24T03:52:41-07:00</time>
      </trkpt>
      <trkpt lat="50.09727" lon="-122.95558">
        <ele>1024.0</ele>
        <time>2025-03-24T03:52:43-07:00</time>
      </trkpt>
      <trkpt lat="50.09762" lon="-122.95627">
        <ele>1018.7</ele>
        <time>2025-03-24T03:52:46-07:00</time>
      </trkpt>
      <trkpt lat="50.09785" lon="-122.95703">
        <ele>1005.0</ele>
        <time>2025-03-24T03:52:48-07:00</time>
      </trkpt>
      <trkpt lat="50.0979" lon="-122.9577">
        <ele>1007.0</ele>
        <time>2025-03-24T03:52:49-07:00</time>
      </trkpt>
      <trkpt lat="50.09781" lon="-122.95858">
        <ele>1009.6</ele>
        <time>2025-03-24T03:52:51-07:00</time>
      </trkpt>
      <trkpt lat="50.09806" lon="-122.95935">
        <ele>1002.3</ele>
        <time>2025-03-24T03:52:53-07:00</time>
      </trkpt>
      <trkpt lat="50.09814" lon="-122.95942">
        <ele>1002.3</ele>
        <time>2025-03-24T03:52:54-07:00</time>
      </trkpt>
      <trkpt lat="50.09818" lon="-122.95934">
        <ele>1002.3</ele>
        <time>2025-03-24T03:52:55-07:00</time>
      </trkpt>
      <trkpt lat="50.09806" lon="-122.95861">
        <ele>1000.6</ele>
        <time>2025-03-24T03:52:56-07:00</time>
      </trkpt>
      <trkpt lat="50.09808" lon="-122.95842">
        <ele>1000.6</ele>
        <time>2025-03-24T03:52:57-07:00</time>
      </trkpt>
      <trkpt lat="50.09815" lon="-122.9584">
        <ele>1000.6</ele>
        <time>2025-03-24T03:52:59-07:00</time>
      </trkpt>
      <trkpt lat="50.09817" lon="-122.9587">
        <ele>1002.9</ele>
        <time>2025-03-24T03:53:00-07:00</time>
      </trkpt>
      <trkpt lat="50.09832" lon="-122.95902">
        <ele>1003.9</ele>
        <time>2025-03-24T03:53:01-07:00</time>
      </trkpt>
      <trkpt lat="50.09829" lon="-122.95947">
        <ele>1000.6</ele>
        <time>2025-03-24T03:53:03-07:00</time>
      </trkpt>
      <trkpt lat="50.09844" lon="-122.95998">
        <ele>988.3</ele>
        <time>2025-03-24T03:53:05-07:00</time>
      </trkpt>
      <trkpt lat="50.09838" lon="-122.96035">
        <ele>986.8</ele>
        <time>2025-03-24T03:53:06-07:00</time>
      </trkpt>
      <trkpt lat="50.09844" lon="-122.96088">
        <ele>989.4</ele>
        <time>2025-03-24T03:53:08-07:00</time>
      </trkpt>
      <trkpt lat="50.09878" lon="-122.96106">
        <ele>984.4</ele>
        <time>2025-03-24T03:53:11-07:00</time>
      </trkpt>
      <trkpt lat="50.09908" lon="-122.96182">
        <ele>980.6</ele>
        <time>2025-03-24T03:53:13-07:00</time>
      </trkpt>
      <trkpt lat="50.09932" lon="-122.9622">
        <ele>970.2</ele>
        <time>2025-03-24T03:53:15-07:00</time>
      </trkpt>
      <trkpt lat="50.09947" lon="-122.96226">
        <ele>965.8</ele>
        <time>2025-03-24T03:53:17-07:00</time>
      </trkpt>
      <trkpt lat="50.09972" lon="-122.96212">
        <ele>965.0</ele>
        <time>2025-03-24T03:53:18-07:00</time>
      </trkpt>
      <trkpt lat="50.09987" lon="-122.96178">
        <ele>959.4</ele>
        <time>2025-03-24T03:53:20-07:00</time>
      </trkpt>
      <trkpt lat="50.09988" lon="-122.96154">
        <ele>958.4</ele>
        <time>2025-03-24T03:53:21-07:00</time>
      </trkpt>
      <trkpt lat="50.09976" lon="-122.96112">
        <ele>959.2</ele>
        <time>2025-03-24T03:53:22-07:00</time>
      </trkpt>
      <trkpt lat="50.0994" lon="-122.96051">
        <ele>962.8</ele>
        <time>2025-03-24T03:53:25-07:00</time>
      </trkpt>
      <trkpt lat="50.09941" lon="-122.96037">
        <ele>962.8</ele>
        <time>2025-03-24T03:53:26-07:00</time>
      </trkpt>
      <trkpt lat="50.09964" lon="-122.96017">
        <ele>954.6</ele>
        <time>2025-03-24T03:53:27-07:00</time>
      </trkpt>
      <trkpt lat="50.09985" lon="-122.95985">
        <ele>948.9</ele>
        <time>2025-03-24T03:53:28-07:00</time>
      </trkpt>
      <trkpt lat="50.09974" lon="-122.95957">
        <ele>948.3</ele>
        <time>2025-03-24T03:53:29-07:00</time>
      </trkpt>
      <trkpt lat="50.09965" lon="-122.95904">
        <ele>953.3</ele>
        <time>2025-03-24T03:53:30-07:00</time>
      </trkpt>
      <trkpt lat="50.09968" lon="-122.95883">
        <ele>953.0</ele>
        <time>2025-03-24T03:53:31-07:00</time>
      </trkpt>
      <trkpt lat="50.09957" lon="-122.95843">
        <ele>953.0</ele>
        <time>2025-03-24T03:53:33-07:00</time>
      </trkpt>
      <trkpt lat="50.09975" lon="-122.95744">
        <ele>945.2</ele>
        <time>2025-03-24T03:53:36-07:00</time>
      </trkpt>
      <trkpt lat="50.09994" lon="-122.95744">
        <ele>945.2</ele>
        <time>2025-03-24T03:53:38-07:00</time>
      </trkpt>
      <trkpt lat="50.10011" lon="-122.95768">
        <ele>941.8</ele>
        <time>2025-03-24T03:53:40-07:00</time>
      </trkpt>
      <trkpt lat="50.10047" lon="-122.95767">
        <ele>940.8</ele>
        <time>2025-03-24T03:53:43-07:00</time>
      </trkpt>
      <trkpt lat="50.10076" lon="-122.95751">
        <ele>937.2</ele>
        <time>2025-03-24T03:53:44-07:00</time>
      </trkpt>
      <trkpt lat="50.10094" lon="-122.95703">
        <ele>936.6</ele>
        <time>2025-03-24T03:53:45-07:00</time>
      </trkpt>
      <trkpt lat="50.10106" lon="-122.95701">
        <ele>936.6</ele>
        <time>2025-03-24T03:53:47-07:00</time>
      </trkpt>
      <trkpt lat="50.10113" lon="-122.95784">
        <ele>928.0</ele>
        <time>2025-03-24T03:53:51-07:00</time>
      </trkpt>
      <trkpt lat="50.10136" lon="-122.95801">
        <ele>928.0</ele>
        <time>2025-03-24T03:53:53-07:00</time>
      </trkpt>
      <trkpt lat="50.10156" lon="-122.95782">
        <ele>923.4</ele>
        <time>2025-03-24T03:53:55-07:00</time>
      </trkpt>
      <trkpt lat="50.10161" lon="-122.95785">
        <ele>923.4</ele>
        <time>2025-03-24T03:53:56-07:00</time>
      </trkpt>
      <trkpt lat="50.10156" lon="-122.95836">
        <ele>920.4</ele>
        <time>2025-03-24T03:53:58-07:00</time>
      </trkpt>
      <trkpt lat="50.1016" lon="-122.95853">
        <ele>920.4</ele>
        <time>2025-03-24T03:53:59-07:00</time>
      </trkpt>
      <trkpt lat="50.1017" lon="-122.95859">
        <ele>913.8</ele>
        <time>2025-03-24T03:54:00-07:00</time>
      </trkpt>
      <trkpt lat="50.10191" lon="-122.95839">
        <ele>913.8</ele>
        <time>2025-03-24T03:54:02-07:00</time>
      </trkpt>
      <trkpt lat="50.10185" lon="-122.95807">
        <ele>916.6</ele>
        <time>2025-03-24T03:54:03-07:00</time>
      </trkpt>
      <trkpt lat="50.10194" lon="-122.9575">
        <ele>916.4</ele>
        <time>2025-03-24T03:54:05-07:00</time>
      </trkpt>
      <trkpt lat="50.102" lon="-122.9576">
        <ele>912.4</ele>
        <time>2025-03-24T03:54:07-07:00</time>
      </trkpt>
      <trkpt lat="50.10202" lon="-122.9581">
        <ele>909.8</ele>
        <time>2025-03-24T03:54:09-07:00</time>
      </trkpt>
      <trkpt lat="50.10218" lon="-122.95764">
        <ele>912.4</ele>
        <time>2025-03-24T03:54:12-07:00</time>
      </trkpt>
      <trkpt lat="50.10258" lon="-122.95784">
        <ele>902.4</ele>
        <time>2025-03-24T03:54:14-07:00</time>
      </trkpt>
      <trkpt lat="50.10299" lon="-122.95759">
        <ele>900.7</ele>
        <time>2025-03-24T03:54:16-07:00</time>
      </trkpt>
      <trkpt lat="50.10305" lon="-122.95766">
        <ele>900.7</ele>
        <time>2025-03-24T03:54:17-07:00</time>
      </trkpt>
      <trkpt lat="50.103" lon="-122.95783">
        <ele>898.0</ele>
        <time>2025-03-24T03:54:19-07:00</time>
      </trkpt>
      <trkpt lat="50.10265" lon="-122.95809">
        <ele>899.7</ele>
        <time>2025-03-24T03:54:22-07:00</time>
      </trkpt>
      <trkpt lat="50.10245" lon="-122.95844">
        <ele>902.3</ele>
        <time>2025-03-24T03:54:24-07:00</time>
      </trkpt>
      <trkpt lat="50.10254" lon="-122.95856">
        <ele>897.6</ele>
        <time>2025-03-24T03:54:26-07:00</time>
      </trkpt>
      <trkpt lat="50.10276" lon="-122.95841">
        <ele>897.6</ele>
        <time>2025-03-24T03:54:27-07:00</time>
      </trkpt>
      <trkpt lat="50.10288" lon="-122.95841">
        <ele>892.7</ele>
        <time>2025-03-24T03:54:28-07:00</time>
      </trkpt>
    </trkseg>
  </trk>
</gpx>