<?xml version="1.0" encoding="UTF-8"?>
<gpx xmlns="http://www.topografix.com/GPX/1/1" xmlns:xsi="http://www.w3.org/2001/XMLSchema-instance" xsi:schemaLocation="http://www.topografix.com/GPX/1/1 http://www.topografix.com/GPX/1/1/gpx.xsd" version="1.1" creator="gpx.py -- https://github.com/tkrajina/gpxpy">
  <trk>
    <trkseg>
      <trkpt lat="50.07678" lon="-122.96185">
        <ele>1443.0</ele>
        <time>2025-03-24T04:06:35-07:00</time>
      </trkpt>
      <trkpt lat="50.07678" lon="-122.96297">
        <ele>1433.3</ele>
        <time>2025-03-24T04:06:39-07:00</time>
      </trkpt>
      <trkpt lat="50.07681" lon="-122.96306">
        <ele>1429.9</ele>
        <time>2025-03-24T04:06:40-07:00</time>
      </trkpt>
      <trkpt lat="50.07687" lon="-122.96304">
        <ele>1433.3</ele>
        <time>2025-03-24T04:06:41-07:00</time>
      </trkpt>
      <trkpt lat="50.07689" lon="-122.9628">
        <ele>1433.3</ele>
        <time>2025-03-24T04:06:43-07:00</time>
      </trkpt>
      <trkpt lat="50.07695" lon="-122.96307">
        <ele>1425.3</ele>
        <time>2025-03-24T04:06:45-07:00</time>
      </trkpt>
      <trkpt lat="50.07676" lon="-122.96342">
        <ele>1428.3</ele>
        <time>2025-03-24T04:06:46-07:00</time>
      </trkpt>
      <trkpt lat="50.07653" lon="-122.96355">
        <ele>1434.4</ele>
        <time>2025-03-24T04:06:50-07:00</time>
      </trkpt>
      <trkpt lat="50.07646" lon="-122.96407">
        <ele>1425.2</ele>
        <time>2025-03-24T04:06:54-07:00</time>
      </trkpt>
      <trkpt lat="50.07662" lon="-122.96387">
        <ele>1430.2</ele>
        <time>2025-03-24T04:06:56-07:00</time>
      </trkpt>
      <trkpt lat="50.07663" lon="-122.96375">
        <ele>1430.2</ele>
        <time>2025-03-24T04:06:57-07:00</time>
      </trkpt>
      <trkpt lat="50.07687" lon="-122.96372">
        <ele>1421.2</ele>
        <time>2025-03-24T04:07:00-07:00</time>
      </trkpt>
      <trkpt lat="50.07703" lon="-122.96353">
        <ele>1423.8</ele>
        <time>2025-03-24T04:07:02-07:00</time>
      </trkpt>
      <trkpt lat="50.07727" lon="-122.96348">
        <ele>1415.3</ele>
        <time>2025-03-24T04:07:04-07:00</time>
      </trkpt>
      <trkpt lat="50.07736" lon="-122.96339">
        <ele>1415.3</ele>
        <time>2025-03-24T04:07:05-07:00</time>
      </trkpt>
      <trkpt lat="50.07734" lon="-122.96358">
        <ele>1415.3</ele>
        <time>2025-03-24T04:07:08-07:00</time>
      </trkpt>
      <trkpt lat="50.07697" lon="-122.96403">
        <ele>1407.0</ele>
        <time>2025-03-24T04:07:11-07:00</time>
      </trkpt>
      <trkpt lat="50.077" lon="-122.96413">
        <ele>1407.0</ele>
        <time>2025-03-24T04:07:12-07:00</time>
      </trkpt>
      <trkpt lat="50.07708" lon="-122.96413">
        <ele>1407.0</ele>
        <time>2025-03-24T04:07:13-07:00</time>
      </trkpt>
      <trkpt lat="50.07741" lon="-122.96393">
        <ele>1405.2</ele>
        <time>2025-03-24T04:07:15-07:00</time>
      </trkpt>
      <trkpt lat="50.07727" lon="-122.96424">
        <ele>1401.9</ele>
        <time>2025-03-24T04:07:18-07:00</time>
      </trkpt>
      <trkpt lat="50.07733" lon="-122.96436">
        <ele>1401.9</ele>
        <time>2025-03-24T04:07:20-07:00</time>
      </trkpt>
      <trkpt lat="50.07749" lon="-122.96427">
        <ele>1401.9</ele>
        <time>2025-03-24T04:07:22-07:00</time>
      </trkpt>
      <trkpt lat="50.07775" lon="-122.96396">
        <ele>1401.0</ele>
        <time>2025-03-24T04:07:23-07:00</time>
      </trkpt>
      <trkpt lat="50.07788" lon="-122.96423">
        <ele>1388.8</ele>
        <time>2025-03-24T04:07:27-07:00</time>
      </trkpt>
      <trkpt lat="50.07798" lon="-122.96369">
        <ele>1394.0</ele>
        <time>2025-03-24T04:07:30-07:00</time>
      </trkpt>
      <trkpt lat="50.07804" lon="-122.96378">
        <ele>1394.0</ele>
        <time>2025-03-24T04:07:32-07:00</time>
      </trkpt>
      <trkpt lat="50.07805" lon="-122.96432">
        <ele>1388.8</ele>
        <time>2025-03-24T04:07:36-07:00</time>
      </trkpt>
      <trkpt lat="50.07818" lon="-122.96384">
        <ele>1384.3</ele>
        <time>2025-03-24T04:07:38-07:00</time>
      </trkpt>
      <trkpt lat="50.07829" lon="-122.96391">
        <ele>1381.3</ele>
        <time>2025-03-24T04:07:40-07:00</time>
      </trkpt>
      <trkpt lat="50.07826" lon="-122.96445">
        <ele>1375.5</ele>
        <time>2025-03-24T04:07:44-07:00</time>
      </trkpt>
      <trkpt lat="50.07845" lon="-122.96413">
        <ele>1370.0</ele>
        <time>2025-03-24T04:07:45-07:00</time>
      </trkpt>
      <trkpt lat="50.0785" lon="-122.96384">
        <ele>1371.7</ele>
        <time>2025-03-24T04:07:46-07:00</time>
      </trkpt>
      <trkpt lat="50.07856" lon="-122.96386">
        <ele>1371.7</ele>
        <time>2025-03-24T04:07:48-07:00</time>
      </trkpt>
      <trkpt lat="50.07856" lon="-122.9643">
        <ele>1368.4</ele>
        <time>2025-03-24T04:07:53-07:00</time>
      </trkpt>
      <trkpt lat="50.07868" lon="-122.96386">
        <ele>1361.0</ele>
        <time>2025-03-24T04:07:56-07:00</time>
      </trkpt>
      <trkpt lat="50.07869" lon="-122.96434">
        <ele>1356.8</ele>
        <time>2025-03-24T04:07:59-07:00</time>
      </trkpt>
      <trkpt lat="50.07857" lon="-122.9647">
        <ele>1366.8</ele>
        <time>2025-03-24T04:08:02-07:00</time>
      </trkpt>
      <trkpt lat="50.07824" lon="-122.965">
        <ele>1371.1</ele>
        <time>2025-03-24T04:08:06-07:00</time>
      </trkpt>
      <trkpt lat="50.07803" lon="-122.96532">
        <ele>1362.0</ele>
        <time>2025-03-24T04:08:09-07:00</time>
      </trkpt>
      <trkpt lat="50.07786" lon="-122.96565">
        <ele>1354.7</ele>
        <time>2025-03-24T04:08:11-07:00</time>
      </trkpt>
      <trkpt lat="50.07782" lon="-122.9659">
        <ele>1345.6</ele>
        <time>2025-03-24T04:08:13-07:00</time>
      </trkpt>
      <trkpt lat="50.07786" lon="-122.96603">
        <ele>1345.6</ele>
        <time>2025-03-24T04:08:14-07:00</time>
      </trkpt>
      <trkpt lat="50.07794" lon="-122.96605">
        <ele>1345.6</ele>
        <time>2025-03-24T04:08:16-07:00</time>
      </trkpt>
      <trkpt lat="50.07824" lon="-122.96571">
        <ele>1352.2</ele>
        <time>2025-03-24T04:08:18-07:00</time>
      </trkpt>
      <trkpt lat="50.07882" lon="-122.96538">
        <ele>1344.0</ele>
        <time>2025-03-24T04:08:20-07:00</time>
      </trkpt>
      <trkpt lat="50.07913" lon="-122.96491">
        <ele>1340.6</ele>
        <time>2025-03-24T04:08:29-07:00</time>
      </trkpt>
      <trkpt lat="50.07927" lon="-122.96488">
        <ele>1328.0</ele>
        <time>2025-03-24T04:08:33-07:00</time>
      </trkpt>
      <trkpt lat="50.07908" lon="-122.96546">
        <ele>1333.2</ele>
        <time>2025-03-24T04:08:41-07:00</time>
      </trkpt>
      <trkpt lat="50.07903" lon="-122.966">
        <ele>1324.7</ele>
        <time>2025-03-24T04:08:48-07:00</time>
      </trkpt>
      <trkpt lat="50.07905" lon="-122.96609">
        <ele>1324.7</ele>
        <time>2025-03-24T04:08:50-07:00</time>
      </trkpt>
      <trkpt lat="50.07918" lon="-122.96606">
        <ele>1315.0</ele>
        <time>2025-03-24T04:08:55-07:00</time>
      </trkpt>
      <trkpt lat="50.07916" lon="-122.96624">
        <ele>1317.4</ele>
        <time>2025-03-24T04:08:58-07:00</time>
      </trkpt>
      <trkpt lat="50.079" lon="-122.96636">
        <ele>1317.4</ele>
        <time>2025-03-24T04:09:02-07:00</time>
      </trkpt>
      <trkpt lat="50.079" lon="-122.96645">
        <ele>1311.3</ele>
        <time>2025-03-24T04:09:05-07:00</time>
      </trkpt>
      <trkpt lat="50.07914" lon="-122.96648">
        <ele>1311.3</ele>
        <time>2025-03-24T04:09:08-07:00</time>
      </trkpt>
      <trkpt lat="50.07926" lon="-122.96642">
        <ele>1304.9</ele>
        <time>2025-03-24T04:09:10-07:00</time>
      </trkpt>
      <trkpt lat="50.07949" lon="-122.96588">
        <ele>1302.5</ele>
        <time>2025-03-24T04:09:18-07:00</time>
      </trkpt>
      <trkpt lat="50.07949" lon="-122.96612">
        <ele>1297.0</ele>
        <time>2025-03-24T04:09:22-07:00</time>
      </trkpt>
      <trkpt lat="50.0796" lon="-122.96596">
        <ele>1302.5</ele>
        <time>2025-03-24T04:09:26-07:00</time>
      </trkpt>
      <trkpt lat="50.07967" lon="-122.96604">
        <ele>1302.5</ele>
        <time>2025-03-24T04:09:29-07:00</time>
      </trkpt>
      <trkpt lat="50.0793" lon="-122.96711">
        <ele>1295.4</ele>
        <time>2025-03-24T04:09:39-07:00</time>
      </trkpt>
      <trkpt lat="50.07902" lon="-122.96733">
        <ele>1291.3</ele>
        <time>2025-03-24T04:09:44-07:00</time>
      </trkpt>
      <trkpt lat="50.07921" lon="-122.96757">
        <ele>1284.1</ele>
        <time>2025-03-24T04:09:49-07:00</time>
      </trkpt>
      <trkpt lat="50.07953" lon="-122.96756">
        <ele>1279.1</ele>
        <time>2025-03-24T04:09:53-07:00</time>
      </trkpt>
      <trkpt lat="50.0798" lon="-122.96742">
        <ele>1273.8</ele>
        <time>2025-03-24T04:09:57-07:00</time>
      </trkpt>
      <trkpt lat="50.07998" lon="-122.96713">
        <ele>1277.8</ele>
        <time>2025-03-24T04:10:02-07:00</time>
      </trkpt>
      <trkpt lat="50.08004" lon="-122.96717">
        <ele>1268.9</ele>
        <time>2025-03-24T04:10:04-07:00</time>
      </trkpt>
      <trkpt lat="50.07997" lon="-122.96734">
        <ele>1273.8</ele>
        <time>2025-03-24T04:10:07-07:00</time>
      </trkpt>
      <trkpt lat="50.08001" lon="-122.9674">
        <ele>1264.8</ele>
        <time>2025-03-24T04:10:09-07:00</time>
      </trkpt>
      <trkpt lat="50.08025" lon="-122.96724">
        <ele>1264.8</ele>
        <time>2025-03-24T04:10:15-07:00</time>
      </trkpt>
      <trkpt lat="50.08025" lon="-122.96742">
        <ele>1264.8</ele>
        <time>2025-03-24T04:10:18-07:00</time>
      </trkpt>
      <trkpt lat="50.07994" lon="-122.9678">
        <ele>1265.8</ele>
        <time>2025-03-24T04:10:24-07:00</time>
      </trkpt>
      <trkpt lat="50.07995" lon="-122.96787">
        <ele>1265.8</ele>
        <time>2025-03-24T04:10:26-07:00</time>
      </trkpt>
      <trkpt lat="50.08015" lon="-122.9678">
        <ele>1257.7</ele>
        <time>2025-03-24T04:10:31-07:00</time>
      </trkpt>
      <trkpt lat="50.08017" lon="-122.96785">
        <ele>1257.7</ele>
        <time>2025-03-24T04:10:32-07:00</time>
      </trkpt>
      <trkpt lat="50.07993" lon="-122.96836">
        <ele>1254.9</ele>
        <time>2025-03-24T04:10:40-07:00</time>
      </trkpt>
      <trkpt lat="50.08" lon="-122.96837">
        <ele>1244.5</ele>
        <time>2025-03-24T04:10:42-07:00</time>
      </trkpt>
      <trkpt lat="50.08016" lon="-122.96822">
        <ele>1251.4</ele>
        <time>2025-03-24T04:10:46-07:00</time>
      </trkpt>
      <trkpt lat="50.08024" lon="-122.96833">
        <ele>1251.4</ele>
        <time>2025-03-24T04:10:49-07:00</time>
      </trkpt>
      <trkpt lat="50.08049" lon="-122.96827">
        <ele>1237.1</ele>
        <time>2025-03-24T04:10:53-07:00</time>
      </trkpt>
      <trkpt lat="50.08095" lon="-122.96776">
        <ele>1234.3</ele>
        <time>2025-03-24T04:11:01-07:00</time>
      </trkpt>
      <trkpt lat="50.08124" lon="-122.96765">
        <ele>1241.2</ele>
        <time>2025-03-24T04:11:06-07:00</time>
      </trkpt>
      <trkpt lat="50.0815" lon="-122.96744">
        <ele>1238.5</ele>
        <time>2025-03-24T04:11:12-07:00</time>
      </trkpt>
      <trkpt lat="50.08153" lon="-122.96754">
        <ele>1231.5</ele>
        <time>2025-03-24T04:11:15-07:00</time>
      </trkpt>
      <trkpt lat="50.08135" lon="-122.96779">
        <ele>1229.0</ele>
        <time>2025-03-24T04:11:21-07:00</time>
      </trkpt>
      <trkpt lat="50.08152" lon="-122.9678">
        <ele>1225.2</ele>
        <time>2025-03-24T04:11:25-07:00</time>
      </trkpt>
      <trkpt lat="50.08163" lon="-122.96769">
        <ele>1231.5</ele>
        <time>2025-03-24T04:11:28-07:00</time>
      </trkpt>
      <trkpt lat="50.08157" lon="-122.96794">
        <ele>1225.2</ele>
        <time>2025-03-24T04:11:33-07:00</time>
      </trkpt>
      <trkpt lat="50.08142" lon="-122.96798">
        <ele>1225.2</ele>
        <time>2025-03-24T04:11:37-07:00</time>
      </trkpt>
      <trkpt lat="50.08156" lon="-122.96804">
        <ele>1225.2</ele>
        <time>2025-03-24T04:11:41-07:00</time>
      </trkpt>
      <trkpt lat="50.08167" lon="-122.96797">
        <ele>1217.7</ele>
        <time>2025-03-24T04:11:44-07:00</time>
      </trkpt>
      <trkpt lat="50.08169" lon="-122.96803">
        <ele>1217.7</ele>
        <time>2025-03-24T04:11:46-07:00</time>
      </trkpt>
      <trkpt lat="50.08145" lon="-122.96825">
        <ele>1219.0</ele>
        <time>2025-03-24T04:11:53-07:00</time>
      </trkpt>
      <trkpt lat="50.08171" lon="-122.96826">
        <ele>1212.8</ele>
        <time>2025-03-24T04:11:59-07:00</time>
      </trkpt>
      <trkpt lat="50.08183" lon="-122.96809">
        <ele>1212.8</ele>
        <time>2025-03-24T04:12:02-07:00</time>
      </trkpt>
      <trkpt lat="50.08191" lon="-122.9681">
        <ele>1212.8</ele>
        <time>2025-03-24T04:12:04-07:00</time>
      </trkpt>
      <trkpt lat="50.08155" lon="-122.96866">
        <ele>1202.8</ele>
        <time>2025-03-24T04:12:13-07:00</time>
      </trkpt>
      <trkpt lat="50.08163" lon="-122.9688">
        <ele>1202.8</ele>
        <time>2025-03-24T04:12:16-07:00</time>
      </trkpt>
      <trkpt lat="50.08178" lon="-122.9687">
        <ele>1201.3</ele>
        <time>2025-03-24T04:12:19-07:00</time>
      </trkpt>
      <trkpt lat="50.08199" lon="-122.96877">
        <ele>1196.0</ele>
        <time>2025-03-24T04:12:23-07:00</time>
      </trkpt>
      <trkpt lat="50.08222" lon="-122.96862">
        <ele>1196.0</ele>
        <time>2025-03-24T04:12:28-07:00</time>
      </trkpt>
      <trkpt lat="50.08235" lon="-122.96825">
        <ele>1200.6</ele>
        <time>2025-03-24T04:12:34-07:00</time>
      </trkpt>
      <trkpt lat="50.0827" lon="-122.96847">
        <ele>1189.1</ele>
        <time>2025-03-24T04:12:41-07:00</time>
      </trkpt>
      <trkpt lat="50.08296" lon="-122.96826">
        <ele>1186.5</ele>
        <time>2025-03-24T04:12:46-07:00</time>
      </trkpt>
    </trkseg>
  </trk>
</gpx>