<?xml version="1.0" encoding="UTF-8"?>
<gpx xmlns="http://www.topografix.com/GPX/1/1" xmlns:xsi="http://www.w3.org/2001/XMLSchema-instance" xsi:schemaLocation="http://www.topografix.com/GPX/1/1 http://www.topografix.com/GPX/1/1/gpx.xsd" version="1.1" creator="gpx.py -- https://github.com/tkrajina/gpxpy">
  <trk>
    <trkseg>
      <trkpt lat="50.05664" lon="-122.9554">
        <ele>2132.6</ele>
        <time>2025-03-24T04:07:33-07:00</time>
      </trkpt>
      <trkpt lat="50.05645" lon="-122.95548">
        <ele>2132.6</ele>
        <time>2025-03-24T04:07:35-07:00</time>
      </trkpt>
      <trkpt lat="50.05643" lon="-122.9556">
        <ele>2121.7</ele>
        <time>2025-03-24T04:07:37-07:00</time>
      </trkpt>
      <trkpt lat="50.0568" lon="-122.95603">
        <ele>2120.7</ele>
        <time>2025-03-24T04:07:44-07:00</time>
      </trkpt>
      <trkpt lat="50.05682" lon="-122.95621">
        <ele>2110.5</ele>
        <time>2025-03-24T04:07:46-07:00</time>
      </trkpt>
      <trkpt lat="50.05677" lon="-122.95641">
        <ele>2104.3</ele>
        <time>2025-03-24T04:07:48-07:00</time>
      </trkpt>
      <trkpt lat="50.05651" lon="-122.95657">
        <ele>2094.8</ele>
        <time>2025-03-24T04:07:53-07:00</time>
      </trkpt>
      <trkpt lat="50.05662" lon="-122.95678">
        <ele>2088.6</ele>
        <time>2025-03-24T04:07:58-07:00</time>
      </trkpt>
      <trkpt lat="50.05635" lon="-122.95683">
        <ele>2077.8</ele>
        <time>2025-03-24T04:08:03-07:00</time>
      </trkpt>
      <trkpt lat="50.05636" lon="-122.9569">
        <ele>2077.8</ele>
        <time>2025-03-24T04:08:04-07:00</time>
      </trkpt>
      <trkpt lat="50.05672" lon="-122.95713">
        <ele>2092.7</ele>
        <time>2025-03-24T04:08:09-07:00</time>
      </trkpt>
      <trkpt lat="50.05675" lon="-122.95745">
        <ele>2088.1</ele>
        <time>2025-03-24T04:08:11-07:00</time>
      </trkpt>
      <trkpt lat="50.05635" lon="-122.95863">
        <ele>2060.0</ele>
        <time>2025-03-24T04:08:24-07:00</time>
      </trkpt>
      <trkpt lat="50.05625" lon="-122.95853">
        <ele>2062.7</ele>
        <time>2025-03-24T04:08:27-07:00</time>
      </trkpt>
      <trkpt lat="50.05621" lon="-122.95819">
        <ele>2064.8</ele>
        <time>2025-03-24T04:08:31-07:00</time>
      </trkpt>
      <trkpt lat="50.05612" lon="-122.95831">
        <ele>2064.8</ele>
        <time>2025-03-24T04:08:34-07:00</time>
      </trkpt>
      <trkpt lat="50.05613" lon="-122.95859">
        <ele>2062.7</ele>
        <time>2025-03-24T04:08:36-07:00</time>
      </trkpt>
      <trkpt lat="50.056" lon="-122.95841">
        <ele>2048.5</ele>
        <time>2025-03-24T04:08:41-07:00</time>
      </trkpt>
      <trkpt lat="50.05594" lon="-122.95846">
        <ele>2048.5</ele>
        <time>2025-03-24T04:08:43-07:00</time>
      </trkpt>
      <trkpt lat="50.05591" lon="-122.95951">
        <ele>2037.0</ele>
        <time>2025-03-24T04:08:49-07:00</time>
      </trkpt>
      <trkpt lat="50.05587" lon="-122.95941">
        <ele>2039.8</ele>
        <time>2025-03-24T04:08:51-07:00</time>
      </trkpt>
      <trkpt lat="50.05582" lon="-122.95945">
        <ele>2024.2</ele>
        <time>2025-03-24T04:08:53-07:00</time>
      </trkpt>
      <trkpt lat="50.05583" lon="-122.96006">
        <ele>2021.0</ele>
        <time>2025-03-24T04:08:56-07:00</time>
      </trkpt>
      <trkpt lat="50.05544" lon="-122.95878">
        <ele>2017.0</ele>
        <time>2025-03-24T04:09:06-07:00</time>
      </trkpt>
      <trkpt lat="50.05529" lon="-122.95861">
        <ele>2018.4</ele>
        <time>2025-03-24T04:09:08-07:00</time>
      </trkpt>
      <trkpt lat="50.05507" lon="-122.95866">
        <ele>2005.0</ele>
        <time>2025-03-24T04:09:12-07:00</time>
      </trkpt>
      <trkpt lat="50.0551" lon="-122.95836">
        <ele>2007.6</ele>
        <time>2025-03-24T04:09:17-07:00</time>
      </trkpt>
      <trkpt lat="50.05494" lon="-122.95849">
        <ele>1997.2</ele>
        <time>2025-03-24T04:09:20-07:00</time>
      </trkpt>
      <trkpt lat="50.0548" lon="-122.95888">
        <ele>1994.8</ele>
        <time>2025-03-24T04:09:23-07:00</time>
      </trkpt>
      <trkpt lat="50.05503" lon="-122.95958">
        <ele>1999.9</ele>
        <time>2025-03-24T04:09:29-07:00</time>
      </trkpt>
      <trkpt lat="50.05502" lon="-122.96">
        <ele>1995.9</ele>
        <time>2025-03-24T04:09:31-07:00</time>
      </trkpt>
      <trkpt lat="50.05524" lon="-122.96077">
        <ele>1978.8</ele>
        <time>2025-03-24T04:09:35-07:00</time>
      </trkpt>
      <trkpt lat="50.0556" lon="-122.96146">
        <ele>1981.0</ele>
        <time>2025-03-24T04:09:39-07:00</time>
      </trkpt>
      <trkpt lat="50.05606" lon="-122.96191">
        <ele>1984.6</ele>
        <time>2025-03-24T04:09:43-07:00</time>
      </trkpt>
      <trkpt lat="50.05638" lon="-122.96262">
        <ele>1973.4</ele>
        <time>2025-03-24T04:09:47-07:00</time>
      </trkpt>
      <trkpt lat="50.05661" lon="-122.96289">
        <ele>1980.4</ele>
        <time>2025-03-24T04:09:49-07:00</time>
      </trkpt>
      <trkpt lat="50.05697" lon="-122.96364">
        <ele>1984.0</ele>
        <time>2025-03-24T04:09:51-07:00</time>
      </trkpt>
      <trkpt lat="50.05704" lon="-122.96403">
        <ele>1977.2</ele>
        <time>2025-03-24T04:09:54-07:00</time>
      </trkpt>
      <trkpt lat="50.05737" lon="-122.96493">
        <ele>1975.5</ele>
        <time>2025-03-24T04:09:58-07:00</time>
      </trkpt>
      <trkpt lat="50.05745" lon="-122.96548">
        <ele>1971.6</ele>
        <time>2025-03-24T04:10:00-07:00</time>
      </trkpt>
      <trkpt lat="50.05703" lon="-122.96623">
        <ele>1957.0</ele>
        <time>2025-03-24T04:10:04-07:00</time>
      </trkpt>
      <trkpt lat="50.05694" lon="-122.96668">
        <ele>1949.0</ele>
        <time>2025-03-24T04:10:06-07:00</time>
      </trkpt>
      <trkpt lat="50.05703" lon="-122.9672">
        <ele>1955.0</ele>
        <time>2025-03-24T04:10:12-07:00</time>
      </trkpt>
      <trkpt lat="50.05737" lon="-122.96733">
        <ele>1953.2</ele>
        <time>2025-03-24T04:10:19-07:00</time>
      </trkpt>
      <trkpt lat="50.05741" lon="-122.96778">
        <ele>1943.5</ele>
        <time>2025-03-24T04:10:24-07:00</time>
      </trkpt>
      <trkpt lat="50.05752" lon="-122.96805">
        <ele>1947.7</ele>
        <time>2025-03-24T04:10:27-07:00</time>
      </trkpt>
      <trkpt lat="50.05769" lon="-122.96819">
        <ele>1939.6</ele>
        <time>2025-03-24T04:10:29-07:00</time>
      </trkpt>
      <trkpt lat="50.05805" lon="-122.96833">
        <ele>1938.9</ele>
        <time>2025-03-24T04:10:31-07:00</time>
      </trkpt>
      <trkpt lat="50.05826" lon="-122.96833">
        <ele>1937.5</ele>
        <time>2025-03-24T04:10:33-07:00</time>
      </trkpt>
      <trkpt lat="50.05863" lon="-122.96852">
        <ele>1928.1</ele>
        <time>2025-03-24T04:10:37-07:00</time>
      </trkpt>
      <trkpt lat="50.05882" lon="-122.96848">
        <ele>1928.1</ele>
        <time>2025-03-24T04:10:39-07:00</time>
      </trkpt>
      <trkpt lat="50.05907" lon="-122.96855">
        <ele>1925.8</ele>
        <time>2025-03-24T04:10:43-07:00</time>
      </trkpt>
      <trkpt lat="50.05902" lon="-122.96873">
        <ele>1917.1</ele>
        <time>2025-03-24T04:10:46-07:00</time>
      </trkpt>
      <trkpt lat="50.0584" lon="-122.9691">
        <ele>1913.3</ele>
        <time>2025-03-24T04:10:53-07:00</time>
      </trkpt>
      <trkpt lat="50.05832" lon="-122.96922">
        <ele>1906.9</ele>
        <time>2025-03-24T04:10:55-07:00</time>
      </trkpt>
      <trkpt lat="50.05825" lon="-122.96964">
        <ele>1898.5</ele>
        <time>2025-03-24T04:10:58-07:00</time>
      </trkpt>
      <trkpt lat="50.05803" lon="-122.96987">
        <ele>1891.4</ele>
        <time>2025-03-24T04:11:01-07:00</time>
      </trkpt>
      <trkpt lat="50.05763" lon="-122.96978">
        <ele>1893.0</ele>
        <time>2025-03-24T04:11:04-07:00</time>
      </trkpt>
      <trkpt lat="50.05686" lon="-122.96974">
        <ele>1884.9</ele>
        <time>2025-03-24T04:11:10-07:00</time>
      </trkpt>
      <trkpt lat="50.05683" lon="-122.97009">
        <ele>1883.3</ele>
        <time>2025-03-24T04:11:14-07:00</time>
      </trkpt>
      <trkpt lat="50.0568" lon="-122.97014">
        <ele>1883.3</ele>
        <time>2025-03-24T04:11:15-07:00</time>
      </trkpt>
      <trkpt lat="50.05669" lon="-122.9701">
        <ele>1883.3</ele>
        <time>2025-03-24T04:11:17-07:00</time>
      </trkpt>
      <trkpt lat="50.05661" lon="-122.97019">
        <ele>1874.2</ele>
        <time>2025-03-24T04:11:19-07:00</time>
      </trkpt>
      <trkpt lat="50.05656" lon="-122.97064">
        <ele>1869.6</ele>
        <time>2025-03-24T04:11:22-07:00</time>
      </trkpt>
      <trkpt lat="50.05669" lon="-122.97147">
        <ele>1871.1</ele>
        <time>2025-03-24T04:11:24-07:00</time>
      </trkpt>
      <trkpt lat="50.05646" lon="-122.97243">
        <ele>1858.3</ele>
        <time>2025-03-24T04:11:29-07:00</time>
      </trkpt>
      <trkpt lat="50.05648" lon="-122.97271">
        <ele>1854.4</ele>
        <time>2025-03-24T04:11:32-07:00</time>
      </trkpt>
      <trkpt lat="50.05632" lon="-122.97262">
        <ele>1846.4</ele>
        <time>2025-03-24T04:11:36-07:00</time>
      </trkpt>
      <trkpt lat="50.05629" lon="-122.97267">
        <ele>1846.4</ele>
        <time>2025-03-24T04:11:37-07:00</time>
      </trkpt>
      <trkpt lat="50.05629" lon="-122.97372">
        <ele>1835.0</ele>
        <time>2025-03-24T04:11:43-07:00</time>
      </trkpt>
      <trkpt lat="50.05685" lon="-122.97429">
        <ele>1830.5</ele>
        <time>2025-03-24T04:11:48-07:00</time>
      </trkpt>
      <trkpt lat="50.05728" lon="-122.97515">
        <ele>1820.7</ele>
        <time>2025-03-24T04:11:54-07:00</time>
      </trkpt>
      <trkpt lat="50.05787" lon="-122.97556">
        <ele>1817.0</ele>
        <time>2025-03-24T04:12:00-07:00</time>
      </trkpt>
      <trkpt lat="50.05829" lon="-122.97664">
        <ele>1809.4</ele>
        <time>2025-03-24T04:12:08-07:00</time>
      </trkpt>
      <trkpt lat="50.0584" lon="-122.97674">
        <ele>1797.9</ele>
        <time>2025-03-24T04:12:10-07:00</time>
      </trkpt>
      <trkpt lat="50.05861" lon="-122.97664">
        <ele>1801.7</ele>
        <time>2025-03-24T04:12:14-07:00</time>
      </trkpt>
      <trkpt lat="50.05873" lon="-122.97644">
        <ele>1801.5</ele>
        <time>2025-03-24T04:12:16-07:00</time>
      </trkpt>
      <trkpt lat="50.05892" lon="-122.97638">
        <ele>1799.5</ele>
        <time>2025-03-24T04:12:20-07:00</time>
      </trkpt>
      <trkpt lat="50.05901" lon="-122.97624">
        <ele>1799.5</ele>
        <time>2025-03-24T04:12:22-07:00</time>
      </trkpt>
      <trkpt lat="50.05924" lon="-122.97626">
        <ele>1788.5</ele>
        <time>2025-03-24T04:12:25-07:00</time>
      </trkpt>
      <trkpt lat="50.05913" lon="-122.97592">
        <ele>1795.4</ele>
        <time>2025-03-24T04:12:29-07:00</time>
      </trkpt>
      <trkpt lat="50.05889" lon="-122.97578">
        <ele>1789.1</ele>
        <time>2025-03-24T04:12:32-07:00</time>
      </trkpt>
      <trkpt lat="50.05892" lon="-122.97564">
        <ele>1789.1</ele>
        <time>2025-03-24T04:12:34-07:00</time>
      </trkpt>
      <trkpt lat="50.05904" lon="-122.97557">
        <ele>1789.1</ele>
        <time>2025-03-24T04:12:36-07:00</time>
      </trkpt>
      <trkpt lat="50.0595" lon="-122.97574">
        <ele>1766.2</ele>
        <time>2025-03-24T04:12:40-07:00</time>
      </trkpt>
      <trkpt lat="50.0597" lon="-122.97605">
        <ele>1773.4</ele>
        <time>2025-03-24T04:12:44-07:00</time>
      </trkpt>
      <trkpt lat="50.05972" lon="-122.97585">
        <ele>1773.4</ele>
        <time>2025-03-24T04:12:47-07:00</time>
      </trkpt>
      <trkpt lat="50.06002" lon="-122.97653">
        <ele>1761.2</ele>
        <time>2025-03-24T04:12:54-07:00</time>
      </trkpt>
      <trkpt lat="50.06007" lon="-122.97606">
        <ele>1744.7</ele>
        <time>2025-03-24T04:12:57-07:00</time>
      </trkpt>
      <trkpt lat="50.05976" lon="-122.97544">
        <ele>1744.0</ele>
        <time>2025-03-24T04:13:00-07:00</time>
      </trkpt>
      <trkpt lat="50.05977" lon="-122.97531">
        <ele>1744.0</ele>
        <time>2025-03-24T04:13:02-07:00</time>
      </trkpt>
      <trkpt lat="50.06002" lon="-122.97563">
        <ele>1737.9</ele>
        <time>2025-03-24T04:13:05-07:00</time>
      </trkpt>
      <trkpt lat="50.0601" lon="-122.97562">
        <ele>1737.9</ele>
        <time>2025-03-24T04:13:07-07:00</time>
      </trkpt>
      <trkpt lat="50.06002" lon="-122.97544">
        <ele>1732.8</ele>
        <time>2025-03-24T04:13:08-07:00</time>
      </trkpt>
      <trkpt lat="50.06008" lon="-122.97539">
        <ele>1732.8</ele>
        <time>2025-03-24T04:13:10-07:00</time>
      </trkpt>
      <trkpt lat="50.06039" lon="-122.97567">
        <ele>1730.0</ele>
        <time>2025-03-24T04:13:16-07:00</time>
      </trkpt>
      <trkpt lat="50.06029" lon="-122.97505">
        <ele>1724.2</ele>
        <time>2025-03-24T04:13:22-07:00</time>
      </trkpt>
      <trkpt lat="50.06036" lon="-122.97486">
        <ele>1722.4</ele>
        <time>2025-03-24T04:13:24-07:00</time>
      </trkpt>
      <trkpt lat="50.06111" lon="-122.97446">
        <ele>1714.9</ele>
        <time>2025-03-24T04:13:29-07:00</time>
      </trkpt>
      <trkpt lat="50.06157" lon="-122.9741">
        <ele>1712.4</ele>
        <time>2025-03-24T04:13:32-07:00</time>
      </trkpt>
      <trkpt lat="50.06181" lon="-122.9737">
        <ele>1702.6</ele>
        <time>2025-03-24T04:13:34-07:00</time>
      </trkpt>
      <trkpt lat="50.06252" lon="-122.97285">
        <ele>1689.3</ele>
        <time>2025-03-24T04:13:38-07:00</time>
      </trkpt>
      <trkpt lat="50.06348" lon="-122.97124">
        <ele>1685.1</ele>
        <time>2025-03-24T04:13:42-07:00</time>
      </trkpt>
      <trkpt lat="50.06367" lon="-122.97081">
        <ele>1685.6</ele>
        <time>2025-03-24T04:13:43-07:00</time>
      </trkpt>
      <trkpt lat="50.06447" lon="-122.97003">
        <ele>1672.2</ele>
        <time>2025-03-24T04:13:48-07:00</time>
      </trkpt>
      <trkpt lat="50.06483" lon="-122.96977">
        <ele>1668.0</ele>
        <time>2025-03-24T04:13:50-07:00</time>
      </trkpt>
      <trkpt lat="50.06657" lon="-122.96882">
        <ele>1660.6</ele>
        <time>2025-03-24T04:13:56-07:00</time>
      </trkpt>
      <trkpt lat="50.06731" lon="-122.96876">
        <ele>1650.2</ele>
        <time>2025-03-24T04:13:58-07:00</time>
      </trkpt>
      <trkpt lat="50.06769" lon="-122.96881">
        <ele>1647.9</ele>
        <time>2025-03-24T04:13:59-07:00</time>
      </trkpt>
      <trkpt lat="50.06831" lon="-122.96855">
        <ele>1640.0</ele>
        <time>2025-03-24T04:14:01-07:00</time>
      </trkpt>
      <trkpt lat="50.06851" lon="-122.96842">
        <ele>1635.6</ele>
        <time>2025-03-24T04:14:02-07:00</time>
      </trkpt>
      <trkpt lat="50.069" lon="-122.96772">
        <ele>1642.2</ele>
        <time>2025-03-24T04:14:06-07:00</time>
      </trkpt>
      <trkpt lat="50.06929" lon="-122.96761">
        <ele>1628.6</ele>
        <time>2025-03-24T04:14:08-07:00</time>
      </trkpt>
      <trkpt lat="50.06979" lon="-122.96699">
        <ele>1623.7</ele>
        <time>2025-03-24T04:14:13-07:00</time>
      </trkpt>
      <trkpt lat="50.07003" lon="-122.96681">
        <ele>1622.4</ele>
        <time>2025-03-24T04:14:15-07:00</time>
      </trkpt>
      <trkpt lat="50.07011" lon="-122.96656">
        <ele>1623.2</ele>
        <time>2025-03-24T04:14:17-07:00</time>
      </trkpt>
      <trkpt lat="50.07082" lon="-122.9661">
        <ele>1613.1</ele>
        <time>2025-03-24T04:14:21-07:00</time>
      </trkpt>
      <trkpt lat="50.07122" lon="-122.96618">
        <ele>1606.0</ele>
        <time>2025-03-24T04:14:23-07:00</time>
      </trkpt>
      <trkpt lat="50.07171" lon="-122.96655">
        <ele>1594.1</ele>
        <time>2025-03-24T04:14:27-07:00</time>
      </trkpt>
      <trkpt lat="50.0716" lon="-122.96594">
        <ele>1593.0</ele>
        <time>2025-03-24T04:14:31-07:00</time>
      </trkpt>
      <trkpt lat="50.07193" lon="-122.96636">
        <ele>1587.8</ele>
        <time>2025-03-24T04:14:38-07:00</time>
      </trkpt>
      <trkpt lat="50.07199" lon="-122.96624">
        <ele>1578.0</ele>
        <time>2025-03-24T04:14:40-07:00</time>
      </trkpt>
      <trkpt lat="50.07191" lon="-122.96595">
        <ele>1583.4</ele>
        <time>2025-03-24T04:14:42-07:00</time>
      </trkpt>
      <trkpt lat="50.072" lon="-122.96584">
        <ele>1575.6</ele>
        <time>2025-03-24T04:14:45-07:00</time>
      </trkpt>
      <trkpt lat="50.07212" lon="-122.96592">
        <ele>1575.6</ele>
        <time>2025-03-24T04:14:47-07:00</time>
      </trkpt>
      <trkpt lat="50.07244" lon="-122.96648">
        <ele>1573.7</ele>
        <time>2025-03-24T04:14:51-07:00</time>
      </trkpt>
      <trkpt lat="50.07265" lon="-122.9666">
        <ele>1563.7</ele>
        <time>2025-03-24T04:14:54-07:00</time>
      </trkpt>
      <trkpt lat="50.07259" lon="-122.9661">
        <ele>1558.3</ele>
        <time>2025-03-24T04:14:58-07:00</time>
      </trkpt>
      <trkpt lat="50.07268" lon="-122.96537">
        <ele>1554.5</ele>
        <time>2025-03-24T04:15:04-07:00</time>
      </trkpt>
      <trkpt lat="50.07278" lon="-122.96551">
        <ele>1542.0</ele>
        <time>2025-03-24T04:15:06-07:00</time>
      </trkpt>
      <trkpt lat="50.07296" lon="-122.96614">
        <ele>1548.0</ele>
        <time>2025-03-24T04:15:11-07:00</time>
      </trkpt>
      <trkpt lat="50.07304" lon="-122.96605">
        <ele>1545.3</ele>
        <time>2025-03-24T04:15:13-07:00</time>
      </trkpt>
      <trkpt lat="50.07312" lon="-122.96565">
        <ele>1527.4</ele>
        <time>2025-03-24T04:15:15-07:00</time>
      </trkpt>
      <trkpt lat="50.07327" lon="-122.96614">
        <ele>1535.5</ele>
        <time>2025-03-24T04:15:20-07:00</time>
      </trkpt>
      <trkpt lat="50.07352" lon="-122.96643">
        <ele>1524.2</ele>
        <time>2025-03-24T04:15:22-07:00</time>
      </trkpt>
      <trkpt lat="50.07345" lon="-122.9659">
        <ele>1518.8</ele>
        <time>2025-03-24T04:15:27-07:00</time>
      </trkpt>
      <trkpt lat="50.07347" lon="-122.96578">
        <ele>1514.6</ele>
        <time>2025-03-24T04:15:28-07:00</time>
      </trkpt>
      <trkpt lat="50.07357" lon="-122.96593">
        <ele>1518.8</ele>
        <time>2025-03-24T04:15:31-07:00</time>
      </trkpt>
      <trkpt lat="50.0736" lon="-122.96577">
        <ele>1514.6</ele>
        <time>2025-03-24T04:15:33-07:00</time>
      </trkpt>
      <trkpt lat="50.07347" lon="-122.96524">
        <ele>1510.6</ele>
        <time>2025-03-24T04:15:35-07:00</time>
      </trkpt>
      <trkpt lat="50.0738" lon="-122.96513">
        <ele>1498.7</ele>
        <time>2025-03-24T04:15:40-07:00</time>
      </trkpt>
      <trkpt lat="50.07384" lon="-122.96486">
        <ele>1503.5</ele>
        <time>2025-03-24T04:15:44-07:00</time>
      </trkpt>
      <trkpt lat="50.07394" lon="-122.96501">
        <ele>1490.8</ele>
        <time>2025-03-24T04:15:47-07:00</time>
      </trkpt>
      <trkpt lat="50.07434" lon="-122.96455">
        <ele>1489.8</ele>
        <time>2025-03-24T04:15:51-07:00</time>
      </trkpt>
      <trkpt lat="50.07464" lon="-122.96441">
        <ele>1490.3</ele>
        <time>2025-03-24T04:15:53-07:00</time>
      </trkpt>
      <trkpt lat="50.07527" lon="-122.9644">
        <ele>1481.6</ele>
        <time>2025-03-24T04:15:59-07:00</time>
      </trkpt>
      <trkpt lat="50.07552" lon="-122.96428">
        <ele>1474.2</ele>
        <time>2025-03-24T04:16:01-07:00</time>
      </trkpt>
      <trkpt lat="50.07565" lon="-122.96407">
        <ele>1468.1</ele>
        <time>2025-03-24T04:16:03-07:00</time>
      </trkpt>
      <trkpt lat="50.07572" lon="-122.9634">
        <ele>1469.4</ele>
        <time>2025-03-24T04:16:06-07:00</time>
      </trkpt>
      <trkpt lat="50.0758" lon="-122.96321">
        <ele>1469.2</ele>
        <time>2025-03-24T04:16:07-07:00</time>
      </trkpt>
      <trkpt lat="50.07668" lon="-122.96208">
        <ele>1440.9</ele>
        <time>2025-03-24T04:16:12-07:00</time>
      </trkpt>
      <trkpt lat="50.07678" lon="-122.96185">
        <ele>1443.0</ele>
        <time>2025-03-24T04:16:13-07:00</time>
      </trkpt>
    </trkseg>
  </trk>
</gpx>