<?xml version="1.0" encoding="UTF-8"?>
<gpx xmlns="http://www.topografix.com/GPX/1/1" xmlns:xsi="http://www.w3.org/2001/XMLSchema-instance" xsi:schemaLocation="http://www.topografix.com/GPX/1/1 http://www.topografix.com/GPX/1/1/gpx.xsd" version="1.1" creator="Trailforks.com">
  <metadata>
    <name>Crank It Up - Lower Trailforks Trail</name>
    <link href="https://www.trailforks.com/">
      <text>Trailforks</text>
    </link>
  </metadata>
  <trk>
    <name>
Crank It Up - Lower
</name>
    <trkseg>
      <trkpt lat="50.10356" lon="-122.95064">
        <ele>926.1</ele>
      </trkpt>
      <trkpt lat="50.103760347394086" lon="-122.95076263435406">
        <ele>919.4</ele>
      </trkpt>
      <trkpt lat="50.10376276449279" lon="-122.95075444922334">
        <ele>919.4</ele>
      </trkpt>
      <trkpt lat="50.103764838987225" lon="-122.95074603869962">
        <ele>919.4</ele>
      </trkpt>
      <trkpt lat="50.10376656228998" lon="-122.95073743759832">
        <ele>919.4</ele>
      </trkpt>
      <trkpt lat="50.10376792726744" lon="-122.9507286815238">
        <ele>919.4</ele>
      </trkpt>
      <trkpt lat="50.10376892826928" lon="-122.95071980672186">
        <ele>919.4</ele>
      </trkpt>
      <trkpt lat="50.10376956115183" lon="-122.95071084992985">
        <ele>919.4</ele>
      </trkpt>
      <trkpt lat="50.10376982329528" lon="-122.95070184822447">
        <ele>919.4</ele>
      </trkpt>
      <trkpt lat="50.103769713614476" lon="-122.95069283886835">
        <ele>919.4</ele>
      </trkpt>
      <trkpt lat="50.10376923256344" lon="-122.95068385915579">
        <ele>919.4</ele>
      </trkpt>
      <trkpt lat="50.103768382133495" lon="-122.95067494625837">
        <ele>919.4</ele>
      </trkpt>
      <trkpt lat="50.103878382133495" lon="-122.95065494620086">
        <ele>919.4</ele>
      </trkpt>
      <trkpt lat="50.103878656838894" lon="-122.95065742842665">
        <ele>919.4</ele>
      </trkpt>
      <trkpt lat="50.10387890286698" lon="-122.95065991795354">
        <ele>919.4</ele>
      </trkpt>
      <trkpt lat="50.10387912013819" lon="-122.95066241397625">
        <ele>919.4</ele>
      </trkpt>
      <trkpt lat="50.10387930858223" lon="-122.95066491568741">
        <ele>919.4</ele>
      </trkpt>
      <trkpt lat="50.10387946813815" lon="-122.9506674222778">
        <ele>919.4</ele>
      </trkpt>
      <trkpt lat="50.10387959875435" lon="-122.95066993293663">
        <ele>919.4</ele>
      </trkpt>
      <trkpt lat="50.10387970038855" lon="-122.9506724468518">
        <ele>919.4</ele>
      </trkpt>
      <trkpt lat="50.10387977300791" lon="-122.95067496321015">
        <ele>919.4</ele>
      </trkpt>
      <trkpt lat="50.10387981658892" lon="-122.9506774811977">
        <ele>919.4</ele>
      </trkpt>
      <trkpt lat="50.103879831117496" lon="-122.95068">
        <ele>919.4</ele>
      </trkpt>
      <trkpt lat="50.1040098311175" lon="-122.95068">
        <ele>910.7</ele>
      </trkpt>
      <trkpt lat="50.10400950529659" lon="-122.95069191781664">
        <ele>910.7</ele>
      </trkpt>
      <trkpt lat="50.104008530197376" lon="-122.9507037491805">
        <ele>910.7</ele>
      </trkpt>
      <trkpt lat="50.104006912893304" lon="-122.95071540826599">
        <ele>910.7</ele>
      </trkpt>
      <trkpt lat="50.10400466511643" lon="-122.9507268104972">
        <ele>910.7</ele>
      </trkpt>
      <trkpt lat="50.104001803172295" lon="-122.95073787316147">
        <ele>910.7</ele>
      </trkpt>
      <trkpt lat="50.10399834782166" lon="-122.95074851600937">
        <ele>910.7</ele>
      </trkpt>
      <trkpt lat="50.10399432412991" lon="-122.95075866183689">
        <ele>910.7</ele>
      </trkpt>
      <trkpt lat="50.103989761285206" lon="-122.95076823704538">
        <ele>910.7</ele>
      </trkpt>
      <trkpt lat="50.103984692386774" lon="-122.95077717217556">
        <ele>910.7</ele>
      </trkpt>
      <trkpt lat="50.10397915420481" lon="-122.95078540241133">
        <ele>910.7</ele>
      </trkpt>
      <trkpt lat="50.1041191542048" lon="-122.95094540271938">
        <ele>911.6</ele>
      </trkpt>
      <trkpt lat="50.104116261152875" lon="-122.95094918508316">
        <ele>911.6</ele>
      </trkpt>
      <trkpt lat="50.10411326871439" lon="-122.95095277456907">
        <ele>911.6</ele>
      </trkpt>
      <trkpt lat="50.10411018217555" lon="-122.95095616483624">
        <ele>911.6</ele>
      </trkpt>
      <trkpt lat="50.1041070069888" lon="-122.95095934989567">
        <ele>911.6</ele>
      </trkpt>
      <trkpt lat="50.104103748763166" lon="-122.9509623241209">
        <ele>911.6</ele>
      </trkpt>
      <trkpt lat="50.10410041325438" lon="-122.95096508225787">
        <ele>911.6</ele>
      </trkpt>
      <trkpt lat="50.1040970063547" lon="-122.95096761943428">
        <ele>911.6</ele>
      </trkpt>
      <trkpt lat="50.10409353408247" lon="-122.95096993116817">
        <ele>911.6</ele>
      </trkpt>
      <trkpt lat="50.10409000257156" lon="-122.95097201337579">
        <ele>911.6</ele>
      </trkpt>
      <trkpt lat="50.10408641806044" lon="-122.9509738623789">
        <ele>911.6</ele>
      </trkpt>
      <trkpt lat="50.1041" lon="-122.95097">
        <ele>911.6</ele>
      </trkpt>
      <trkpt lat="50.1041870509673" lon="-122.9512935550471">
        <ele>911.3</ele>
      </trkpt>
      <trkpt lat="50.10418392932302" lon="-122.95129499553603">
        <ele>911.3</ele>
      </trkpt>
      <trkpt lat="50.104180776251035" lon="-122.95129625872784">
        <ele>911.3</ele>
      </trkpt>
      <trkpt lat="50.104177595892445" lon="-122.95129734296349">
        <ele>911.3</ele>
      </trkpt>
      <trkpt lat="50.10417439242419" lon="-122.951298246819">
        <ele>911.3</ele>
      </trkpt>
      <trkpt lat="50.10417117005357" lon="-122.95129896910727">
        <ele>911.3</ele>
      </trkpt>
      <trkpt lat="50.1041679330127" lon="-122.9512995088797">
        <ele>911.3</ele>
      </trkpt>
      <trkpt lat="50.10416468555295" lon="-122.95129986542739">
        <ele>911.3</ele>
      </trkpt>
      <trkpt lat="50.10416143193942" lon="-122.95130003828203">
        <ele>911.3</ele>
      </trkpt>
      <trkpt lat="50.10415817644523" lon="-122.95130002721663">
        <ele>911.3</ele>
      </trkpt>
      <trkpt lat="50.10415492334603" lon="-122.95129983224571">
        <ele>911.3</ele>
      </trkpt>
      <trkpt lat="50.10412492334603" lon="-122.95182983215813">
        <ele>907.7</ele>
      </trkpt>
      <trkpt lat="50.104126854437006" lon="-122.95182997009812">
        <ele>907.7</ele>
      </trkpt>
      <trkpt lat="50.10412878698466" lon="-122.9518300432198">
        <ele>907.7</ele>
      </trkpt>
      <trkpt lat="50.10413072009405" lon="-122.9518300514893">
        <ele>907.7</ele>
      </trkpt>
      <trkpt lat="50.104132652869964" lon="-122.95182999490277">
        <ele>907.7</ele>
      </trkpt>
      <trkpt lat="50.10413458441737" lon="-122.95182987348645">
        <ele>907.7</ele>
      </trkpt>
      <trkpt lat="50.104136513841794" lon="-122.95182968729652">
        <ele>907.7</ele>
      </trkpt>
      <trkpt lat="50.10413844024975" lon="-122.95182943641925">
        <ele>907.7</ele>
      </trkpt>
      <trkpt lat="50.10414036274913" lon="-122.95182912097079">
        <ele>907.7</ele>
      </trkpt>
      <trkpt lat="50.10414228044966" lon="-122.95182874109723">
        <ele>907.7</ele>
      </trkpt>
      <trkpt lat="50.10414419246327" lon="-122.95182829697448">
        <ele>907.7</ele>
      </trkpt>
      <trkpt lat="50.10422419246327" lon="-122.95232829720545">
        <ele>899.8</ele>
      </trkpt>
      <trkpt lat="50.10422189657505" lon="-122.95232882260834">
        <ele>899.8</ele>
      </trkpt>
      <trkpt lat="50.10421959274854" lon="-122.95232925537832">
        <ele>899.8</ele>
      </trkpt>
      <trkpt lat="50.10421728252102" lon="-122.95232959522662">
        <ele>899.8</ele>
      </trkpt>
      <trkpt lat="50.10421496743406" lon="-122.95232984192646">
        <ele>899.8</ele>
      </trkpt>
      <trkpt lat="50.10421264903245" lon="-122.95232999531322">
        <ele>899.8</ele>
      </trkpt>
      <trkpt lat="50.10421032886321" lon="-122.95233005528458">
        <ele>899.8</ele>
      </trkpt>
      <trkpt lat="50.10420800847452" lon="-122.95233002180049">
        <ele>899.8</ele>
      </trkpt>
      <trkpt lat="50.104205689414734" lon="-122.95232989488332">
        <ele>899.8</ele>
      </trkpt>
      <trkpt lat="50.10420337323129" lon="-122.95232967461773">
        <ele>899.8</ele>
      </trkpt>
      <trkpt lat="50.10420106146972" lon="-122.95232936115072">
        <ele>899.8</ele>
      </trkpt>
      <trkpt lat="50.10415106146972" lon="-122.95282936100526">
        <ele>906.1</ele>
      </trkpt>
      <trkpt lat="50.10415450318961" lon="-122.95282979362668">
        <ele>906.1</ele>
      </trkpt>
      <trkpt lat="50.104157953030736" lon="-122.95283001971076">
        <ele>906.1</ele>
      </trkpt>
      <trkpt lat="50.10416140589614" lon="-122.95283003892348">
        <ele>906.1</ele>
      </trkpt>
      <trkpt lat="50.10416485668441" lon="-122.95282985123642">
        <ele>906.1</ele>
      </trkpt>
      <trkpt lat="50.104168300297204" lon="-122.9528294569269">
        <ele>906.1</ele>
      </trkpt>
      <trkpt lat="50.104171731646765" lon="-122.95282885657748">
        <ele>906.1</ele>
      </trkpt>
      <trkpt lat="50.10417514566346" lon="-122.95282805107517">
        <ele>906.1</ele>
      </trkpt>
      <trkpt lat="50.104178537303284" lon="-122.95282704161002">
        <ele>906.1</ele>
      </trkpt>
      <trkpt lat="50.104181901555265" lon="-122.95282582967347">
        <ele>906.1</ele>
      </trkpt>
      <trkpt lat="50.10418523344891" lon="-122.9528244170561">
        <ele>906.1</ele>
      </trkpt>
      <trkpt lat="50.10430523344891" lon="-122.95323441739285">
        <ele>898.5</ele>
      </trkpt>
      <trkpt lat="50.10431412900596" lon="-122.95322955466996">
        <ele>898.5</ele>
      </trkpt>
      <trkpt lat="50.10432264875219" lon="-122.9532232653586">
        <ele>898.5</ele>
      </trkpt>
      <trkpt lat="50.104330698872594" lon="-122.95321561871339">
        <ele>898.5</ele>
      </trkpt>
      <trkpt lat="50.10433819072345" lon="-122.95320669893519">
        <ele>898.5</ele>
      </trkpt>
      <trkpt lat="50.1043450418084" lon="-122.95319660424394">
        <ele>898.5</ele>
      </trkpt>
      <trkpt lat="50.104351176686876" lon="-122.95318544579715">
        <ele>898.5</ele>
      </trkpt>
      <trkpt lat="50.10435652780479" lon="-122.95317334646577">
        <ele>898.5</ele>
      </trkpt>
      <trkpt lat="50.104361036238416" lon="-122.95316043948138">
        <ele>898.5</ele>
      </trkpt>
      <trkpt lat="50.104364652343236" lon="-122.95314686696892">
        <ele>898.5</ele>
      </trkpt>
      <trkpt lat="50.1043673363006" lon="-122.95313277838184">
        <ele>898.5</ele>
      </trkpt>
      <trkpt lat="50.10436905855616" lon="-122.9531183288563">
        <ele>898.5</ele>
      </trkpt>
      <trkpt lat="50.10436980014533" lon="-122.95310367750297">
        <ele>898.5</ele>
      </trkpt>
      <trkpt lat="50.10436955290213" lon="-122.95308898565489">
        <ele>898.5</ele>
      </trkpt>
      <trkpt lat="50.10436831954906" lon="-122.95307441509102">
        <ele>898.5</ele>
      </trkpt>
      <trkpt lat="50.104366113667176" lon="-122.95306012625484">
        <ele>898.5</ele>
      </trkpt>
      <trkpt lat="50.104362959546485" lon="-122.95304627648756">
        <ele>898.5</ele>
      </trkpt>
      <trkpt lat="50.10435889191853" lon="-122.95303301829557">
        <ele>898.5</ele>
      </trkpt>
      <trkpt lat="50.104353955573906" lon="-122.95302049767119">
        <ele>898.5</ele>
      </trkpt>
      <trkpt lat="50.104348204869055" lon="-122.953008852485">
        <ele>898.5</ele>
      </trkpt>
      <trkpt lat="50.10441820486905" lon="-122.95294885235178">
        <ele>899.2</ele>
      </trkpt>
      <trkpt lat="50.10441291741248" lon="-122.95294003403993">
        <ele>899.2</ele>
      </trkpt>
      <trkpt lat="50.10440716255702" lon="-122.95293195835205">
        <ele>899.2</ele>
      </trkpt>
      <trkpt lat="50.10440098305415" lon="-122.95292468528059">
        <ele>899.2</ele>
      </trkpt>
      <trkpt lat="50.10439442480996" lon="-122.95291826885548">
        <ele>899.2</ele>
      </trkpt>
      <trkpt lat="50.104387536544145" lon="-122.95291275674288">
        <ele>899.2</ele>
      </trkpt>
      <trkpt lat="50.10438036942803" lon="-122.95290818989099">
        <ele>899.2</ele>
      </trkpt>
      <trkpt lat="50.10437297670446" lon="-122.9529046022259">
        <ele>899.2</ele>
      </trkpt>
      <trkpt lat="50.10436541329227" lon="-122.95290202039953">
        <ele>899.2</ele>
      </trkpt>
      <trkpt lat="50.1043577353783" lon="-122.95290046359169">
        <ele>899.2</ele>
      </trkpt>
      <trkpt lat="50.10435" lon="-122.95289994336753">
        <ele>899.2</ele>
      </trkpt>
      <trkpt lat="50.10435" lon="-122.95270994336752">
        <ele>899.2</ele>
      </trkpt>
      <trkpt lat="50.10435285693433" lon="-122.952710014216">
        <ele>899.2</ele>
      </trkpt>
      <trkpt lat="50.10435571097827" lon="-122.95271022668972">
        <ele>899.2</ele>
      </trkpt>
      <trkpt lat="50.10435855924434" lon="-122.95271058057372">
        <ele>899.2</ele>
      </trkpt>
      <trkpt lat="50.104361398850926" lon="-122.95271107551001">
        <ele>899.2</ele>
      </trkpt>
      <trkpt lat="50.10436422692516" lon="-122.95271171099782">
        <ele>899.2</ele>
      </trkpt>
      <trkpt lat="50.10436704060585" lon="-122.95271248639423">
        <ele>899.2</ele>
      </trkpt>
      <trkpt lat="50.10436983704636" lon="-122.95271340091476">
        <ele>899.2</ele>
      </trkpt>
      <trkpt lat="50.1043726134175" lon="-122.95271445363419">
        <ele>899.2</ele>
      </trkpt>
      <trkpt lat="50.104375366910375" lon="-122.95271564348745">
        <ele>899.2</ele>
      </trkpt>
      <trkpt lat="50.10437809473925" lon="-122.95271696927078">
        <ele>899.2</ele>
      </trkpt>
      <trkpt lat="50.104648094739254" lon="-122.9518969685209">
        <ele>893.0</ele>
      </trkpt>
      <trkpt lat="50.10464636602879" lon="-122.95189611112188">
        <ele>893.0</ele>
      </trkpt>
      <trkpt lat="50.10464462656604" lon="-122.9518953083238">
        <ele>893.0</ele>
      </trkpt>
      <trkpt lat="50.10464287706039" lon="-122.95189456045402">
        <ele>893.0</ele>
      </trkpt>
      <trkpt lat="50.1046411182253" lon="-122.95189386781755">
        <ele>893.0</ele>
      </trkpt>
      <trkpt lat="50.10463935077804" lon="-122.95189323069684">
        <ele>893.0</ele>
      </trkpt>
      <trkpt lat="50.10463757543937" lon="-122.9518926493517">
        <ele>893.0</ele>
      </trkpt>
      <trkpt lat="50.1046357929333" lon="-122.95189212401924">
        <ele>893.0</ele>
      </trkpt>
      <trkpt lat="50.10463400398676" lon="-122.95189165491367">
        <ele>893.0</ele>
      </trkpt>
      <trkpt lat="50.104632209329274" lon="-122.95189124222628">
        <ele>893.0</ele>
      </trkpt>
      <trkpt lat="50.10463040969274" lon="-122.95189088612541">
        <ele>893.0</ele>
      </trkpt>
      <trkpt lat="50.10470040969274" lon="-122.95129088592212">
        <ele>891.4</ele>
      </trkpt>
      <trkpt lat="50.10470168121377" lon="-122.95129113155105">
        <ele>891.4</ele>
      </trkpt>
      <trkpt lat="50.10470295035852" lon="-122.95129140542964">
        <ele>891.4</ele>
      </trkpt>
      <trkpt lat="50.10470421686882" lon="-122.95129170750222">
        <ele>891.4</ele>
      </trkpt>
      <trkpt lat="50.104705480487006" lon="-122.9512920377073">
        <ele>891.4</ele>
      </trkpt>
      <trkpt lat="50.10470674095604" lon="-122.95129239597773">
        <ele>891.4</ele>
      </trkpt>
      <trkpt lat="50.10470799801949" lon="-122.95129278224061">
        <ele>891.4</ele>
      </trkpt>
      <trkpt lat="50.10470925142166" lon="-122.95129319641738">
        <ele>891.4</ele>
      </trkpt>
      <trkpt lat="50.10471050090755" lon="-122.95129363842376">
        <ele>891.4</ele>
      </trkpt>
      <trkpt lat="50.10471174622299" lon="-122.95129410816988">
        <ele>891.4</ele>
      </trkpt>
      <trkpt lat="50.10471298711465" lon="-122.95129460556014">
        <ele>891.4</ele>
      </trkpt>
      <trkpt lat="50.10480298711465" lon="-122.95095460530572">
        <ele>880.7</ele>
      </trkpt>
      <trkpt lat="50.10480073249762" lon="-122.95095372330947">
        <ele>880.7</ele>
      </trkpt>
      <trkpt lat="50.1047984639984" lon="-122.95095293256223">
        <ele>880.7</ele>
      </trkpt>
      <trkpt lat="50.10479618313593" lon="-122.95095223359348">
        <ele>880.7</ele>
      </trkpt>
      <trkpt lat="50.10479389143745" lon="-122.95095162687124">
        <ele>880.7</ele>
      </trkpt>
      <trkpt lat="50.10479159043746" lon="-122.95095111280176">
        <ele>880.7</ele>
      </trkpt>
      <trkpt lat="50.104789281676666" lon="-122.95095069172926">
        <ele>880.7</ele>
      </trkpt>
      <trkpt lat="50.10478696670099" lon="-122.95095036393569">
        <ele>880.7</ele>
      </trkpt>
      <trkpt lat="50.104784647060505" lon="-122.9509501296405">
        <ele>880.7</ele>
      </trkpt>
      <trkpt lat="50.10478232430842" lon="-122.95094998900062">
        <ele>880.7</ele>
      </trkpt>
      <trkpt lat="50.10478" lon="-122.9509499421102">
        <ele>880.7</ele>
      </trkpt>
      <trkpt lat="50.10478" lon="-122.9508599421102">
        <ele>880.7</ele>
      </trkpt>
      <trkpt lat="50.104774612916025" lon="-122.95086019418095">
        <ele>880.7</ele>
      </trkpt>
      <trkpt lat="50.10476924522298" lon="-122.95086094948587">
        <ele>880.7</ele>
      </trkpt>
      <trkpt lat="50.104763916242" lon="-122.95086220530624">
        <ele>880.7</ele>
      </trkpt>
      <trkpt lat="50.10475864515486" lon="-122.95086395712167">
        <ele>880.7</ele>
      </trkpt>
      <trkpt lat="50.104753450934965" lon="-122.95086619862649">
        <ele>880.7</ele>
      </trkpt>
      <trkpt lat="50.104748352279024" lon="-122.95086892175235">
        <ele>880.7</ele>
      </trkpt>
      <trkpt lat="50.10474336753976" lon="-122.95087211669728">
        <ele>880.7</ele>
      </trkpt>
      <trkpt lat="50.10473851465986" lon="-122.95087577196102">
        <ele>880.7</ele>
      </trkpt>
      <trkpt lat="50.104733811107366" lon="-122.95087987438637">
        <ele>880.7</ele>
      </trkpt>
      <trkpt lat="50.10472927381282" lon="-122.95088440920655">
        <ele>880.7</ele>
      </trkpt>
      <trkpt lat="50.10459927381282" lon="-122.95069440952028">
        <ele>888.7</ele>
      </trkpt>
      <trkpt lat="50.104601195906014" lon="-122.95069241514786">
        <ele>888.7</ele>
      </trkpt>
      <trkpt lat="50.10460315023863" lon="-122.95069049845064">
        <ele>888.7</ele>
      </trkpt>
      <trkpt lat="50.10460513551967" lon="-122.95068866069481">
        <ele>888.7</ele>
      </trkpt>
      <trkpt lat="50.10460715043767" lon="-122.95068690309435">
        <ele>888.7</ele>
      </trkpt>
      <trkpt lat="50.10460919366162" lon="-122.95068522681031">
        <ele>888.7</ele>
      </trkpt>
      <trkpt lat="50.10461126384177" lon="-122.95068363295003">
        <ele>888.7</ele>
      </trkpt>
      <trkpt lat="50.10461335961058" lon="-122.95068212256639">
        <ele>888.7</ele>
      </trkpt>
      <trkpt lat="50.10461547958362" lon="-122.95068069665713">
        <ele>888.7</ele>
      </trkpt>
      <trkpt lat="50.104617622360465" lon="-122.9506793561642">
        <ele>888.7</ele>
      </trkpt>
      <trkpt lat="50.1046197865256" lon="-122.95067810197311">
        <ele>888.7</ele>
      </trkpt>
      <trkpt lat="50.10451978652561" lon="-122.95039810224847">
        <ele>887.0</ele>
      </trkpt>
      <trkpt lat="50.104523034843346" lon="-122.95039640169006">
        <ele>887.0</ele>
      </trkpt>
      <trkpt lat="50.104526322395145" lon="-122.95039489551593">
        <ele>887.0</ele>
      </trkpt>
      <trkpt lat="50.10452964439763" lon="-122.95039358591757">
        <ele>887.0</ele>
      </trkpt>
      <trkpt lat="50.10453299601733" lon="-122.95039247480042">
        <ele>887.0</ele>
      </trkpt>
      <trkpt lat="50.10453637237767" lon="-122.95039156378117">
        <ele>887.0</ele>
      </trkpt>
      <trkpt lat="50.10453976856607" lon="-122.95039085418533">
        <ele>887.0</ele>
      </trkpt>
      <trkpt lat="50.10454317964111" lon="-122.95039034704534">
        <ele>887.0</ele>
      </trkpt>
      <trkpt lat="50.104546600639715" lon="-122.9503900430991">
        <ele>887.0</ele>
      </trkpt>
      <trkpt lat="50.10455002658435" lon="-122.95038994278886">
        <ele>887.0</ele>
      </trkpt>
      <trkpt lat="50.10455345249031" lon="-122.95039004626055">
        <ele>887.0</ele>
      </trkpt>
      <trkpt lat="50.104563452490304" lon="-122.95013004623134">
        <ele>884.7</ele>
      </trkpt>
      <trkpt lat="50.10456157419267" lon="-122.95012996426006">
        <ele>884.7</ele>
      </trkpt>
      <trkpt lat="50.10455969520627" lon="-122.95012994355967">
        <ele>884.7</ele>
      </trkpt>
      <trkpt lat="50.10455781635323" lon="-122.95012998413925">
        <ele>884.7</ele>
      </trkpt>
      <trkpt lat="50.10455593845561" lon="-122.95013008598103">
        <ele>884.7</ele>
      </trkpt>
      <trkpt lat="50.104554062335076" lon="-122.95013024904044">
        <ele>884.7</ele>
      </trkpt>
      <trkpt lat="50.10455218881249" lon="-122.95013047324615">
        <ele>884.7</ele>
      </trkpt>
      <trkpt lat="50.104550318707595" lon="-122.95013075850005">
        <ele>884.7</ele>
      </trkpt>
      <trkpt lat="50.10454845283863" lon="-122.95013110467735">
        <ele>884.7</ele>
      </trkpt>
      <trkpt lat="50.104546592021975" lon="-122.95013151162657">
        <ele>884.7</ele>
      </trkpt>
      <trkpt lat="50.10454473707182" lon="-122.95013197916964">
        <ele>884.7</ele>
      </trkpt>
      <trkpt lat="50.10444473707182" lon="-122.9495519794578">
        <ele>874.0</ele>
      </trkpt>
      <trkpt lat="50.10444137686751" lon="-122.94955298582157">
        <ele>874.0</ele>
      </trkpt>
      <trkpt lat="50.10443804368207" lon="-122.94955419096871">
        <ele>874.0</ele>
      </trkpt>
      <trkpt lat="50.10443474235137" lon="-122.94955559315075">
        <ele>874.0</ele>
      </trkpt>
      <trkpt lat="50.10443147766505" lon="-122.94955719033337">
        <ele>874.0</ele>
      </trkpt>
      <trkpt lat="50.104428254359604" lon="-122.94955898019936">
        <ele>874.0</ele>
      </trkpt>
      <trkpt lat="50.104425077111465" lon="-122.94956096015191">
        <ele>874.0</ele>
      </trkpt>
      <trkpt lat="50.10442195053027" lon="-122.94956312731848">
        <ele>874.0</ele>
      </trkpt>
      <trkpt lat="50.104418879152135" lon="-122.9495654785549">
        <ele>874.0</ele>
      </trkpt>
      <trkpt lat="50.104415867433076" lon="-122.94956801044992">
        <ele>874.0</ele>
      </trkpt>
      <trkpt lat="50.10441291974257" lon="-122.94957071933023">
        <ele>874.0</ele>
      </trkpt>
      <trkpt lat="50.10433291974257" lon="-122.94944071952945">
        <ele>886.2</ele>
      </trkpt>
      <trkpt lat="50.10433457936963" lon="-122.94943916538543">
        <ele>886.2</ele>
      </trkpt>
      <trkpt lat="50.10433626009263" lon="-122.94943766736395">
        <ele>886.2</ele>
      </trkpt>
      <trkpt lat="50.104337961130966" lon="-122.9494362261608">
        <ele>886.2</ele>
      </trkpt>
      <trkpt lat="50.10433968169457" lon="-122.94943484244531">
        <ele>886.2</ele>
      </trkpt>
      <trkpt lat="50.10434142098431" lon="-122.94943351686021">
        <ele>886.2</ele>
      </trkpt>
      <trkpt lat="50.10434317819237" lon="-122.94943225002113">
        <ele>886.2</ele>
      </trkpt>
      <trkpt lat="50.10434495250259" lon="-122.94943104251651">
        <ele>886.2</ele>
      </trkpt>
      <trkpt lat="50.104346743090886" lon="-122.94942989490714">
        <ele>886.2</ele>
      </trkpt>
      <trkpt lat="50.104348549125596" lon="-122.94942880772606">
        <ele>886.2</ele>
      </trkpt>
      <trkpt lat="50.10435036976791" lon="-122.94942778147824">
        <ele>886.2</ele>
      </trkpt>
      <trkpt lat="50.10406036976791" lon="-122.94859778227872">
        <ele>883.2</ele>
      </trkpt>
      <trkpt lat="50.10406493435009" lon="-122.94859550684612">
        <ele>883.2</ele>
      </trkpt>
      <trkpt lat="50.10406957026675" lon="-122.94859361416837">
        <ele>883.2</ele>
      </trkpt>
      <trkpt lat="50.10407426432452" lon="-122.94859210963189">
        <ele>883.2</ele>
      </trkpt>
      <trkpt lat="50.10407900316453" lon="-122.94859099751842">
        <ele>883.2</ele>
      </trkpt>
      <trkpt lat="50.1040837733005" lon="-122.94859028099295">
        <ele>883.2</ele>
      </trkpt>
      <trkpt lat="50.10408856115708" lon="-122.94858996209463">
        <ele>883.2</ele>
      </trkpt>
      <trkpt lat="50.10409335310846" lon="-122.94859004173101">
        <ele>883.2</ele>
      </trkpt>
      <trkpt lat="50.10409813551722" lon="-122.94859051967546">
        <ele>883.2</ele>
      </trkpt>
      <trkpt lat="50.10410289477306" lon="-122.9485913945678">
        <ele>883.2</ele>
      </trkpt>
      <trkpt lat="50.104107617331586" lon="-122.94859266391816">
        <ele>883.2</ele>
      </trkpt>
      <trkpt lat="50.10411761733159" lon="-122.94854266388948">
        <ele>883.2</ele>
      </trkpt>
      <trkpt lat="50.1041265163304" lon="-122.94854618474777">
        <ele>883.2</ele>
      </trkpt>
      <trkpt lat="50.10413513835092" lon="-122.94855110338322">
        <ele>883.2</ele>
      </trkpt>
      <trkpt lat="50.104143393331164" lon="-122.94855736841791">
        <ele>883.2</ele>
      </trkpt>
      <trkpt lat="50.104151195043144" lon="-122.94856491440991">
        <ele>883.2</ele>
      </trkpt>
      <trkpt lat="50.104158461993485" lon="-122.94857366253703">
        <ele>883.2</ele>
      </trkpt>
      <trkpt lat="50.104165118274715" lon="-122.94858352142002">
        <ele>883.2</ele>
      </trkpt>
      <trkpt lat="50.10417109435815" lon="-122.94859438807723">
        <ele>883.2</ele>
      </trkpt>
      <trkpt lat="50.10417632782018" lon="-122.94860614900014">
        <ele>883.2</ele>
      </trkpt>
      <trkpt lat="50.10418076399427" lon="-122.94861868133918">
        <ele>883.2</ele>
      </trkpt>
      <trkpt lat="50.10418435654204" lon="-122.94863185418686">
        <ele>883.2</ele>
      </trkpt>
      <trkpt lat="50.10418706793727" lon="-122.94864552994521">
        <ele>883.2</ele>
      </trkpt>
      <trkpt lat="50.10418886985787" lon="-122.9486595657631">
        <ele>883.2</ele>
      </trkpt>
      <trkpt lat="50.104189743481754" lon="-122.94867381502833">
        <ele>883.2</ele>
      </trkpt>
      <trkpt lat="50.10418967968341" lon="-122.94868812889914">
        <ele>883.2</ele>
      </trkpt>
      <trkpt lat="50.10418867912925" lon="-122.94870235785892">
        <ele>883.2</ele>
      </trkpt>
      <trkpt lat="50.104186752270635" lon="-122.94871635327803">
        <ele>883.2</ele>
      </trkpt>
      <trkpt lat="50.10418391923472" lon="-122.94872996896626">
        <ele>883.2</ele>
      </trkpt>
      <trkpt lat="50.10418020961418" lon="-122.94874306269993">
        <ele>883.2</ele>
      </trkpt>
      <trkpt lat="50.10417566215814" lon="-122.94875549770747">
        <ele>883.2</ele>
      </trkpt>
      <trkpt lat="50.104170324367395" lon="-122.94876714409808">
        <ele>883.2</ele>
      </trkpt>
      <trkpt lat="50.10416425199823" lon="-122.94877788021853">
        <ele>883.2</ele>
      </trkpt>
      <trkpt lat="50.10415750848003" lon="-122.94878759392385">
        <ele>883.2</ele>
      </trkpt>
      <trkpt lat="50.104257508480025" lon="-122.94890759414848">
        <ele>867.6</ele>
      </trkpt>
      <trkpt lat="50.104255537471296" lon="-122.94891008233586">
        <ele>867.6</ele>
      </trkpt>
      <trkpt lat="50.10425352219714" lon="-122.94891248278351">
        <ele>867.6</ele>
      </trkpt>
      <trkpt lat="50.10425146426381" lon="-122.94891479357823">
        <ele>867.6</ele>
      </trkpt>
      <trkpt lat="50.104249365311546" lon="-122.94891701287818">
        <ele>867.6</ele>
      </trkpt>
      <trkpt lat="50.1042472270133" lon="-122.94891913891455">
        <ele>867.6</ele>
      </trkpt>
      <trkpt lat="50.10424505107338" lon="-122.94892116999276">
        <ele>867.6</ele>
      </trkpt>
      <trkpt lat="50.10424283922607" lon="-122.948923104494">
        <ele>867.6</ele>
      </trkpt>
      <trkpt lat="50.10424059323431" lon="-122.9489249408764">
        <ele>867.6</ele>
      </trkpt>
      <trkpt lat="50.104238314888235" lon="-122.94892667767625">
        <ele>867.6</ele>
      </trkpt>
      <trkpt lat="50.104236006003774" lon="-122.94892831350933">
        <ele>867.6</ele>
      </trkpt>
      <trkpt lat="50.104376006003776" lon="-122.94924831388434">
        <ele>872.9</ele>
      </trkpt>
      <trkpt lat="50.104377445492474" lon="-122.94924730842683">
        <ele>872.9</ele>
      </trkpt>
      <trkpt lat="50.10437887343605" lon="-122.94924626371782">
        <ele>872.9</ele>
      </trkpt>
      <trkpt lat="50.104380289394236" lon="-122.94924518007942">
        <ele>872.9</ele>
      </trkpt>
      <trkpt lat="50.104381692930474" lon="-122.94924405784572">
        <ele>872.9</ele>
      </trkpt>
      <trkpt lat="50.10438308361202" lon="-122.94924289736274">
        <ele>872.9</ele>
      </trkpt>
      <trkpt lat="50.104384461010106" lon="-122.94924169898826">
        <ele>872.9</ele>
      </trkpt>
      <trkpt lat="50.10438582470006" lon="-122.94924046309178">
        <ele>872.9</ele>
      </trkpt>
      <trkpt lat="50.104387174261426" lon="-122.94923919005434">
        <ele>872.9</ele>
      </trkpt>
      <trkpt lat="50.10438850927811" lon="-122.94923788026846">
        <ele>872.9</ele>
      </trkpt>
      <trkpt lat="50.1043898293385" lon="-122.94923653413794">
        <ele>872.9</ele>
      </trkpt>
      <trkpt lat="50.1044498293385" lon="-122.94932653428391">
        <ele>878.8</ele>
      </trkpt>
      <trkpt lat="50.10445692286003" lon="-122.9493183489519">
        <ele>878.8</ele>
      </trkpt>
      <trkpt lat="50.10446346701545" lon="-122.94930911793733">
        <ele>878.8</ele>
      </trkpt>
      <trkpt lat="50.10446939864669" lon="-122.94929893032929">
        <ele>878.8</ele>
      </trkpt>
      <trkpt lat="50.104474660507215" lon="-122.94928788444903">
        <ele>878.8</ele>
      </trkpt>
      <trkpt lat="50.10447920181448" lon="-122.94927608690104">
        <ele>878.8</ele>
      </trkpt>
      <trkpt lat="50.10448297874002" lon="-122.94926365154419">
        <ele>878.8</ele>
      </trkpt>
      <trkpt lat="50.10448595483252" lon="-122.9492506983929">
        <ele>878.8</ele>
      </trkpt>
      <trkpt lat="50.1044881013695" lon="-122.94923735245885">
        <ele>878.8</ele>
      </trkpt>
      <trkpt lat="50.10448939763461" lon="-122.9492237425445">
        <ele>878.8</ele>
      </trkpt>
      <trkpt lat="50.1044898311175" lon="-122.94921">
        <ele>878.8</ele>
      </trkpt>
      <trkpt lat="50.1045098311175" lon="-122.94921">
        <ele>878.8</ele>
      </trkpt>
      <trkpt lat="50.10450932700112" lon="-122.9491951829699">
        <ele>878.8</ele>
      </trkpt>
      <trkpt lat="50.104507820310005" lon="-122.94918053224094">
        <ele>878.8</ele>
      </trkpt>
      <trkpt lat="50.10450532795473" lon="-122.94916621224769">
        <ele>878.8</ele>
      </trkpt>
      <trkpt lat="50.10450187790861" lon="-122.94915238371273">
        <ele>878.8</ele>
      </trkpt>
      <trkpt lat="50.10449750889374" lon="-122.94913920184264">
        <ele>878.8</ele>
      </trkpt>
      <trkpt lat="50.104492269946405" lon="-122.94912681458608">
        <ele>878.8</ele>
      </trkpt>
      <trkpt lat="50.1044862198667" lon="-122.94911536097324">
        <ele>878.8</ele>
      </trkpt>
      <trkpt lat="50.10447942655858" lon="-122.94910496955544">
        <ele>878.8</ele>
      </trkpt>
      <trkpt lat="50.10447196626774" lon="-122.94909575696227">
        <ele>878.8</ele>
      </trkpt>
      <trkpt lat="50.104463922725856" lon="-122.94908782659265">
        <ele>878.8</ele>
      </trkpt>
      <trkpt lat="50.1044553862108" lon="-122.9490812674542">
        <ele>878.8</ele>
      </trkpt>
      <trkpt lat="50.104485386210804" lon="-122.94901126737359">
        <ele>858.1</ele>
      </trkpt>
      <trkpt lat="50.10448035209884" lon="-122.94900817991336">
        <ele>858.1</ele>
      </trkpt>
      <trkpt lat="50.10447520791791" lon="-122.94900557048604">
        <ele>858.1</ele>
      </trkpt>
      <trkpt lat="50.10446997232288" lon="-122.94900344855444">
        <ele>858.1</ele>
      </trkpt>
      <trkpt lat="50.10446466430014" lon="-122.94900182181355">
        <ele>858.1</ele>
      </trkpt>
      <trkpt lat="50.10445930309872" lon="-122.9490006961626">
        <ele>858.1</ele>
      </trkpt>
      <trkpt lat="50.10445390816051" lon="-122.94900007568364">
        <ele>858.1</ele>
      </trkpt>
      <trkpt lat="50.104448499049724" lon="-122.9489999626268">
        <ele>858.1</ele>
      </trkpt>
      <trkpt lat="50.10444309538199" lon="-122.94900035740206">
        <ele>858.1</ele>
      </trkpt>
      <trkpt lat="50.104437716753196" lon="-122.9490012585778">
        <ele>858.1</ele>
      </trkpt>
      <trkpt lat="50.10443238266841" lon="-122.94900266288597">
        <ele>858.1</ele>
      </trkpt>
      <trkpt lat="50.10442238266841" lon="-122.94895266291465">
        <ele>872.9</ele>
      </trkpt>
      <trkpt lat="50.10441981939873" lon="-122.94895352304053">
        <ele>872.9</ele>
      </trkpt>
      <trkpt lat="50.10441727332135" lon="-122.9489544994342">
        <ele>872.9</ele>
      </trkpt>
      <trkpt lat="50.10441474660534" lon="-122.94895559126383">
        <ele>872.9</ele>
      </trkpt>
      <trkpt lat="50.10441224140326" lon="-122.94895679759925">
        <ele>872.9</ele>
      </trkpt>
      <trkpt lat="50.104409759849354" lon="-122.9489581174128">
        <ele>872.9</ele>
      </trkpt>
      <trkpt lat="50.1044073040577" lon="-122.94895954958008">
        <ele>872.9</ele>
      </trkpt>
      <trkpt lat="50.10440487612046" lon="-122.94896109288099">
        <ele>872.9</ele>
      </trkpt>
      <trkpt lat="50.10440247810604" lon="-122.94896274600076">
        <ele>872.9</ele>
      </trkpt>
      <trkpt lat="50.10440011205736" lon="-122.94896450753106">
        <ele>872.9</ele>
      </trkpt>
      <trkpt lat="50.10439777999011" lon="-122.94896637597121">
        <ele>872.9</ele>
      </trkpt>
      <trkpt lat="50.10398777999011" lon="-122.94819637702936">
        <ele>864.4</ele>
      </trkpt>
      <trkpt lat="50.10398689324169" lon="-122.94819712316382">
        <ele>864.4</ele>
      </trkpt>
      <trkpt lat="50.10398601191711" lon="-122.94819788475907">
        <ele>864.4</ele>
      </trkpt>
      <trkpt lat="50.10398513612727" lon="-122.94819866171929">
        <ele>864.4</ele>
      </trkpt>
      <trkpt lat="50.10398426598236" lon="-122.94819945394673">
        <ele>864.4</ele>
      </trkpt>
      <trkpt lat="50.10398340159187" lon="-122.9482002613417">
        <ele>864.4</ele>
      </trkpt>
      <trkpt lat="50.103982543064554" lon="-122.94820108380262">
        <ele>864.4</ele>
      </trkpt>
      <trkpt lat="50.103981690508434" lon="-122.94820192122599">
        <ele>864.4</ele>
      </trkpt>
      <trkpt lat="50.103980844030794" lon="-122.94820277350647">
        <ele>864.4</ele>
      </trkpt>
      <trkpt lat="50.10398000373813" lon="-122.94820364053679">
        <ele>864.4</ele>
      </trkpt>
      <trkpt lat="50.10397916973618" lon="-122.94820452220786">
        <ele>864.4</ele>
      </trkpt>
      <trkpt lat="50.10362916973617" lon="-122.94769452305165">
        <ele>864.0</ele>
      </trkpt>
      <trkpt lat="50.1036305632034" lon="-122.94769306177592">
        <ele>864.0</ele>
      </trkpt>
      <trkpt lat="50.10363197394804" lon="-122.94769164136831">
        <ele>864.0</ele>
      </trkpt>
      <trkpt lat="50.10363340147705" lon="-122.94769026232524">
        <ele>864.0</ele>
      </trkpt>
      <trkpt lat="50.10363484529153" lon="-122.94768892512865">
        <ele>864.0</ele>
      </trkpt>
      <trkpt lat="50.10363630488689" lon="-122.94768763024588">
        <ele>864.0</ele>
      </trkpt>
      <trkpt lat="50.10363777975303" lon="-122.94768637812949">
        <ele>864.0</ele>
      </trkpt>
      <trkpt lat="50.103639269374504" lon="-122.94768516921704">
        <ele>864.0</ele>
      </trkpt>
      <trkpt lat="50.10364077323071" lon="-122.94768400393104">
        <ele>864.0</ele>
      </trkpt>
      <trkpt lat="50.10364229079607" lon="-122.94768288267876">
        <ele>864.0</ele>
      </trkpt>
      <trkpt lat="50.10364382154022" lon="-122.94768180585204">
        <ele>864.0</ele>
      </trkpt>
      <trkpt lat="50.10353382154022" lon="-122.94743180614643">
        <ele>872.3</ele>
      </trkpt>
      <trkpt lat="50.103535501452285" lon="-122.94743068538597">
        <ele>872.3</ele>
      </trkpt>
      <trkpt lat="50.103537195638346" lon="-122.94742961813026">
        <ele>872.3</ele>
      </trkpt>
      <trkpt lat="50.10353890339742" lon="-122.9474286048209">
        <ele>872.3</ele>
      </trkpt>
      <trkpt lat="50.10354062402292" lon="-122.94742764587713">
        <ele>872.3</ele>
      </trkpt>
      <trkpt lat="50.10354235680291" lon="-122.94742674169572">
        <ele>872.3</ele>
      </trkpt>
      <trkpt lat="50.103544101020454" lon="-122.94742589265081">
        <ele>872.3</ele>
      </trkpt>
      <trkpt lat="50.10354585595387" lon="-122.94742509909366">
        <ele>872.3</ele>
      </trkpt>
      <trkpt lat="50.10354762087704" lon="-122.94742436135263">
        <ele>872.3</ele>
      </trkpt>
      <trkpt lat="50.10354939505971" lon="-122.94742367973296">
        <ele>872.3</ele>
      </trkpt>
      <trkpt lat="50.103551177767805" lon="-122.94742305451669">
        <ele>872.3</ele>
      </trkpt>
      <trkpt lat="50.10349117776781" lon="-122.94714305468824">
        <ele>868.9</ele>
      </trkpt>
      <trkpt lat="50.10348936255717" lon="-122.9471436918554">
        <ele>868.9</ele>
      </trkpt>
      <trkpt lat="50.10348755620035" lon="-122.94714438750111">
        <ele>868.9</ele>
      </trkpt>
      <trkpt lat="50.1034857594723" lon="-122.9471451413269">
        <ele>868.9</ele>
      </trkpt>
      <trkpt lat="50.10348397314385" lon="-122.94714595300938">
        <ele>868.9</ele>
      </trkpt>
      <trkpt lat="50.10348219798137" lon="-122.94714682220032">
        <ele>868.9</ele>
      </trkpt>
      <trkpt lat="50.10348043474644" lon="-122.94714774852682">
        <ele>868.9</ele>
      </trkpt>
      <trkpt lat="50.10347868419551" lon="-122.94714873159147">
        <ele>868.9</ele>
      </trkpt>
      <trkpt lat="50.10347694707959" lon="-122.94714977097252">
        <ele>868.9</ele>
      </trkpt>
      <trkpt lat="50.10347522414394" lon="-122.94715086622405">
        <ele>868.9</ele>
      </trkpt>
      <trkpt lat="50.103473516127735" lon="-122.94715201687619">
        <ele>868.9</ele>
      </trkpt>
      <trkpt lat="50.10335351612773" lon="-122.94688201719681">
        <ele>864.3</ele>
      </trkpt>
      <trkpt lat="50.103356706545924" lon="-122.94687992031763">
        <ele>864.3</ele>
      </trkpt>
      <trkpt lat="50.10335994642244" lon="-122.9468780166753">
        <ele>864.3</ele>
      </trkpt>
      <trkpt lat="50.10336323094434" lon="-122.94687630909773">
        <ele>864.3</ele>
      </trkpt>
      <trkpt lat="50.10336655523239" lon="-122.94687480012159">
        <ele>864.3</ele>
      </trkpt>
      <trkpt lat="50.10336991434828" lon="-122.94687349198848">
        <ele>864.3</ele>
      </trkpt>
      <trkpt lat="50.103373303301936" lon="-122.9468723866417">
        <ele>864.3</ele>
      </trkpt>
      <trkpt lat="50.10337671705899" lon="-122.94687148572325">
        <ele>864.3</ele>
      </trkpt>
      <trkpt lat="50.10338015054821" lon="-122.94687079057145">
        <ele>864.3</ele>
      </trkpt>
      <trkpt lat="50.10338359866905" lon="-122.94687030221901">
        <ele>864.3</ele>
      </trkpt>
      <trkpt lat="50.10338705629924" lon="-122.94687002139136">
        <ele>864.3</ele>
      </trkpt>
      <trkpt lat="50.10336705629924" lon="-122.9462600214498">
        <ele>848.6</ele>
      </trkpt>
      <trkpt lat="50.10336550698062" lon="-122.94626012152396">
        <ele>848.6</ele>
      </trkpt>
      <trkpt lat="50.103363959000795" lon="-122.94626026327772">
        <ele>848.6</ele>
      </trkpt>
      <trkpt lat="50.103362412821" lon="-122.94626044666884">
        <ele>848.6</ele>
      </trkpt>
      <trkpt lat="50.10336086890196" lon="-122.94626067164269">
        <ele>848.6</ele>
      </trkpt>
      <trkpt lat="50.10335932770371" lon="-122.94626093813221">
        <ele>848.6</ele>
      </trkpt>
      <trkpt lat="50.10335778968548" lon="-122.94626124605801">
        <ele>848.6</ele>
      </trkpt>
      <trkpt lat="50.10335625530557" lon="-122.94626159532834">
        <ele>848.6</ele>
      </trkpt>
      <trkpt lat="50.10335472502116" lon="-122.94626198583913">
        <ele>848.6</ele>
      </trkpt>
      <trkpt lat="50.10335319928824" lon="-122.94626241747399">
        <ele>848.6</ele>
      </trkpt>
      <trkpt lat="50.10335167856143" lon="-122.94626289010435">
        <ele>848.6</ele>
      </trkpt>
      <trkpt lat="50.10330167856143" lon="-122.94602289024748">
        <ele>856.4</ele>
      </trkpt>
      <trkpt lat="50.10330050270787" lon="-122.94602328499785">
        <ele>856.4</ele>
      </trkpt>
      <trkpt lat="50.10329933034982" lon="-122.94602370425878">
        <ele>856.4</ele>
      </trkpt>
      <trkpt lat="50.103298161697474" lon="-122.94602414795506">
        <ele>856.4</ele>
      </trkpt>
      <trkpt lat="50.10329699696034" lon="-122.94602461600718">
        <ele>856.4</ele>
      </trkpt>
      <trkpt lat="50.10329583634723" lon="-122.9460251083312">
        <ele>856.4</ele>
      </trkpt>
      <trkpt lat="50.103294680066234" lon="-122.94602562483888">
        <ele>856.4</ele>
      </trkpt>
      <trkpt lat="50.10329352832464" lon="-122.9460261654376">
        <ele>856.4</ele>
      </trkpt>
      <trkpt lat="50.10329238132895" lon="-122.94602673003044">
        <ele>856.4</ele>
      </trkpt>
      <trkpt lat="50.10329123928478" lon="-122.9460273185162">
        <ele>856.4</ele>
      </trkpt>
      <trkpt lat="50.1032901023969" lon="-122.94602793078936">
        <ele>856.4</ele>
      </trkpt>
      <trkpt lat="50.1031701023969" lon="-122.94568793112019">
        <ele>849.4</ele>
      </trkpt>
      <trkpt lat="50.10317214063738" lon="-122.94568685219372">
        <ele>849.4</ele>
      </trkpt>
      <trkpt lat="50.10317419487385" lon="-122.94568584971658">
        <ele>849.4</ele>
      </trkpt>
      <trkpt lat="50.10317626392682" lon="-122.94568492426437">
        <ele>849.4</ele>
      </trkpt>
      <trkpt lat="50.1031783466083" lon="-122.94568407636845">
        <ele>849.4</ele>
      </trkpt>
      <trkpt lat="50.10318044172249" lon="-122.94568330651566">
        <ele>849.4</ele>
      </trkpt>
      <trkpt lat="50.10318254806644" lon="-122.94568261514803">
        <ele>849.4</ele>
      </trkpt>
      <trkpt lat="50.10318466443075" lon="-122.94568200266252">
        <ele>849.4</ele>
      </trkpt>
      <trkpt lat="50.10318678960026" lon="-122.94568146941079">
        <ele>849.4</ele>
      </trkpt>
      <trkpt lat="50.103188922354775" lon="-122.94568101569902">
        <ele>849.4</ele>
      </trkpt>
      <trkpt lat="50.10319106146973" lon="-122.94568064178773">
        <ele>849.4</ele>
      </trkpt>
      <trkpt lat="50.10317106146973" lon="-122.94548064184593">
        <ele>849.4</ele>
      </trkpt>
      <trkpt lat="50.10317351672963" lon="-122.94548031201674">
        <ele>849.4</ele>
      </trkpt>
      <trkpt lat="50.10317597686873" lon="-122.9454800873142">
        <ele>849.4</ele>
      </trkpt>
      <trkpt lat="50.10317844003556" lon="-122.94547996790739">
        <ele>849.4</ele>
      </trkpt>
      <trkpt lat="50.103180904376394" lon="-122.94547995388619">
        <ele>849.4</ele>
      </trkpt>
      <trkpt lat="50.10318336803661" lon="-122.94548004526116">
        <ele>849.4</ele>
      </trkpt>
      <trkpt lat="50.10318582916211" lon="-122.94548024196352">
        <ele>849.4</ele>
      </trkpt>
      <trkpt lat="50.10318828590068" lon="-122.94548054384524">
        <ele>849.4</ele>
      </trkpt>
      <trkpt lat="50.103190736403434" lon="-122.94548095067913">
        <ele>849.4</ele>
      </trkpt>
      <trkpt lat="50.10319317882616" lon="-122.945481462159">
        <ele>849.4</ele>
      </trkpt>
      <trkpt lat="50.10319561133075" lon="-122.94548207789994">
        <ele>849.4</ele>
      </trkpt>
      <trkpt lat="50.10322561133074" lon="-122.94531207781354">
        <ele>845.6</ele>
      </trkpt>
      <trkpt lat="50.10322169682022" lon="-122.94531113903491">
        <ele>845.6</ele>
      </trkpt>
      <trkpt lat="50.10321775957311" lon="-122.94531047017799">
        <ele>845.6</ele>
      </trkpt>
      <trkpt lat="50.103213807242724" lon="-122.94531007254288">
        <ele>845.6</ele>
      </trkpt>
      <trkpt lat="50.10320984751172" lon="-122.94530994690254">
        <ele>845.6</ele>
      </trkpt>
      <trkpt lat="50.103205888077134" lon="-122.94531009350118">
        <ele>845.6</ele>
      </trkpt>
      <trkpt lat="50.10320193663541" lon="-122.94531051205387">
        <ele>845.6</ele>
      </trkpt>
      <trkpt lat="50.103198000867465" lon="-122.94531120174696">
        <ele>845.6</ele>
      </trkpt>
      <trkpt lat="50.10319408842376" lon="-122.94531216123985">
        <ele>845.6</ele>
      </trkpt>
      <trkpt lat="50.10319020690941" lon="-122.94531338866746">
        <ele>845.6</ele>
      </trkpt>
      <trkpt lat="50.103186363869405" lon="-122.94531488164384">
        <ele>845.6</ele>
      </trkpt>
      <trkpt lat="50.10315636386941" lon="-122.94520488172847">
        <ele>845.6</ele>
      </trkpt>
      <trkpt lat="50.103152400313995" lon="-122.9452067208601">
        <ele>845.6</ele>
      </trkpt>
      <trkpt lat="50.10314849524832" lon="-122.94520884243926">
        <ele>845.6</ele>
      </trkpt>
      <trkpt lat="50.10314465694808" lon="-122.94521124196986">
        <ele>845.6</ele>
      </trkpt>
      <trkpt lat="50.103140893547476" lon="-122.94521391436679">
        <ele>845.6</ele>
      </trkpt>
      <trkpt lat="50.10313721302195" lon="-122.94521685396663">
        <ele>845.6</ele>
      </trkpt>
      <trkpt lat="50.10313362317136" lon="-122.94522005453975">
        <ele>845.6</ele>
      </trkpt>
      <trkpt lat="50.10313013160337" lon="-122.94522350930342">
        <ele>845.6</ele>
      </trkpt>
      <trkpt lat="50.10312674571738" lon="-122.94522721093625">
        <ele>845.6</ele>
      </trkpt>
      <trkpt lat="50.103123472688814" lon="-122.94523115159367">
        <ele>845.6</ele>
      </trkpt>
      <trkpt lat="50.10312031945393" lon="-122.9452353229246">
        <ele>845.6</ele>
      </trkpt>
      <trkpt lat="50.103040319453925" lon="-122.94514532309941">
        <ele>844.2</ele>
      </trkpt>
      <trkpt lat="50.10304624218029" lon="-122.94513779325649">
        <ele>844.2</ele>
      </trkpt>
      <trkpt lat="50.103052553983986" lon="-122.94513107552056">
        <ele>844.2</ele>
      </trkpt>
      <trkpt lat="50.103059209182746" lon="-122.94512521851188">
        <ele>844.2</ele>
      </trkpt>
      <trkpt lat="50.10306615960893" lon="-122.94512026462108">
        <ele>844.2</ele>
      </trkpt>
      <trkpt lat="50.103073354958156" lon="-122.94511624970245">
        <ele>844.2</ele>
      </trkpt>
      <trkpt lat="50.10308074315342" lon="-122.94511320281433">
        <ele>844.2</ele>
      </trkpt>
      <trkpt lat="50.10308827072193" lon="-122.94511114600886">
        <ele>844.2</ele>
      </trkpt>
      <trkpt lat="50.10309588318222" lon="-122.94511009417236">
        <ele>844.2</ele>
      </trkpt>
      <trkpt lat="50.10310352543837" lon="-122.94511005491762">
        <ele>844.2</ele>
      </trkpt>
      <trkpt lat="50.10311114217882" lon="-122.94511102852874">
        <ele>844.2</ele>
      </trkpt>
      <trkpt lat="50.10312114217882" lon="-122.94503102849973">
        <ele>844.2</ele>
      </trkpt>
      <trkpt lat="50.10313022528478" lon="-122.94503354290937">
        <ele>844.2</ele>
      </trkpt>
      <trkpt lat="50.103139095091116" lon="-122.94503749642088">
        <ele>844.2</ele>
      </trkpt>
      <trkpt lat="50.103147658055214" lon="-122.9450428473398">
        <ele>844.2</ele>
      </trkpt>
      <trkpt lat="50.103155823870445" lon="-122.94504953923435">
        <ele>844.2</ele>
      </trkpt>
      <trkpt lat="50.10316350641861" lon="-122.94505750153054">
        <ele>844.2</ele>
      </trkpt>
      <trkpt lat="50.10317062467813" lon="-122.94506665025655">
        <ele>844.2</ele>
      </trkpt>
      <trkpt lat="50.10317710357851" lon="-122.94507688892817">
        <ele>844.2</ele>
      </trkpt>
      <trkpt lat="50.103182874792054" lon="-122.9450881095665">
        <ele>844.2</ele>
      </trkpt>
      <trkpt lat="50.10318787745449" lon="-122.94510019383657">
        <ele>844.2</ele>
      </trkpt>
      <trkpt lat="50.10319205880678" lon="-122.94511301429543">
        <ele>844.2</ele>
      </trkpt>
      <trkpt lat="50.103195374751635" lon="-122.94512643573616">
        <ele>844.2</ele>
      </trkpt>
      <trkpt lat="50.10319779031846" lon="-122.9451403166137">
        <ele>844.2</ele>
      </trkpt>
      <trkpt lat="50.10319928003225" lon="-122.94515451053776">
        <ele>844.2</ele>
      </trkpt>
      <trkpt lat="50.1031998281822" lon="-122.94516886781659">
        <ele>844.2</ele>
      </trkpt>
      <trkpt lat="50.10319942898742" lon="-122.94518323703562">
        <ele>844.2</ele>
      </trkpt>
      <trkpt lat="50.1031980866579" lon="-122.94519746665442">
        <ele>844.2</ele>
      </trkpt>
      <trkpt lat="50.103298086657894" lon="-122.94521746671175">
        <ele>844.2</ele>
      </trkpt>
      <trkpt lat="50.103296899116394" lon="-122.94522548983925">
        <ele>844.2</ele>
      </trkpt>
      <trkpt lat="50.10329541121031" lon="-122.94523339029702">
        <ele>844.2</ele>
      </trkpt>
      <trkpt lat="50.103293628082554" lon="-122.94524114077734">
        <ele>844.2</ele>
      </trkpt>
      <trkpt lat="50.103291555896455" lon="-122.94524871449086">
        <ele>844.2</ele>
      </trkpt>
      <trkpt lat="50.103289201814476" lon="-122.94525608525925">
        <ele>844.2</ele>
      </trkpt>
      <trkpt lat="50.103286573973435" lon="-122.94526322760561">
        <ele>844.2</ele>
      </trkpt>
      <trkpt lat="50.10328368145641" lon="-122.94527011684261">
        <ele>844.2</ele>
      </trkpt>
      <trkpt lat="50.1032805342613" lon="-122.94527672915778">
        <ele>844.2</ele>
      </trkpt>
      <trkpt lat="50.10327714326631" lon="-122.94528304169583">
        <ele>844.2</ele>
      </trkpt>
      <trkpt lat="50.10327352019233" lon="-122.94528903263763">
        <ele>844.2</ele>
      </trkpt>
      <trkpt lat="50.103303520192334" lon="-122.94531903269966">
        <ele>844.2</ele>
      </trkpt>
      <trkpt lat="50.10330203140213" lon="-122.94532130066328">
        <ele>844.2</ele>
      </trkpt>
      <trkpt lat="50.103300509307076" lon="-122.94532351423827">
        <ele>844.2</ele>
      </trkpt>
      <trkpt lat="50.1032989547244" lon="-122.94532567223615">
        <ele>844.2</ele>
      </trkpt>
      <trkpt lat="50.10329736848877" lon="-122.94532777349832">
        <ele>844.2</ele>
      </trkpt>
      <trkpt lat="50.10329575145182" lon="-122.94532981689657">
        <ele>844.2</ele>
      </trkpt>
      <trkpt lat="50.103294104481755" lon="-122.94533180133382">
        <ele>844.2</ele>
      </trkpt>
      <trkpt lat="50.10329242846284" lon="-122.94533372574459">
        <ele>844.2</ele>
      </trkpt>
      <trkpt lat="50.10329072429492" lon="-122.94533558909569">
        <ele>844.2</ele>
      </trkpt>
      <trkpt lat="50.10328899289299" lon="-122.94533739038667">
        <ele>844.2</ele>
      </trkpt>
      <trkpt lat="50.10328723518663" lon="-122.94533912865039">
        <ele>844.2</ele>
      </trkpt>
      <trkpt lat="50.10362723518663" lon="-122.94588912949597">
        <ele>840.4</ele>
      </trkpt>
      <trkpt lat="50.10362899289299" lon="-122.9458873912199">
        <ele>840.4</ele>
      </trkpt>
      <trkpt lat="50.10363072429493" lon="-122.94588558991613">
        <ele>840.4</ele>
      </trkpt>
      <trkpt lat="50.103632428462845" lon="-122.94588372655181">
        <ele>840.4</ele>
      </trkpt>
      <trkpt lat="50.10363410448176" lon="-122.94588180212737">
        <ele>840.4</ele>
      </trkpt>
      <trkpt lat="50.103635751451826" lon="-122.94587981767604">
        <ele>840.4</ele>
      </trkpt>
      <trkpt lat="50.103637368488776" lon="-122.94587777426328">
        <ele>840.4</ele>
      </trkpt>
      <trkpt lat="50.10363895472441" lon="-122.9458756729862">
        <ele>840.4</ele>
      </trkpt>
      <trkpt lat="50.103640509307084" lon="-122.94587351497299">
        <ele>840.4</ele>
      </trkpt>
      <trkpt lat="50.10364203140214" lon="-122.94587130138228">
        <ele>840.4</ele>
      </trkpt>
      <trkpt lat="50.10364352019235" lon="-122.94586903340257">
        <ele>840.4</ele>
      </trkpt>
      <trkpt lat="50.10386352019235" lon="-122.94608903385742">
        <ele>834.0</ele>
      </trkpt>
      <trkpt lat="50.103860343795134" lon="-122.94609375003543">
        <ele>834.0</ele>
      </trkpt>
      <trkpt lat="50.10385702352464" lon="-122.94609821884984">
        <ele>834.0</ele>
      </trkpt>
      <trkpt lat="50.10385356729714" lon="-122.94610242964599">
        <ele>834.0</ele>
      </trkpt>
      <trkpt lat="50.10384998335307" lon="-122.94610637238438">
        <ele>834.0</ele>
      </trkpt>
      <trkpt lat="50.103846280237356" lon="-122.94611003766464">
        <ele>834.0</ele>
      </trkpt>
      <trkpt lat="50.103842466779064" lon="-122.9461134167479">
        <ele>834.0</ele>
      </trkpt>
      <trkpt lat="50.10383855207036" lon="-122.94611650157766">
        <ele>834.0</ele>
      </trkpt>
      <trkpt lat="50.10383454544477" lon="-122.94611928479901">
        <ele>834.0</ele>
      </trkpt>
      <trkpt lat="50.103830456455015" lon="-122.94612175977609">
        <ele>834.0</ele>
      </trkpt>
      <trkpt lat="50.10382629485017" lon="-122.946123920608">
        <ele>834.0</ele>
      </trkpt>
      <trkpt lat="50.10397629485017" lon="-122.94661392102738">
        <ele>827.8</ele>
      </trkpt>
      <trkpt lat="50.10398481395219" lon="-122.94660911000808">
        <ele>827.8</ele>
      </trkpt>
      <trkpt lat="50.1039929788714" lon="-122.94660298547674">
        <ele>827.8</ele>
      </trkpt>
      <trkpt lat="50.10400070654128" lon="-122.9465956097418">
        <ele>827.8</ele>
      </trkpt>
      <trkpt lat="50.10400791834369" lon="-122.94658705784099">
        <ele>827.8</ele>
      </trkpt>
      <trkpt lat="50.10401454090872" lon="-122.94657741677777">
        <ele>827.8</ele>
      </trkpt>
      <trkpt lat="50.10402050686113" lon="-122.94656678463639">
        <ele>827.8</ele>
      </trkpt>
      <trkpt lat="50.10402575550577" lon="-122.94655526958385">
        <ele>827.8</ele>
      </trkpt>
      <trkpt lat="50.10403023344511" lon="-122.94654298876956">
        <ele>827.8</ele>
      </trkpt>
      <trkpt lat="50.104033895122406" lon="-122.9465300671335">
        <ele>827.8</ele>
      </trkpt>
      <trkpt lat="50.10403670328529" lon="-122.94651663613502">
        <ele>827.8</ele>
      </trkpt>
      <trkpt lat="50.10403862936465" lon="-122.94650283241559">
        <ele>827.8</ele>
      </trkpt>
      <trkpt lat="50.10403965376537" lon="-122.94648879640857">
        <ele>827.8</ele>
      </trkpt>
      <trkpt lat="50.1040397660656" lon="-122.94647467091052">
        <ele>827.8</ele>
      </trkpt>
      <trkpt lat="50.10403896512284" lon="-122.94646059962842">
        <ele>827.8</ele>
      </trkpt>
      <trkpt lat="50.10403725908557" lon="-122.94644672571772">
        <ele>827.8</ele>
      </trkpt>
      <trkpt lat="50.1040346653103" lon="-122.94643319032586">
        <ele>827.8</ele>
      </trkpt>
      <trkpt lat="50.104031210185035" lon="-122.94642013115636">
        <ele>827.8</ele>
      </trkpt>
      <trkpt lat="50.10402692886079" lon="-122.9464076810678">
        <ele>827.8</ele>
      </trkpt>
      <trkpt lat="50.104021864894" lon="-122.94639596672228">
        <ele>827.8</ele>
      </trkpt>
      <trkpt lat="50.10406186489401" lon="-122.94636596665211">
        <ele>827.8</ele>
      </trkpt>
      <trkpt lat="50.10405581004629" lon="-122.94635466946426">
        <ele>827.8</ele>
      </trkpt>
      <trkpt lat="50.10404902803096" lon="-122.94634442563043">
        <ele>827.8</ele>
      </trkpt>
      <trkpt lat="50.10404159378585" lon="-122.9463353483398">
        <ele>827.8</ele>
      </trkpt>
      <trkpt lat="50.1040335894556" lon="-122.94632753789183">
        <ele>827.8</ele>
      </trkpt>
      <trkpt lat="50.104025103483984" lon="-122.94632108058799">
        <ele>827.8</ele>
      </trkpt>
      <trkpt lat="50.104016229636684" lon="-122.94631604777821">
        <ele>827.8</ele>
      </trkpt>
      <trkpt lat="50.10400706596522" lon="-122.94631249507249">
        <ele>827.8</ele>
      </trkpt>
      <trkpt lat="50.10399771372351" lon="-122.94631046172643">
        <ele>827.8</ele>
      </trkpt>
      <trkpt lat="50.10398827624906" lon="-122.94630997020745">
        <ele>827.8</ele>
      </trkpt>
      <trkpt lat="50.10397885782118" lon="-122.9463110259466">
        <ele>827.8</ele>
      </trkpt>
      <trkpt lat="50.10393885782118" lon="-122.94599102606266">
        <ele>827.1</ele>
      </trkpt>
      <trkpt lat="50.1039402976658" lon="-122.94599076383349">
        <ele>827.1</ele>
      </trkpt>
      <trkpt lat="50.10394174003705" lon="-122.94599053786332">
        <ele>827.1</ele>
      </trkpt>
      <trkpt lat="50.1039431845593" lon="-122.945990348211">
        <ele>827.1</ele>
      </trkpt>
      <trkpt lat="50.10394463085638" lon="-122.9459901949259">
        <ele>827.1</ele>
      </trkpt>
      <trkpt lat="50.103946078551665" lon="-122.94599007804794">
        <ele>827.1</ele>
      </trkpt>
      <trkpt lat="50.10394752726815" lon="-122.94598999760755">
        <ele>827.1</ele>
      </trkpt>
      <trkpt lat="50.10394897662856" lon="-122.94598995362571">
        <ele>827.1</ele>
      </trkpt>
      <trkpt lat="50.10395042625547" lon="-122.94598994611384">
        <ele>827.1</ele>
      </trkpt>
      <trkpt lat="50.103951875771386" lon="-122.94598997507391">
        <ele>827.1</ele>
      </trkpt>
      <trkpt lat="50.10395332479882" lon="-122.94599004049837">
        <ele>827.1</ele>
      </trkpt>
      <trkpt lat="50.10397332479882" lon="-122.94545004043994">
        <ele>826.4</ele>
      </trkpt>
      <trkpt lat="50.1039688280375" lon="-122.94544995639825">
        <ele>826.4</ele>
      </trkpt>
      <trkpt lat="50.10396433421331" lon="-122.94545022332797">
        <ele>826.4</ele>
      </trkpt>
      <trkpt lat="50.10395985458847" lon="-122.94545084056013">
        <ele>826.4</ele>
      </trkpt>
      <trkpt lat="50.10395540038964" lon="-122.94545180654787">
        <ele>826.4</ele>
      </trkpt>
      <trkpt lat="50.103950982779736" lon="-122.94545311887023">
        <ele>826.4</ele>
      </trkpt>
      <trkpt lat="50.10394661282999" lon="-122.94545477423836">
        <ele>826.4</ele>
      </trkpt>
      <trkpt lat="50.103942301492204" lon="-122.94545676850362">
        <ele>826.4</ele>
      </trkpt>
      <trkpt lat="50.10393805957125" lon="-122.94545909666809">
        <ele>826.4</ele>
      </trkpt>
      <trkpt lat="50.10393389769806" lon="-122.945461752897">
        <ele>826.4</ele>
      </trkpt>
      <trkpt lat="50.10392982630295" lon="-122.94546473053343">
        <ele>826.4</ele>
      </trkpt>
      <trkpt lat="50.103799826302954" lon="-122.94520473087341">
        <ele>831.0</ele>
      </trkpt>
      <trkpt lat="50.10380600208346" lon="-122.94520036276496">
        <ele>831.0</ele>
      </trkpt>
      <trkpt lat="50.103812371622105" lon="-122.94519673347439">
        <ele>831.0</ele>
      </trkpt>
      <trkpt lat="50.10381889861813" lon="-122.94519386368546">
        <ele>831.0</ele>
      </trkpt>
      <trkpt lat="50.10382554587342" lon="-122.94519176975344">
        <ele>831.0</ele>
      </trkpt>
      <trkpt lat="50.10383227550448" lon="-122.9451904636119">
        <ele>831.0</ele>
      </trkpt>
      <trkpt lat="50.103839049158346" lon="-122.94518995270465">
        <ele>831.0</ele>
      </trkpt>
      <trkpt lat="50.10384582823118" lon="-122.94519023994347">
        <ele>831.0</ele>
      </trkpt>
      <trkpt lat="50.10385257408823" lon="-122.94519132369133">
        <ele>831.0</ele>
      </trkpt>
      <trkpt lat="50.10385924828407" lon="-122.94519319777181">
        <ele>831.0</ele>
      </trkpt>
      <trkpt lat="50.10386581278167" lon="-122.94519585150432">
        <ele>831.0</ele>
      </trkpt>
      <trkpt lat="50.10389581278167" lon="-122.94509585142029">
        <ele>829.7</ele>
      </trkpt>
      <trkpt lat="50.10390428070299" lon="-122.94510054383107">
        <ele>829.7</ele>
      </trkpt>
      <trkpt lat="50.10391240552968" lon="-122.94510653188964">
        <ele>829.7</ele>
      </trkpt>
      <trkpt lat="50.1039201059453" lon="-122.94511375566513">
        <ele>829.7</ele>
      </trkpt>
      <trkpt lat="50.1039273048811" lon="-122.94512214285923">
        <ele>829.7</ele>
      </trkpt>
      <trkpt lat="50.103933930287326" lon="-122.94513160952961">
        <ele>829.7</ele>
      </trkpt>
      <trkpt lat="50.103939915854326" lon="-122.94514206093015">
        <ele>829.7</ele>
      </trkpt>
      <trkpt lat="50.103945201676225" lon="-122.94515339245916">
        <ele>829.7</ele>
      </trkpt>
      <trkpt lat="50.103949734850445" lon="-122.94516549070629">
        <ele>829.7</ele>
      </trkpt>
      <trkpt lat="50.10395347000722" lon="-122.94517823458756">
        <ele>829.7</ele>
      </trkpt>
      <trkpt lat="50.103956369763644" lon="-122.94519149655724">
        <ele>829.7</ele>
      </trkpt>
      <trkpt lat="50.10395840509783" lon="-122.94520514388438">
        <ele>829.7</ele>
      </trkpt>
      <trkpt lat="50.10395955563934" lon="-122.94521903998121">
        <ele>829.7</ele>
      </trkpt>
      <trkpt lat="50.10395980987313" lon="-122.94523304577018">
        <ele>829.7</ele>
      </trkpt>
      <trkpt lat="50.10395916525473" lon="-122.94524702107589">
        <ele>829.7</ele>
      </trkpt>
      <trkpt lat="50.10395762823571" lon="-122.94526082602805">
        <ele>829.7</ele>
      </trkpt>
      <trkpt lat="50.10395521419917" lon="-122.9452743224613">
        <ele>829.7</ele>
      </trkpt>
      <trkpt lat="50.10395194730573" lon="-122.9452873752981">
        <ele>829.7</ele>
      </trkpt>
      <trkpt lat="50.10394786025172" lon="-122.94529985390055">
        <ele>829.7</ele>
      </trkpt>
      <trkpt lat="50.10394299394199" lon="-122.94531163337795">
        <ele>829.7</ele>
      </trkpt>
      <trkpt lat="50.10393739708044" lon="-122.94532259583671">
        <ele>829.7</ele>
      </trkpt>
      <trkpt lat="50.10393112568266" lon="-122.94533263156026">
        <ele>829.7</ele>
      </trkpt>
      <trkpt lat="50.104061125682655" lon="-122.9454726318388">
        <ele>824.6</ele>
      </trkpt>
      <trkpt lat="50.10405961615404" lon="-122.94547476801996">
        <ele>824.6</ele>
      </trkpt>
      <trkpt lat="50.10405807592239" lon="-122.94547685024436">
        <ele>824.6</ele>
      </trkpt>
      <trkpt lat="50.10405650578095" lon="-122.9454788774396">
        <ele>824.6</ele>
      </trkpt>
      <trkpt lat="50.10405490653836" lon="-122.94548084856166">
        <ele>824.6</ele>
      </trkpt>
      <trkpt lat="50.10405327901825" lon="-122.94548276259539">
        <ele>824.6</ele>
      </trkpt>
      <trkpt lat="50.10405162405881" lon="-122.94548461855504">
        <ele>824.6</ele>
      </trkpt>
      <trkpt lat="50.10404994251236" lon="-122.94548641548477">
        <ele>824.6</ele>
      </trkpt>
      <trkpt lat="50.10404823524493" lon="-122.94548815245915">
        <ele>824.6</ele>
      </trkpt>
      <trkpt lat="50.10404650313577" lon="-122.94548982858359">
        <ele>824.6</ele>
      </trkpt>
      <trkpt lat="50.10404474707695" lon="-122.94549144299489">
        <ele>824.6</ele>
      </trkpt>
      <trkpt lat="50.10427" lon="-122.94584">
        <ele>821.0</ele>
      </trkpt>
      <trkpt lat="50.10441113276849" lon="-122.94608515349366">
        <ele>821.0</ele>
      </trkpt>
      <trkpt lat="50.10441335560052" lon="-122.94608267538837">
        <ele>821.0</ele>
      </trkpt>
      <trkpt lat="50.10441552905959" lon="-122.94608009301815">
        <ele>821.0</ele>
      </trkpt>
      <trkpt lat="50.10441765113446" lon="-122.94607740877262">
        <ele>821.0</ele>
      </trkpt>
      <trkpt lat="50.104419719861475" lon="-122.94607462513568">
        <ele>821.0</ele>
      </trkpt>
      <trkpt lat="50.10442173332631" lon="-122.94607174468315">
        <ele>821.0</ele>
      </trkpt>
      <trkpt lat="50.1044236896658" lon="-122.9460687700805">
        <ele>821.0</ele>
      </trkpt>
      <trkpt lat="50.104425587069635" lon="-122.9460657040803">
        <ele>821.0</ele>
      </trkpt>
      <trkpt lat="50.10442742378203" lon="-122.94606254951967">
        <ele>821.0</ele>
      </trkpt>
      <trkpt lat="50.104429198103375" lon="-122.94605930931773">
        <ele>821.0</ele>
      </trkpt>
      <trkpt lat="50.10443090839179" lon="-122.94605598647281">
        <ele>821.0</ele>
      </trkpt>
      <trkpt lat="50.10452090839179" lon="-122.94612598663437">
        <ele>811.8</ele>
      </trkpt>
      <trkpt lat="50.10451875226476" lon="-122.94613014260558">
        <ele>811.8</ele>
      </trkpt>
      <trkpt lat="50.10451649599253" lon="-122.94613416727422">
        <ele>811.8</ele>
      </trkpt>
      <trkpt lat="50.1045141428616" lon="-122.9461380547779">
        <ele>811.8</ele>
      </trkpt>
      <trkpt lat="50.10451169629957" lon="-122.94614179945407">
        <ele>811.8</ele>
      </trkpt>
      <trkpt lat="50.10450915987012" lon="-122.94614539584816">
        <ele>811.8</ele>
      </trkpt>
      <trkpt lat="50.10450653726784" lon="-122.94614883872168">
        <ele>811.8</ele>
      </trkpt>
      <trkpt lat="50.10450383231284" lon="-122.94615212305966">
        <ele>811.8</ele>
      </trkpt>
      <trkpt lat="50.104501048945174" lon="-122.94615524407814">
        <ele>811.8</ele>
      </trkpt>
      <trkpt lat="50.10449819121913" lon="-122.94615819723099">
        <ele>811.8</ele>
      </trkpt>
      <trkpt lat="50.104495263297295" lon="-122.94616097821662">
        <ele>811.8</ele>
      </trkpt>
      <trkpt lat="50.104565263297296" lon="-122.94628097839343">
        <ele>813.0</ele>
      </trkpt>
      <trkpt lat="50.104566735125545" lon="-122.94627961028928">
        <ele>813.0</ele>
      </trkpt>
      <trkpt lat="50.10456818994849" lon="-122.94627819866304">
        <ele>813.0</ele>
      </trkpt>
      <trkpt lat="50.10456962723675" lon="-122.94627674402835">
        <ele>813.0</ele>
      </trkpt>
      <trkpt lat="50.10457104646736" lon="-122.94627524691451">
        <ele>813.0</ele>
      </trkpt>
      <trkpt lat="50.104572447123914" lon="-122.94627370786627">
        <ele>813.0</ele>
      </trkpt>
      <trkpt lat="50.10457382869675" lon="-122.9462721274436">
        <ele>813.0</ele>
      </trkpt>
      <trkpt lat="50.104575190683164" lon="-122.94627050622162">
        <ele>813.0</ele>
      </trkpt>
      <trkpt lat="50.10457653258758" lon="-122.9462688447902">
        <ele>813.0</ele>
      </trkpt>
      <trkpt lat="50.104577853921725" lon="-122.94626714375389">
        <ele>813.0</ele>
      </trkpt>
      <trkpt lat="50.10457915420481" lon="-122.94626540373163">
        <ele>813.0</ele>
      </trkpt>
      <trkpt lat="50.10464915420481" lon="-122.94634540388567">
        <ele>813.0</ele>
      </trkpt>
      <trkpt lat="50.10464632098625" lon="-122.94634911128077">
        <ele>813.0</ele>
      </trkpt>
      <trkpt lat="50.10464339227978" lon="-122.94635263368608">
        <ele>813.0</ele>
      </trkpt>
      <trkpt lat="50.104640373050806" lon="-122.9463559651296">
        <ele>813.0</ele>
      </trkpt>
      <trkpt lat="50.10463726841819" lon="-122.94635909996316">
        <ele>813.0</ele>
      </trkpt>
      <trkpt lat="50.10463408364559" lon="-122.94636203287187">
        <ele>813.0</ele>
      </trkpt>
      <trkpt lat="50.10463082413256" lon="-122.9463647588832">
        <ele>813.0</ele>
      </trkpt>
      <trkpt lat="50.104627495405346" lon="-122.94636727337544">
        <ele>813.0</ele>
      </trkpt>
      <trkpt lat="50.104624103107554" lon="-122.94636957208544">
        <ele>813.0</ele>
      </trkpt>
      <trkpt lat="50.104620652990555" lon="-122.94637165111591">
        <ele>813.0</ele>
      </trkpt>
      <trkpt lat="50.10461715090377" lon="-122.94637350694202">
        <ele>813.0</ele>
      </trkpt>
      <trkpt lat="50.10474715090377" lon="-122.94678350730437">
        <ele>816.0</ele>
      </trkpt>
      <trkpt lat="50.10475056681488" lon="-122.9467817001701">
        <ele>816.0</ele>
      </trkpt>
      <trkpt lat="50.10475393343845" lon="-122.94677968067555">
        <ele>816.0</ele>
      </trkpt>
      <trkpt lat="50.104757245345965" lon="-122.94677745207704">
        <ele>816.0</ele>
      </trkpt>
      <trkpt lat="50.10476049719713" lon="-122.94677501796812">
        <ele>816.0</ele>
      </trkpt>
      <trkpt lat="50.10476368374847" lon="-122.94677238227365">
        <ele>816.0</ele>
      </trkpt>
      <trkpt lat="50.10476679986185" lon="-122.94676954924356">
        <ele>816.0</ele>
      </trkpt>
      <trkpt lat="50.10476984051267" lon="-122.94676652344599">
        <ele>816.0</ele>
      </trkpt>
      <trkpt lat="50.10477280079802" lon="-122.94676330975987">
        <ele>816.0</ele>
      </trkpt>
      <trkpt lat="50.10477567594459" lon="-122.94675991336716">
        <ele>816.0</ele>
      </trkpt>
      <trkpt lat="50.104778461316336" lon="-122.94675633974434">
        <ele>816.0</ele>
      </trkpt>
      <trkpt lat="50.104958461316336" lon="-122.94696634014396">
        <ele>813.3</ele>
      </trkpt>
      <trkpt lat="50.104961132296005" lon="-122.94696262419171">
        <ele>813.3</ele>
      </trkpt>
      <trkpt lat="50.10496370619812" lon="-122.94695874527315">
        <ele>813.3</ele>
      </trkpt>
      <trkpt lat="50.10496617893535" lon="-122.94695470954797">
        <ele>813.3</ele>
      </trkpt>
      <trkpt lat="50.10496854658102" lon="-122.94695052342486">
        <ele>813.3</ele>
      </trkpt>
      <trkpt lat="50.104970805375316" lon="-122.94694619355134">
        <ele>813.3</ele>
      </trkpt>
      <trkpt lat="50.1049729517313" lon="-122.94694172680323">
        <ele>813.3</ele>
      </trkpt>
      <trkpt lat="50.10497498224058" lon="-122.94693713027367">
        <ele>813.3</ele>
      </trkpt>
      <trkpt lat="50.10497689367872" lon="-122.94693241126191">
        <ele>813.3</ele>
      </trkpt>
      <trkpt lat="50.104978683010366" lon="-122.9469275772617">
        <ele>813.3</ele>
      </trkpt>
      <trkpt lat="50.10498034739409" lon="-122.94692263594939">
        <ele>813.3</ele>
      </trkpt>
      <trkpt lat="50.10506034739409" lon="-122.94696263605401">
        <ele>813.3</ele>
      </trkpt>
      <trkpt lat="50.105058238421876" lon="-122.94696882073575">
        <ele>813.3</ele>
      </trkpt>
      <trkpt lat="50.10505593376838" lon="-122.94697483329068">
        <ele>813.3</ele>
      </trkpt>
      <trkpt lat="50.10505343919774" lon="-122.94698065868087">
        <ele>813.3</ele>
      </trkpt>
      <trkpt lat="50.10505076094911" lon="-122.9469862823365">
        <ele>813.3</ele>
      </trkpt>
      <trkpt lat="50.10504790572103" lon="-122.94699169019228">
        <ele>813.3</ele>
      </trkpt>
      <trkpt lat="50.105044880654674" lon="-122.9469968687227">
        <ele>813.3</ele>
      </trkpt>
      <trkpt lat="50.105041693316" lon="-122.9470018049758">
        <ele>813.3</ele>
      </trkpt>
      <trkpt lat="50.10503835167683" lon="-122.94700648660556">
        <ele>813.3</ele>
      </trkpt>
      <trkpt lat="50.10503486409491" lon="-122.9470109019028">
        <ele>813.3</ele>
      </trkpt>
      <trkpt lat="50.105031239292984" lon="-122.94701503982448">
        <ele>813.3</ele>
      </trkpt>
      <trkpt lat="50.105281239292985" lon="-122.94737504042493">
        <ele>809.4</ele>
      </trkpt>
      <trkpt lat="50.10527927402393" lon="-122.94737710888874">
        <ele>809.4</ele>
      </trkpt>
      <trkpt lat="50.10527727442428" lon="-122.94737909575953">
        <ele>809.4</ele>
      </trkpt>
      <trkpt lat="50.10527524188721" lon="-122.94738099965296">
        <ele>809.4</ele>
      </trkpt>
      <trkpt lat="50.10527317782886" lon="-122.94738281924253">
        <ele>809.4</ele>
      </trkpt>
      <trkpt lat="50.1052710836873" lon="-122.9473845532605">
        <ele>809.4</ele>
      </trkpt>
      <trkpt lat="50.105268960921585" lon="-122.94738620049873">
        <ele>809.4</ele>
      </trkpt>
      <trkpt lat="50.10526681101071" lon="-122.94738775980953">
        <ele>809.4</ele>
      </trkpt>
      <trkpt lat="50.10526463545256" lon="-122.9473892301065">
        <ele>809.4</ele>
      </trkpt>
      <trkpt lat="50.10526243576293" lon="-122.94739061036523">
        <ele>809.4</ele>
      </trkpt>
      <trkpt lat="50.105260213474395" lon="-122.94739189962405">
        <ele>809.4</ele>
      </trkpt>
      <trkpt lat="50.1053602134744" lon="-122.94767189989943">
        <ele>803.4</ele>
      </trkpt>
      <trkpt lat="50.10536392508104" lon="-122.94766968764239">
        <ele>803.4</ele>
      </trkpt>
      <trkpt lat="50.10536757030884" lon="-122.94766722163455">
        <ele>803.4</ele>
      </trkpt>
      <trkpt lat="50.105371142025426" lon="-122.947664506701">
        <ele>803.4</ele>
      </trkpt>
      <trkpt lat="50.10537463324228" lon="-122.94766154815385">
        <ele>803.4</ele>
      </trkpt>
      <trkpt lat="50.10537803712837" lon="-122.94765835178188">
        <ele>803.4</ele>
      </trkpt>
      <trkpt lat="50.10538134702355" lon="-122.94765492383922">
        <ele>803.4</ele>
      </trkpt>
      <trkpt lat="50.10538455645159" lon="-122.94765127103308">
        <ele>803.4</ele>
      </trkpt>
      <trkpt lat="50.10538765913281" lon="-122.94764740051065">
        <ele>803.4</ele>
      </trkpt>
      <trkpt lat="50.10539064899642" lon="-122.94764331984511">
        <ele>803.4</ele>
      </trkpt>
      <trkpt lat="50.10539352019236" lon="-122.94763903702082">
        <ele>803.4</ele>
      </trkpt>
      <trkpt lat="50.10541352019236" lon="-122.94765903706217">
        <ele>803.4</ele>
      </trkpt>
      <trkpt lat="50.10541986423524" lon="-122.94764804145517">
        <ele>803.4</ele>
      </trkpt>
      <trkpt lat="50.10542542923984" lon="-122.94763606412033">
        <ele>803.4</ele>
      </trkpt>
      <trkpt lat="50.10543015315219" lon="-122.94762323861386">
        <ele>803.4</ele>
      </trkpt>
      <trkpt lat="50.10543398329716" lon="-122.94760970794971">
        <ele>803.4</ele>
      </trkpt>
      <trkpt lat="50.10543687696578" lon="-122.94759562300489">
        <ele>803.4</ele>
      </trkpt>
      <trkpt lat="50.10543880189149" lon="-122.947581140837">
        <ele>803.4</ele>
      </trkpt>
      <trkpt lat="50.105439736609924" lon="-122.94756642293304">
        <ele>803.4</ele>
      </trkpt>
      <trkpt lat="50.10543967069829" lon="-122.94755163340858">
        <ele>803.4</ele>
      </trkpt>
      <trkpt lat="50.10543860489153" lon="-122.94753693717784">
        <ele>803.4</ele>
      </trkpt>
      <trkpt lat="50.105436551074206" lon="-122.94752249811478">
        <ele>803.4</ele>
      </trkpt>
      <trkpt lat="50.10543353214789" lon="-122.94750847722567">
        <ele>803.4</ele>
      </trkpt>
      <trkpt lat="50.10542958177588" lon="-122.94749503085389">
        <ele>803.4</ele>
      </trkpt>
      <trkpt lat="50.10542474400776" lon="-122.94748230893651">
        <ele>803.4</ele>
      </trkpt>
      <trkpt lat="50.10545474400776" lon="-122.94746230888786">
        <ele>803.4</ele>
      </trkpt>
      <trkpt lat="50.1054492313773" lon="-122.9474507514882">
        <ele>803.4</ele>
      </trkpt>
      <trkpt lat="50.105442986622904" lon="-122.94744013789429">
        <ele>803.4</ele>
      </trkpt>
      <trkpt lat="50.10543607578304" lon="-122.94743058034521">
        <ele>803.4</ele>
      </trkpt>
      <trkpt lat="50.10542857194005" lon="-122.94742217991232">
        <ele>803.4</ele>
      </trkpt>
      <trkpt lat="50.10542055444731" lon="-122.94741502543047">
        <ele>803.4</ele>
      </trkpt>
      <trkpt lat="50.10541210809005" lon="-122.94740919255852">
        <ele>803.4</ele>
      </trkpt>
      <trkpt lat="50.10540332218876" lon="-122.94740474297929">
        <ele>803.4</ele>
      </trkpt>
      <trkpt lat="50.1053942896546" lon="-122.94740172374718">
        <ele>803.4</ele>
      </trkpt>
      <trkpt lat="50.1053851060069" lon="-122.94740016679067">
        <ele>803.4</ele>
      </trkpt>
      <trkpt lat="50.105375868363026" lon="-122.94740008857465">
        <ele>803.4</ele>
      </trkpt>
      <trkpt lat="50.10536667441134" lon="-122.94740148992622">
        <ele>803.4</ele>
      </trkpt>
      <trkpt lat="50.10533667441135" lon="-122.94720149001297">
        <ele>800.6</ele>
      </trkpt>
      <trkpt lat="50.10534086866468" lon="-122.94720066592099">
        <ele>800.6</ele>
      </trkpt>
      <trkpt lat="50.10534508314043" lon="-122.94720015040048">
        <ele>800.6</ele>
      </trkpt>
      <trkpt lat="50.105349308505126" lon="-122.94719994459314">
        <ele>800.6</ele>
      </trkpt>
      <trkpt lat="50.105353535401214" lon="-122.94720004895473">
        <ele>800.6</ele>
      </trkpt>
      <trkpt lat="50.105357754467754" lon="-122.94720046325415">
        <ele>800.6</ele>
      </trkpt>
      <trkpt lat="50.105361956361115" lon="-122.94720118657388">
        <ele>800.6</ele>
      </trkpt>
      <trkpt lat="50.10536613177574" lon="-122.94720221731204">
        <ele>800.6</ele>
      </trkpt>
      <trkpt lat="50.10537027146467" lon="-122.94720355318594">
        <ele>800.6</ele>
      </trkpt>
      <trkpt lat="50.10537436626009" lon="-122.94720519123713">
        <ele>800.6</ele>
      </trkpt>
      <trkpt lat="50.1053784070936" lon="-122.94720712783798">
        <ele>800.6</ele>
      </trkpt>
      <trkpt lat="50.1053884070936" lon="-122.94717712781025">
        <ele>800.6</ele>
      </trkpt>
      <trkpt lat="50.10539232641462" lon="-122.94717932339518">
        <ele>800.6</ele>
      </trkpt>
      <trkpt lat="50.10539617625629" lon="-122.94718179984412">
        <ele>800.6</ele>
      </trkpt>
      <trkpt lat="50.10539994834412" lon="-122.94718455183443">
        <ele>800.6</ele>
      </trkpt>
      <trkpt lat="50.105403634570735" lon="-122.94718757345123">
        <ele>800.6</ele>
      </trkpt>
      <trkpt lat="50.1054072270133" lon="-122.94719085820014">
        <ele>800.6</ele>
      </trkpt>
      <trkpt lat="50.10541071795057" lon="-122.94719439902124">
        <ele>800.6</ele>
      </trkpt>
      <trkpt lat="50.10541409987944" lon="-122.94719818830421">
        <ele>800.6</ele>
      </trkpt>
      <trkpt lat="50.10541736553111" lon="-122.94720221790473">
        <ele>800.6</ele>
      </trkpt>
      <trkpt lat="50.105420507886706" lon="-122.94720647916195">
        <ele>800.6</ele>
      </trkpt>
      <trkpt lat="50.105423520192346" lon="-122.94721096291713">
        <ele>800.6</ele>
      </trkpt>
      <trkpt lat="50.10547352019235" lon="-122.94716096281374">
        <ele>800.6</ele>
      </trkpt>
      <trkpt lat="50.10547960189991" lon="-122.94717145477124">
        <ele>800.6</ele>
      </trkpt>
      <trkpt lat="50.1054849740092" lon="-122.94718284945614">
        <ele>800.6</ele>
      </trkpt>
      <trkpt lat="50.10548958175102" lon="-122.94719503069848">
        <ele>800.6</ele>
      </trkpt>
      <trkpt lat="50.10549337814899" lon="-122.94720787430931">
        <ele>800.6</ele>
      </trkpt>
      <trkpt lat="50.10549632449846" lon="-122.94722124934673">
        <ele>800.6</ele>
      </trkpt>
      <trkpt lat="50.1054983907611" lon="-122.9472350194509">
        <ele>800.6</ele>
      </trkpt>
      <trkpt lat="50.105499555871155" lon="-122.94724904423424">
        <ele>800.6</ele>
      </trkpt>
      <trkpt lat="50.10549980795022" lon="-122.94726318071271">
        <ele>800.6</ele>
      </trkpt>
      <trkpt lat="50.10549914442831" lon="-122.9472772847635">
        <ele>800.6</ele>
      </trkpt>
      <trkpt lat="50.10549757207011" lon="-122.94729121259441">
        <ele>800.6</ele>
      </trkpt>
      <trkpt lat="50.10549510690596" lon="-122.94730482220982">
        <ele>800.6</ele>
      </trkpt>
      <trkpt lat="50.10549177406846" lon="-122.94731797485834">
        <ele>800.6</ele>
      </trkpt>
      <trkpt lat="50.10548760753622" lon="-122.94733053644744">
        <ele>800.6</ele>
      </trkpt>
      <trkpt lat="50.10548264978744" lon="-122.94734237891045">
        <ele>800.6</ele>
      </trkpt>
      <trkpt lat="50.10547695136687" lon="-122.9473533815123">
        <ele>800.6</ele>
      </trkpt>
      <trkpt lat="50.105470570370464" lon="-122.94736343208035">
        <ele>800.6</ele>
      </trkpt>
      <trkpt lat="50.10589057037046" lon="-122.94782343298733">
        <ele>795.0</ele>
      </trkpt>
      <trkpt lat="50.105891236779314" lon="-122.94782247464276">
        <ele>795.0</ele>
      </trkpt>
      <trkpt lat="50.10589189695112" lon="-122.94782150586101">
        <ele>795.0</ele>
      </trkpt>
      <trkpt lat="50.10589255081865" lon="-122.94782052674077">
        <ele>795.0</ele>
      </trkpt>
      <trkpt lat="50.10589319831531" lon="-122.94781953738176">
        <ele>795.0</ele>
      </trkpt>
      <trkpt lat="50.10589383937514" lon="-122.94781853788476">
        <ele>795.0</ele>
      </trkpt>
      <trkpt lat="50.10589447393285" lon="-122.94781752835155">
        <ele>795.0</ele>
      </trkpt>
      <trkpt lat="50.10589510192382" lon="-122.94781650888496">
        <ele>795.0</ele>
      </trkpt>
      <trkpt lat="50.10589572328408" lon="-122.94781547958881">
        <ele>795.0</ele>
      </trkpt>
      <trkpt lat="50.105896337950334" lon="-122.94781444056797">
        <ele>795.0</ele>
      </trkpt>
      <trkpt lat="50.105896945859996" lon="-122.94781339192824">
        <ele>795.0</ele>
      </trkpt>
      <trkpt lat="50.10608694586" lon="-122.94798339229871">
        <ele>792.1</ele>
      </trkpt>
      <trkpt lat="50.10608494237123" lon="-122.94798677023948">
        <ele>792.1</ele>
      </trkpt>
      <trkpt lat="50.10608286880491" lon="-122.94799004375811">
        <ele>792.1</ele>
      </trkpt>
      <trkpt lat="50.10608072739858" lon="-122.94799320932225">
        <ele>792.1</ele>
      </trkpt>
      <trkpt lat="50.10607852046296" lon="-122.94799626351602">
        <ele>792.1</ele>
      </trkpt>
      <trkpt lat="50.106076250379495" lon="-122.94799920304371">
        <ele>792.1</ele>
      </trkpt>
      <trkpt lat="50.106073919597776" lon="-122.94800202473337">
        <ele>792.1</ele>
      </trkpt>
      <trkpt lat="50.10607153063289" lon="-122.94800472554019">
        <ele>792.1</ele>
      </trkpt>
      <trkpt lat="50.106069086062696" lon="-122.94800730254978">
        <ele>792.1</ele>
      </trkpt>
      <trkpt lat="50.10606658852507" lon="-122.94800975298139">
        <ele>792.1</ele>
      </trkpt>
      <trkpt lat="50.106064040715026" lon="-122.94801207419081">
        <ele>792.1</ele>
      </trkpt>
      <trkpt lat="50.106244040715026" lon="-122.94833207464958">
        <ele>788.1</ele>
      </trkpt>
      <trkpt lat="50.10624562365266" lon="-122.94833065313439">
        <ele>788.1</ele>
      </trkpt>
      <trkpt lat="50.10624718772424" lon="-122.94832918172733">
        <ele>788.1</ele>
      </trkpt>
      <trkpt lat="50.10624873228301" lon="-122.94832766103687">
        <ele>788.1</ele>
      </trkpt>
      <trkpt lat="50.10625025669025" lon="-122.94832609169184">
        <ele>788.1</ele>
      </trkpt>
      <trkpt lat="50.106251760315615" lon="-122.94832447434118">
        <ele>788.1</ele>
      </trkpt>
      <trkpt lat="50.10625324253732" lon="-122.94832280965367">
        <ele>788.1</ele>
      </trkpt>
      <trkpt lat="50.106254702742454" lon="-122.94832109831772">
        <ele>788.1</ele>
      </trkpt>
      <trkpt lat="50.10625614032719" lon="-122.94831934104097">
        <ele>788.1</ele>
      </trkpt>
      <trkpt lat="50.10625755469707" lon="-122.94831753855009">
        <ele>788.1</ele>
      </trkpt>
      <trkpt lat="50.10625894526724" lon="-122.94831569159042">
        <ele>788.1</ele>
      </trkpt>
      <trkpt lat="50.10645894526724" lon="-122.94854569203177">
        <ele>779.1</ele>
      </trkpt>
      <trkpt lat="50.10645796026888" lon="-122.94854700814624">
        <ele>779.1</ele>
      </trkpt>
      <trkpt lat="50.1064569631842" lon="-122.94854830194654">
        <ele>779.1</ele>
      </trkpt>
      <trkpt lat="50.106455954221126" lon="-122.94854957316292">
        <ele>779.1</ele>
      </trkpt>
      <trkpt lat="50.10645493359005" lon="-122.94855082153025">
        <ele>779.1</ele>
      </trkpt>
      <trkpt lat="50.1064539015038" lon="-122.94855204678824">
        <ele>779.1</ele>
      </trkpt>
      <trkpt lat="50.106452858177605" lon="-122.94855324868136">
        <ele>779.1</ele>
      </trkpt>
      <trkpt lat="50.10645180382901" lon="-122.94855442695902">
        <ele>779.1</ele>
      </trkpt>
      <trkpt lat="50.10645073867789" lon="-122.9485555813755">
        <ele>779.1</ele>
      </trkpt>
      <trkpt lat="50.10644966294636" lon="-122.94855671169006">
        <ele>779.1</ele>
      </trkpt>
      <trkpt lat="50.106448576858725" lon="-122.94855781766702">
        <ele>779.1</ele>
      </trkpt>
      <trkpt lat="50.106628576858725" lon="-122.9488378181098">
        <ele>781.5</ele>
      </trkpt>
      <trkpt lat="50.10662655406818" lon="-122.94883978695307">
        <ele>781.5</ele>
      </trkpt>
      <trkpt lat="50.106624498473714" lon="-122.94884167138952">
        <ele>781.5</ele>
      </trkpt>
      <trkpt lat="50.10662241152378" lon="-122.94884347009126">
        <ele>781.5</ele>
      </trkpt>
      <trkpt lat="50.10662029468894" lon="-122.94884518179087">
        <ele>781.5</ele>
      </trkpt>
      <trkpt lat="50.106618149460786" lon="-122.94884680528223">
        <ele>781.5</ele>
      </trkpt>
      <trkpt lat="50.106615977350955" lon="-122.94884833942133">
        <ele>781.5</ele>
      </trkpt>
      <trkpt lat="50.10661377988999" lon="-122.94884978312719">
        <ele>781.5</ele>
      </trkpt>
      <trkpt lat="50.10661155862631" lon="-122.94885113538247">
        <ele>781.5</ele>
      </trkpt>
      <trkpt lat="50.10660931512513" lon="-122.94885239523434">
        <ele>781.5</ele>
      </trkpt>
      <trkpt lat="50.1066070509673" lon="-122.94885356179506">
        <ele>781.5</ele>
      </trkpt>
      <trkpt lat="50.106727050967294" lon="-122.9492335621297">
        <ele>778.7</ele>
      </trkpt>
      <trkpt lat="50.10672887155424" lon="-122.94923263231684">
        <ele>778.7</ele>
      </trkpt>
      <trkpt lat="50.10673067901006" lon="-122.9492316421812">
        <ele>778.7</ele>
      </trkpt>
      <trkpt lat="50.106732472512704" lon="-122.94923059217315">
        <ele>778.7</ele>
      </trkpt>
      <trkpt lat="50.106734251246465" lon="-122.9492294827702">
        <ele>778.7</ele>
      </trkpt>
      <trkpt lat="50.106736014402344" lon="-122.94922831447697">
        <ele>778.7</ele>
      </trkpt>
      <trkpt lat="50.106737761178444" lon="-122.94922708782477">
        <ele>778.7</ele>
      </trkpt>
      <trkpt lat="50.106739490780306" lon="-122.9492258033715">
        <ele>778.7</ele>
      </trkpt>
      <trkpt lat="50.1067412024213" lon="-122.94922446170136">
        <ele>778.7</ele>
      </trkpt>
      <trkpt lat="50.10674289532293" lon="-122.94922306342457">
        <ele>778.7</ele>
      </trkpt>
      <trkpt lat="50.106744568715264" lon="-122.94922160917706">
        <ele>778.7</ele>
      </trkpt>
      <trkpt lat="50.10682456871527" lon="-122.94936160938018">
        <ele>779.7</ele>
      </trkpt>
      <trkpt lat="50.10682226982579" lon="-122.94936358867918">
        <ele>779.7</ele>
      </trkpt>
      <trkpt lat="50.10681993481217" lon="-122.94936546235824">
        <ele>779.7</ele>
      </trkpt>
      <trkpt lat="50.10681756566992" lon="-122.94936722881614">
        <ele>779.7</ele>
      </trkpt>
      <trkpt lat="50.10681516442374" lon="-122.94936888654321">
        <ele>779.7</ele>
      </trkpt>
      <trkpt lat="50.10681273312575" lon="-122.94937043412278">
        <ele>779.7</ele>
      </trkpt>
      <trkpt lat="50.10681027385375" lon="-122.94937187023226">
        <ele>779.7</ele>
      </trkpt>
      <trkpt lat="50.10680778870946" lon="-122.94937319364432">
        <ele>779.7</ele>
      </trkpt>
      <trkpt lat="50.10680527981671" lon="-122.94937440322798">
        <ele>779.7</ele>
      </trkpt>
      <trkpt lat="50.10680274931962" lon="-122.94937549794952">
        <ele>779.7</ele>
      </trkpt>
      <trkpt lat="50.10680019938077" lon="-122.94937647687337">
        <ele>779.7</ele>
      </trkpt>
      <trkpt lat="50.106830199380774" lon="-122.94950647695885">
        <ele>779.7</ele>
      </trkpt>
      <trkpt lat="50.106832266674154" lon="-122.94950569280276">
        <ele>779.7</ele>
      </trkpt>
      <trkpt lat="50.10683432147711" lon="-122.94950483253017">
        <ele>779.7</ele>
      </trkpt>
      <trkpt lat="50.106836362637" lon="-122.94950389662365">
        <ele>779.7</ele>
      </trkpt>
      <trkpt lat="50.10683838900885" lon="-122.94950288560823">
        <ele>779.7</ele>
      </trkpt>
      <trkpt lat="50.10684039945596" lon="-122.94950180005098">
        <ele>779.7</ele>
      </trkpt>
      <trkpt lat="50.10684239285059" lon="-122.94950064056088">
        <ele>779.7</ele>
      </trkpt>
      <trkpt lat="50.10684436807453" lon="-122.94949940778835">
        <ele>779.7</ele>
      </trkpt>
      <trkpt lat="50.10684632401981" lon="-122.94949810242487">
        <ele>779.7</ele>
      </trkpt>
      <trkpt lat="50.106848259589235" lon="-122.94949672520272">
        <ele>779.7</ele>
      </trkpt>
      <trkpt lat="50.10685017369705" lon="-122.94949527689441">
        <ele>779.7</ele>
      </trkpt>
      <trkpt lat="50.106950173697044" lon="-122.94969527715597">
        <ele>778.5</ele>
      </trkpt>
      <trkpt lat="50.106951309720266" lon="-122.94969437575091">
        <ele>778.5</ele>
      </trkpt>
      <trkpt lat="50.10695243742601" lon="-122.94969344930348">
        <ele>778.5</ele>
      </trkpt>
      <trkpt lat="50.10695355658722" lon="-122.94969249800023">
        <ele>778.5</ele>
      </trkpt>
      <trkpt lat="50.10695466697855" lon="-122.94969152203271">
        <ele>778.5</ele>
      </trkpt>
      <trkpt lat="50.106955768376444" lon="-122.94969052159739">
        <ele>778.5</ele>
      </trkpt>
      <trkpt lat="50.10695686055913" lon="-122.94968949689574">
        <ele>778.5</ele>
      </trkpt>
      <trkpt lat="50.1069579433067" lon="-122.94968844813407">
        <ele>778.5</ele>
      </trkpt>
      <trkpt lat="50.10695901640117" lon="-122.94968737552352">
        <ele>778.5</ele>
      </trkpt>
      <trkpt lat="50.106960079626454" lon="-122.94968627928009">
        <ele>778.5</ele>
      </trkpt>
      <trkpt lat="50.10696113276849" lon="-122.94968515962448">
        <ele>778.5</ele>
      </trkpt>
      <trkpt lat="50.10714113276849" lon="-122.94994516005728">
        <ele>774.0</ele>
      </trkpt>
      <trkpt lat="50.107138788126306" lon="-122.94994760694989">
        <ele>774.0</ele>
      </trkpt>
      <trkpt lat="50.10713639535802" lon="-122.94994993783138">
        <ele>774.0</ele>
      </trkpt>
      <trkpt lat="50.10713395682392" lon="-122.9499521504025">
        <ele>774.0</ele>
      </trkpt>
      <trkpt lat="50.10713147492946" lon="-122.9499542424807">
        <ele>774.0</ele>
      </trkpt>
      <trkpt lat="50.10712895212285" lon="-122.94995621200229">
        <ele>774.0</ele>
      </trkpt>
      <trkpt lat="50.10712639089267" lon="-122.94995805702447">
        <ele>774.0</ele>
      </trkpt>
      <trkpt lat="50.10712379376538" lon="-122.94995977572728">
        <ele>774.0</ele>
      </trkpt>
      <trkpt lat="50.10712116330289" lon="-122.9499613664153">
        <ele>774.0</ele>
      </trkpt>
      <trkpt lat="50.10711850209996" lon="-122.94996282751943">
        <ele>774.0</ele>
      </trkpt>
      <trkpt lat="50.10711581278167" lon="-122.94996415759842">
        <ele>774.0</ele>
      </trkpt>
      <trkpt lat="50.10729581278167" lon="-122.95056415810261">
        <ele>769.0</ele>
      </trkpt>
      <trkpt lat="50.10729686955573" lon="-122.95056365271363">
        <ele>769.0</ele>
      </trkpt>
      <trkpt lat="50.10729792226144" lon="-122.9505631270881">
        <ele>769.0</ele>
      </trkpt>
      <trkpt lat="50.10729897073939" lon="-122.95056258130563">
        <ele>769.0</ele>
      </trkpt>
      <trkpt lat="50.107300014830855" lon="-122.95056201544885">
        <ele>769.0</ele>
      </trkpt>
      <trkpt lat="50.10730105437773" lon="-122.95056142960345">
        <ele>769.0</ele>
      </trkpt>
      <trkpt lat="50.10730208922262" lon="-122.95056082385811">
        <ele>769.0</ele>
      </trkpt>
      <trkpt lat="50.107303119208844" lon="-122.95056019830456">
        <ele>769.0</ele>
      </trkpt>
      <trkpt lat="50.10730414418044" lon="-122.95055955303752">
        <ele>769.0</ele>
      </trkpt>
      <trkpt lat="50.10730516398222" lon="-122.95055888815467">
        <ele>769.0</ele>
      </trkpt>
      <trkpt lat="50.10730617845978" lon="-122.95055820375671">
        <ele>769.0</ele>
      </trkpt>
      <trkpt lat="50.10774617845978" lon="-122.95155820493453">
        <ele>766.9</ele>
      </trkpt>
      <trkpt lat="50.107747083078024" lon="-122.95155757500847">
        <ele>766.9</ele>
      </trkpt>
      <trkpt lat="50.10774798318566" lon="-122.9515569295648">
        <ele>766.9</ele>
      </trkpt>
      <trkpt lat="50.107748878673206" lon="-122.95155626868203">
        <ele>766.9</ele>
      </trkpt>
      <trkpt lat="50.107749769431734" lon="-122.95155559244056">
        <ele>766.9</ele>
      </trkpt>
      <trkpt lat="50.10775065535291" lon="-122.95155490092262">
        <ele>766.9</ele>
      </trkpt>
      <trkpt lat="50.107751536328955" lon="-122.95155419421232">
        <ele>766.9</ele>
      </trkpt>
      <trkpt lat="50.10775241225273" lon="-122.95155347239566">
        <ele>766.9</ele>
      </trkpt>
      <trkpt lat="50.10775328301768" lon="-122.9515527355604">
        <ele>766.9</ele>
      </trkpt>
      <trkpt lat="50.10775414851789" lon="-122.95155198379618">
        <ele>766.9</ele>
      </trkpt>
      <trkpt lat="50.10775500864809" lon="-122.95155121719445">
        <ele>766.9</ele>
      </trkpt>
      <trkpt lat="50.10804" lon="-122.952">
        <ele>761.0</ele>
      </trkpt>
      <trkpt lat="50.10838104120707" lon="-122.95253526174626">
        <ele>758.2</ele>
      </trkpt>
      <trkpt lat="50.10838417655217" lon="-122.9525317283411">
        <ele>758.2</ele>
      </trkpt>
      <trkpt lat="50.10838721142348" lon="-122.95252798772877">
        <ele>758.2</ele>
      </trkpt>
      <trkpt lat="50.10839014019263" lon="-122.95252404684648">
        <ele>758.2</ele>
      </trkpt>
      <trkpt lat="50.10839295742805" lon="-122.9525199130028">
        <ele>758.2</ele>
      </trkpt>
      <trkpt lat="50.108395657905" lon="-122.95251559386425">
        <ele>758.2</ele>
      </trkpt>
      <trkpt lat="50.108398236615265" lon="-122.9525110974409">
        <ele>758.2</ele>
      </trkpt>
      <trkpt lat="50.10840068877648" lon="-122.95250643207169">
        <ele>758.2</ele>
      </trkpt>
      <trkpt lat="50.10840300984094" lon="-122.9525016064088">
        <ele>758.2</ele>
      </trkpt>
      <trkpt lat="50.10840519550411" lon="-122.95249662940175">
        <ele>758.2</ele>
      </trkpt>
      <trkpt lat="50.10840724171253" lon="-122.9524915102807">
        <ele>758.2</ele>
      </trkpt>
      <trkpt lat="50.10865" lon="-122.95261">
        <ele>753.6</ele>
      </trkpt>
    </trkseg>
  </trk>
</gpx>