<?xml version="1.0" encoding="UTF-8"?>
<gpx xmlns="http://www.topografix.com/GPX/1/1" xmlns:xsi="http://www.w3.org/2001/XMLSchema-instance" xsi:schemaLocation="http://www.topografix.com/GPX/1/1 http://www.topografix.com/GPX/1/1/gpx.xsd" version="1.1" creator="gpx.py -- https://github.com/tkrajina/gpxpy">
  <wpt lat="47.09884" lon="11.32234">
    <ele>1771.54</ele>
    <name>curve_1</name>
  </wpt>
  <wpt lat="47.09876" lon="11.32217">
    <ele>1771.81</ele>
    <name>curve_2</name>
  </wpt>
  <wpt lat="47.09876" lon="11.32215">
    <ele>1771.33</ele>
    <name>curve_3</name>
  </wpt>
  <wpt lat="47.09878" lon="11.32211">
    <ele>1769.37</ele>
    <name>curve_4</name>
  </wpt>
  <wpt lat="47.0988" lon="11.3221">
    <ele>1768.15</ele>
    <name>curve_5</name>
  </wpt>
  <wpt lat="47.09883" lon="11.3221">
    <ele>1766.71</ele>
    <name>curve_6</name>
  </wpt>
  <wpt lat="47.09988" lon="11.32402">
    <ele>1743.17</ele>
    <name>curve_1</name>
  </wpt>
  <wpt lat="47.09988" lon="11.32416">
    <ele>1743.55</ele>
    <name>curve_2</name>
  </wpt>
  <wpt lat="47.09994" lon="11.32421">
    <ele>1741.3</ele>
    <name>curve_3</name>
  </wpt>
  <wpt lat="47.10366" lon="11.32637">
    <ele>1589.9</ele>
    <name>curve_1</name>
  </wpt>
  <wpt lat="47.10372" lon="11.32638">
    <ele>1586.91</ele>
    <name>curve_2</name>
  </wpt>
  <wpt lat="47.10372" lon="11.32627">
    <ele>1583.4</ele>
    <name>curve_3</name>
  </wpt>
  <wpt lat="47.10285" lon="11.32309">
    <ele>1570.59</ele>
    <name>curve_1</name>
  </wpt>
  <wpt lat="47.10276" lon="11.32295">
    <ele>1569.55</ele>
    <name>curve_2</name>
  </wpt>
  <wpt lat="47.10275" lon="11.32286">
    <ele>1566.91</ele>
    <name>curve_3</name>
  </wpt>
  <wpt lat="47.1028" lon="11.32279">
    <ele>1562.23</ele>
    <name>curve_4</name>
  </wpt>
  <wpt lat="47.1048" lon="11.32632">
    <ele>1520.07</ele>
    <name>curve_1</name>
  </wpt>
  <wpt lat="47.10484" lon="11.32633">
    <ele>1517.83</ele>
    <name>curve_2</name>
  </wpt>
  <wpt lat="47.10484" lon="11.32625">
    <ele>1516.18</ele>
    <name>curve_3</name>
  </wpt>
  <wpt lat="47.10349" lon="11.31931">
    <ele>1451.95</ele>
    <name>curve_1</name>
  </wpt>
  <wpt lat="47.10342" lon="11.31916">
    <ele>1450.22</ele>
    <name>curve_2</name>
  </wpt>
  <wpt lat="47.10342" lon="11.31906">
    <ele>1447.53</ele>
    <name>curve_3</name>
  </wpt>
  <wpt lat="47.10349" lon="11.31907">
    <ele>1444.92</ele>
    <name>curve_4</name>
  </wpt>
  <wpt lat="47.10488" lon="11.32133">
    <ele>1419.95</ele>
    <name>curve_1</name>
  </wpt>
  <wpt lat="47.10492" lon="11.32139">
    <ele>1417.98</ele>
    <name>curve_2</name>
  </wpt>
  <wpt lat="47.10496" lon="11.32136">
    <ele>1414.87</ele>
    <name>curve_3</name>
  </wpt>
  <wpt lat="47.10429" lon="11.31855">
    <ele>1397.72</ele>
    <name>curve_1</name>
  </wpt>
  <wpt lat="47.10427" lon="11.3185">
    <ele>1397.19</ele>
    <name>curve_2</name>
  </wpt>
  <wpt lat="47.10427" lon="11.31839">
    <ele>1394.1</ele>
    <name>curve_3</name>
  </wpt>
  <wpt lat="47.1043" lon="11.31836">
    <ele>1391.96</ele>
    <name>curve_4</name>
  </wpt>
  <wpt lat="47.10757" lon="11.32368">
    <ele>1320.91</ele>
    <name>curve_1</name>
  </wpt>
  <wpt lat="47.10768" lon="11.32388">
    <ele>1317.72</ele>
    <name>curve_2</name>
  </wpt>
  <wpt lat="47.10771" lon="11.32388">
    <ele>1315.32</ele>
    <name>curve_3</name>
  </wpt>
  <wpt lat="47.10772" lon="11.32386">
    <ele>1314.03</ele>
    <name>curve_4</name>
  </wpt>
  <wpt lat="47.10553" lon="11.31369">
    <ele>1198.28</ele>
    <name>curve_1</name>
  </wpt>
  <wpt lat="47.1055" lon="11.31359">
    <ele>1197.54</ele>
    <name>curve_2</name>
  </wpt>
  <wpt lat="47.10549" lon="11.31352">
    <ele>1196.54</ele>
    <name>curve_3</name>
  </wpt>
  <wpt lat="47.10552" lon="11.3135">
    <ele>1194.85</ele>
    <name>curve_4</name>
  </wpt>
  <wpt lat="47.10557" lon="11.3135">
    <ele>1192.72</ele>
    <name>curve_5</name>
  </wpt>
  <wpt lat="47.10636" lon="11.31443">
    <ele>1187.31</ele>
    <name>curve_1</name>
  </wpt>
  <wpt lat="47.10637" lon="11.31444">
    <ele>1187.13</ele>
    <name>curve_2</name>
  </wpt>
  <wpt lat="47.1064" lon="11.31441">
    <ele>1184.55</ele>
    <name>curve_3</name>
  </wpt>
  <wpt lat="47.10642" lon="11.31437">
    <ele>1182.21</ele>
    <name>curve_4</name>
  </wpt>
  <wpt lat="47.10562" lon="11.31264">
    <ele>1158.64</ele>
    <name>curve_1</name>
  </wpt>
  <wpt lat="47.10559" lon="11.31247">
    <ele>1155.65</ele>
    <name>curve_2</name>
  </wpt>
  <wpt lat="47.10559" lon="11.31247">
    <ele>1155.65</ele>
    <name>curve_1</name>
  </wpt>
  <wpt lat="47.10561" lon="11.31251">
    <ele>1155.43</ele>
    <name>curve_2</name>
  </wpt>
  <wpt lat="47.10644" lon="11.30835">
    <ele>1051.87</ele>
    <name>curve_1</name>
  </wpt>
  <wpt lat="47.10645" lon="11.3085">
    <ele>1053.13</ele>
    <name>curve_2</name>
  </wpt>
  <wpt lat="47.10647" lon="11.30853">
    <ele>1052.17</ele>
    <name>curve_3</name>
  </wpt>
  <wpt lat="47.1065" lon="11.30853">
    <ele>1050.24</ele>
    <name>curve_4</name>
  </wpt>
  <wpt lat="47.10654" lon="11.30853">
    <ele>1047.77</ele>
    <name>curve_5</name>
  </wpt>
  <wpt lat="47.10657" lon="11.30852">
    <ele>1045.82</ele>
    <name>curve_6</name>
  </wpt>
  <wpt lat="47.10653" lon="11.30743">
    <ele>1030.22</ele>
    <name>curve_1</name>
  </wpt>
  <wpt lat="47.10651" lon="11.30727">
    <ele>1027.81</ele>
    <name>curve_2</name>
  </wpt>
  <wpt lat="47.10651" lon="11.30727">
    <ele>1027.81</ele>
    <name>curve_1</name>
  </wpt>
  <wpt lat="47.10664" lon="11.30742">
    <ele>1025.54</ele>
    <name>curve_2</name>
  </wpt>
  <wpt lat="47.10665" lon="11.30736">
    <ele>1024.01</ele>
    <name>curve_3</name>
  </wpt>
</gpx>