<?xml version="1.0" encoding="UTF-8"?>
<gpx xmlns="http://www.topografix.com/GPX/1/1" xmlns:xsi="http://www.w3.org/2001/XMLSchema-instance" xsi:schemaLocation="http://www.topografix.com/GPX/1/1 http://www.topografix.com/GPX/1/1/gpx.xsd" version="1.1" creator="gpx.py -- https://github.com/tkrajina/gpxpy">
  <wpt lat="47.09893" lon="11.3233">
    <ele>1776.32</ele>
    <name>straight_1</name>
  </wpt>
  <wpt lat="47.09894" lon="11.32327">
    <ele>1775.94</ele>
    <name>straight_2</name>
  </wpt>
  <wpt lat="47.09892" lon="11.3229">
    <ele>1774.88</ele>
    <name>straight_3</name>
  </wpt>
  <wpt lat="47.09889" lon="11.32254">
    <ele>1772.42</ele>
    <name>straight_4</name>
  </wpt>
  <wpt lat="47.09884" lon="11.32234">
    <ele>1771.54</ele>
    <name>straight_5</name>
  </wpt>
  <wpt lat="47.09883" lon="11.3221">
    <ele>1766.71</ele>
    <name>straight_1</name>
  </wpt>
  <wpt lat="47.09897" lon="11.32228">
    <ele>1763.9</ele>
    <name>straight_2</name>
  </wpt>
  <wpt lat="47.0991" lon="11.32246">
    <ele>1760.72</ele>
    <name>straight_3</name>
  </wpt>
  <wpt lat="47.09938" lon="11.32294">
    <ele>1754.59</ele>
    <name>straight_4</name>
  </wpt>
  <wpt lat="47.0995" lon="11.32328">
    <ele>1752.68</ele>
    <name>straight_5</name>
  </wpt>
  <wpt lat="47.09956" lon="11.32343">
    <ele>1750.9</ele>
    <name>straight_6</name>
  </wpt>
  <wpt lat="47.09988" lon="11.32402">
    <ele>1743.17</ele>
    <name>straight_7</name>
  </wpt>
  <wpt lat="47.09994" lon="11.32421">
    <ele>1741.3</ele>
    <name>straight_1</name>
  </wpt>
  <wpt lat="47.09997" lon="11.32414">
    <ele>1740.25</ele>
    <name>straight_2</name>
  </wpt>
  <wpt lat="47.09997" lon="11.324">
    <ele>1739.61</ele>
    <name>straight_3</name>
  </wpt>
  <wpt lat="47.09994" lon="11.32377">
    <ele>1738.14</ele>
    <name>straight_4</name>
  </wpt>
  <wpt lat="47.09993" lon="11.32347">
    <ele>1733.69</ele>
    <name>straight_5</name>
  </wpt>
  <wpt lat="47.09997" lon="11.32309">
    <ele>1725.81</ele>
    <name>straight_6</name>
  </wpt>
  <wpt lat="47.09988" lon="11.32262">
    <ele>1722.87</ele>
    <name>straight_7</name>
  </wpt>
  <wpt lat="47.09988" lon="11.32218">
    <ele>1715.26</ele>
    <name>straight_8</name>
  </wpt>
  <wpt lat="47.09982" lon="11.32195">
    <ele>1714.23</ele>
    <name>straight_9</name>
  </wpt>
  <wpt lat="47.0996" lon="11.32145">
    <ele>1710.09</ele>
    <name>straight_10</name>
  </wpt>
  <wpt lat="47.09952" lon="11.32128">
    <ele>1706.53</ele>
    <name>straight_11</name>
  </wpt>
  <wpt lat="47.09933" lon="11.32091">
    <ele>1701.14</ele>
    <name>straight_12</name>
  </wpt>
  <wpt lat="47.09912" lon="11.32037">
    <ele>1699.81</ele>
    <name>straight_13</name>
  </wpt>
  <wpt lat="47.09913" lon="11.32025">
    <ele>1696.9</ele>
    <name>straight_14</name>
  </wpt>
  <wpt lat="47.09919" lon="11.32027">
    <ele>1694.02</ele>
    <name>straight_15</name>
  </wpt>
  <wpt lat="47.09953" lon="11.32071">
    <ele>1684.43</ele>
    <name>straight_16</name>
  </wpt>
  <wpt lat="47.09987" lon="11.32102">
    <ele>1677.44</ele>
    <name>straight_17</name>
  </wpt>
  <wpt lat="47.1003" lon="11.32148">
    <ele>1671.37</ele>
    <name>straight_18</name>
  </wpt>
  <wpt lat="47.10039" lon="11.32158">
    <ele>1668.28</ele>
    <name>straight_19</name>
  </wpt>
  <wpt lat="47.10073" lon="11.32209">
    <ele>1658.11</ele>
    <name>straight_20</name>
  </wpt>
  <wpt lat="47.10118" lon="11.32281">
    <ele>1649.99</ele>
    <name>straight_21</name>
  </wpt>
  <wpt lat="47.10135" lon="11.32311">
    <ele>1647.77</ele>
    <name>straight_22</name>
  </wpt>
  <wpt lat="47.10157" lon="11.32329">
    <ele>1639.32</ele>
    <name>straight_23</name>
  </wpt>
  <wpt lat="47.10194" lon="11.32395">
    <ele>1636.23</ele>
    <name>straight_24</name>
  </wpt>
  <wpt lat="47.10242" lon="11.32408">
    <ele>1623.77</ele>
    <name>straight_25</name>
  </wpt>
  <wpt lat="47.1025" lon="11.32416">
    <ele>1621.88</ele>
    <name>straight_26</name>
  </wpt>
  <wpt lat="47.10267" lon="11.32467">
    <ele>1614.31</ele>
    <name>straight_27</name>
  </wpt>
  <wpt lat="47.10302" lon="11.32558">
    <ele>1602.37</ele>
    <name>straight_28</name>
  </wpt>
  <wpt lat="47.10321" lon="11.32593">
    <ele>1601.05</ele>
    <name>straight_29</name>
  </wpt>
  <wpt lat="47.1035" lon="11.32615">
    <ele>1591.91</ele>
    <name>straight_30</name>
  </wpt>
  <wpt lat="47.10366" lon="11.32637">
    <ele>1589.9</ele>
    <name>straight_31</name>
  </wpt>
  <wpt lat="47.10372" lon="11.32627">
    <ele>1583.4</ele>
    <name>straight_1</name>
  </wpt>
  <wpt lat="47.1036" lon="11.32605">
    <ele>1583.51</ele>
    <name>straight_2</name>
  </wpt>
  <wpt lat="47.10342" lon="11.32579">
    <ele>1586.32</ele>
    <name>straight_3</name>
  </wpt>
  <wpt lat="47.10332" lon="11.32553">
    <ele>1585.69</ele>
    <name>straight_4</name>
  </wpt>
  <wpt lat="47.10326" lon="11.32508">
    <ele>1581.31</ele>
    <name>straight_5</name>
  </wpt>
  <wpt lat="47.10327" lon="11.32404">
    <ele>1571.63</ele>
    <name>straight_6</name>
  </wpt>
  <wpt lat="47.10326" lon="11.32372">
    <ele>1568.16</ele>
    <name>straight_7</name>
  </wpt>
  <wpt lat="47.10321" lon="11.32354">
    <ele>1567.71</ele>
    <name>straight_8</name>
  </wpt>
  <wpt lat="47.10299" lon="11.32328">
    <ele>1571.16</ele>
    <name>straight_9</name>
  </wpt>
  <wpt lat="47.10285" lon="11.32309">
    <ele>1570.59</ele>
    <name>straight_10</name>
  </wpt>
  <wpt lat="47.1028" lon="11.32279">
    <ele>1562.23</ele>
    <name>straight_1</name>
  </wpt>
  <wpt lat="47.10285" lon="11.32281">
    <ele>1560.62</ele>
    <name>straight_2</name>
  </wpt>
  <wpt lat="47.10297" lon="11.32294">
    <ele>1559.96</ele>
    <name>straight_3</name>
  </wpt>
  <wpt lat="47.10321" lon="11.32313">
    <ele>1556.53</ele>
    <name>straight_4</name>
  </wpt>
  <wpt lat="47.10346" lon="11.32327">
    <ele>1548.62</ele>
    <name>straight_5</name>
  </wpt>
  <wpt lat="47.10355" lon="11.32339">
    <ele>1546.25</ele>
    <name>straight_6</name>
  </wpt>
  <wpt lat="47.10362" lon="11.32368">
    <ele>1545.91</ele>
    <name>straight_7</name>
  </wpt>
  <wpt lat="47.10369" lon="11.32403">
    <ele>1543.98</ele>
    <name>straight_8</name>
  </wpt>
  <wpt lat="47.10379" lon="11.32439">
    <ele>1541.06</ele>
    <name>straight_9</name>
  </wpt>
  <wpt lat="47.10401" lon="11.32485">
    <ele>1533.96</ele>
    <name>straight_10</name>
  </wpt>
  <wpt lat="47.10422" lon="11.32525">
    <ele>1529.89</ele>
    <name>straight_11</name>
  </wpt>
  <wpt lat="47.1045" lon="11.32587">
    <ele>1528.06</ele>
    <name>straight_12</name>
  </wpt>
  <wpt lat="47.10466" lon="11.32605">
    <ele>1522.77</ele>
    <name>straight_13</name>
  </wpt>
  <wpt lat="47.1048" lon="11.32632">
    <ele>1520.07</ele>
    <name>straight_14</name>
  </wpt>
  <wpt lat="47.10484" lon="11.32625">
    <ele>1516.18</ele>
    <name>straight_1</name>
  </wpt>
  <wpt lat="47.10472" lon="11.32603">
    <ele>1518.84</ele>
    <name>straight_2</name>
  </wpt>
  <wpt lat="47.10462" lon="11.32574">
    <ele>1518.44</ele>
    <name>straight_3</name>
  </wpt>
  <wpt lat="47.10464" lon="11.32551">
    <ele>1512.68</ele>
    <name>straight_4</name>
  </wpt>
  <wpt lat="47.10458" lon="11.32499">
    <ele>1506.83</ele>
    <name>straight_5</name>
  </wpt>
  <wpt lat="47.10455" lon="11.32463">
    <ele>1503.82</ele>
    <name>straight_6</name>
  </wpt>
  <wpt lat="47.10441" lon="11.32394">
    <ele>1504.06</ele>
    <name>straight_7</name>
  </wpt>
  <wpt lat="47.10442" lon="11.32367">
    <ele>1503.46</ele>
    <name>straight_8</name>
  </wpt>
  <wpt lat="47.10443" lon="11.32364">
    <ele>1503.07</ele>
    <name>straight_9</name>
  </wpt>
  <wpt lat="47.10455" lon="11.32324">
    <ele>1494.22</ele>
    <name>straight_10</name>
  </wpt>
  <wpt lat="47.10454" lon="11.32302">
    <ele>1486.91</ele>
    <name>straight_11</name>
  </wpt>
  <wpt lat="47.10446" lon="11.32287">
    <ele>1484.35</ele>
    <name>straight_12</name>
  </wpt>
  <wpt lat="47.10427" lon="11.32261">
    <ele>1485.19</ele>
    <name>straight_13</name>
  </wpt>
  <wpt lat="47.10419" lon="11.32243">
    <ele>1485.28</ele>
    <name>straight_14</name>
  </wpt>
  <wpt lat="47.10416" lon="11.32214">
    <ele>1481.72</ele>
    <name>straight_15</name>
  </wpt>
  <wpt lat="47.1041" lon="11.32133">
    <ele>1472.83</ele>
    <name>straight_16</name>
  </wpt>
  <wpt lat="47.10399" lon="11.32062">
    <ele>1466.94</ele>
    <name>straight_17</name>
  </wpt>
  <wpt lat="47.10388" lon="11.32001">
    <ele>1458.61</ele>
    <name>straight_18</name>
  </wpt>
  <wpt lat="47.10374" lon="11.31964">
    <ele>1453.19</ele>
    <name>straight_19</name>
  </wpt>
  <wpt lat="47.10349" lon="11.31931">
    <ele>1451.95</ele>
    <name>straight_20</name>
  </wpt>
  <wpt lat="47.10349" lon="11.31907">
    <ele>1444.92</ele>
    <name>straight_1</name>
  </wpt>
  <wpt lat="47.10421" lon="11.31972">
    <ele>1434.21</ele>
    <name>straight_2</name>
  </wpt>
  <wpt lat="47.10437" lon="11.32008">
    <ele>1434.26</ele>
    <name>straight_3</name>
  </wpt>
  <wpt lat="47.10455" lon="11.32037">
    <ele>1428.4</ele>
    <name>straight_4</name>
  </wpt>
  <wpt lat="47.10471" lon="11.32067">
    <ele>1422.5</ele>
    <name>straight_5</name>
  </wpt>
  <wpt lat="47.10488" lon="11.32133">
    <ele>1419.95</ele>
    <name>straight_6</name>
  </wpt>
  <wpt lat="47.10496" lon="11.32136">
    <ele>1414.87</ele>
    <name>straight_1</name>
  </wpt>
  <wpt lat="47.10495" lon="11.32126">
    <ele>1414.34</ele>
    <name>straight_2</name>
  </wpt>
  <wpt lat="47.10489" lon="11.32107">
    <ele>1416.11</ele>
    <name>straight_3</name>
  </wpt>
  <wpt lat="47.10487" lon="11.32059">
    <ele>1410.44</ele>
    <name>straight_4</name>
  </wpt>
  <wpt lat="47.10477" lon="11.32004">
    <ele>1408.13</ele>
    <name>straight_5</name>
  </wpt>
  <wpt lat="47.10469" lon="11.31981">
    <ele>1409.38</ele>
    <name>straight_6</name>
  </wpt>
  <wpt lat="47.10465" lon="11.3193">
    <ele>1401.89</ele>
    <name>straight_7</name>
  </wpt>
  <wpt lat="47.10453" lon="11.31906">
    <ele>1401.59</ele>
    <name>straight_8</name>
  </wpt>
  <wpt lat="47.10429" lon="11.31855">
    <ele>1397.72</ele>
    <name>straight_9</name>
  </wpt>
  <wpt lat="47.1043" lon="11.31836">
    <ele>1391.96</ele>
    <name>straight_1</name>
  </wpt>
  <wpt lat="47.10434" lon="11.31838">
    <ele>1390.81</ele>
    <name>straight_2</name>
  </wpt>
  <wpt lat="47.10441" lon="11.3185">
    <ele>1391.19</ele>
    <name>straight_3</name>
  </wpt>
  <wpt lat="47.10485" lon="11.3189">
    <ele>1382.83</ele>
    <name>straight_4</name>
  </wpt>
  <wpt lat="47.10505" lon="11.31913">
    <ele>1377.35</ele>
    <name>straight_5</name>
  </wpt>
  <wpt lat="47.10521" lon="11.31953">
    <ele>1371.58</ele>
    <name>straight_6</name>
  </wpt>
  <wpt lat="47.10531" lon="11.31967">
    <ele>1364.98</ele>
    <name>straight_7</name>
  </wpt>
  <wpt lat="47.10537" lon="11.31997">
    <ele>1363.61</ele>
    <name>straight_8</name>
  </wpt>
  <wpt lat="47.10557" lon="11.3204">
    <ele>1361.39</ele>
    <name>straight_9</name>
  </wpt>
  <wpt lat="47.1058" lon="11.32062">
    <ele>1355.15</ele>
    <name>straight_10</name>
  </wpt>
  <wpt lat="47.10589" lon="11.32084">
    <ele>1355.15</ele>
    <name>straight_11</name>
  </wpt>
  <wpt lat="47.10599" lon="11.32116">
    <ele>1349.52</ele>
    <name>straight_12</name>
  </wpt>
  <wpt lat="47.10604" lon="11.32151">
    <ele>1346.96</ele>
    <name>straight_13</name>
  </wpt>
  <wpt lat="47.10612" lon="11.32165">
    <ele>1345.11</ele>
    <name>straight_14</name>
  </wpt>
  <wpt lat="47.10626" lon="11.32168">
    <ele>1339.01</ele>
    <name>straight_15</name>
  </wpt>
  <wpt lat="47.10638" lon="11.32179">
    <ele>1336.72</ele>
    <name>straight_16</name>
  </wpt>
  <wpt lat="47.10649" lon="11.322">
    <ele>1338.82</ele>
    <name>straight_17</name>
  </wpt>
  <wpt lat="47.10661" lon="11.32208">
    <ele>1335.11</ele>
    <name>straight_18</name>
  </wpt>
  <wpt lat="47.1068" lon="11.32234">
    <ele>1331.96</ele>
    <name>straight_19</name>
  </wpt>
  <wpt lat="47.10693" lon="11.32254">
    <ele>1329.14</ele>
    <name>straight_20</name>
  </wpt>
  <wpt lat="47.10703" lon="11.32267">
    <ele>1325.99</ele>
    <name>straight_21</name>
  </wpt>
  <wpt lat="47.10711" lon="11.323">
    <ele>1329.37</ele>
    <name>straight_22</name>
  </wpt>
  <wpt lat="47.10727" lon="11.32326">
    <ele>1327.74</ele>
    <name>straight_23</name>
  </wpt>
  <wpt lat="47.10757" lon="11.32368">
    <ele>1320.91</ele>
    <name>straight_24</name>
  </wpt>
  <wpt lat="47.10772" lon="11.32386">
    <ele>1314.03</ele>
    <name>straight_1</name>
  </wpt>
  <wpt lat="47.10772" lon="11.32383">
    <ele>1313.27</ele>
    <name>straight_2</name>
  </wpt>
  <wpt lat="47.1077" lon="11.32372">
    <ele>1312.03</ele>
    <name>straight_3</name>
  </wpt>
  <wpt lat="47.10763" lon="11.32351">
    <ele>1311.73</ele>
    <name>straight_4</name>
  </wpt>
  <wpt lat="47.10752" lon="11.32326">
    <ele>1312.49</ele>
    <name>straight_5</name>
  </wpt>
  <wpt lat="47.10746" lon="11.32293">
    <ele>1306.12</ele>
    <name>straight_6</name>
  </wpt>
  <wpt lat="47.10735" lon="11.32268">
    <ele>1305.58</ele>
    <name>straight_7</name>
  </wpt>
  <wpt lat="47.10726" lon="11.32209">
    <ele>1294.65</ele>
    <name>straight_8</name>
  </wpt>
  <wpt lat="47.10712" lon="11.32166">
    <ele>1291.14</ele>
    <name>straight_9</name>
  </wpt>
  <wpt lat="47.10684" lon="11.32113">
    <ele>1289.87</ele>
    <name>straight_10</name>
  </wpt>
  <wpt lat="47.10683" lon="11.32089">
    <ele>1283.92</ele>
    <name>straight_11</name>
  </wpt>
  <wpt lat="47.10688" lon="11.32053">
    <ele>1276.56</ele>
    <name>straight_12</name>
  </wpt>
  <wpt lat="47.1069" lon="11.32033">
    <ele>1274.81</ele>
    <name>straight_13</name>
  </wpt>
  <wpt lat="47.10691" lon="11.32023">
    <ele>1274.03</ele>
    <name>straight_14</name>
  </wpt>
  <wpt lat="47.10689" lon="11.31988">
    <ele>1273.36</ele>
    <name>straight_15</name>
  </wpt>
  <wpt lat="47.10683" lon="11.31958">
    <ele>1275.17</ele>
    <name>straight_16</name>
  </wpt>
  <wpt lat="47.10691" lon="11.31913">
    <ele>1265.51</ele>
    <name>straight_17</name>
  </wpt>
  <wpt lat="47.10691" lon="11.31893">
    <ele>1263.34</ele>
    <name>straight_18</name>
  </wpt>
  <wpt lat="47.10683" lon="11.31858">
    <ele>1264.49</ele>
    <name>straight_19</name>
  </wpt>
  <wpt lat="47.10683" lon="11.31848">
    <ele>1263.03</ele>
    <name>straight_20</name>
  </wpt>
  <wpt lat="47.10692" lon="11.31803">
    <ele>1250.81</ele>
    <name>straight_21</name>
  </wpt>
  <wpt lat="47.10689" lon="11.31778">
    <ele>1248.95</ele>
    <name>straight_22</name>
  </wpt>
  <wpt lat="47.10676" lon="11.31746">
    <ele>1250.93</ele>
    <name>straight_23</name>
  </wpt>
  <wpt lat="47.1067" lon="11.31715">
    <ele>1243.74</ele>
    <name>straight_24</name>
  </wpt>
  <wpt lat="47.10653" lon="11.31666">
    <ele>1236.46</ele>
    <name>straight_25</name>
  </wpt>
  <wpt lat="47.10654" lon="11.3162">
    <ele>1227.85</ele>
    <name>straight_26</name>
  </wpt>
  <wpt lat="47.10641" lon="11.31552">
    <ele>1220.89</ele>
    <name>straight_27</name>
  </wpt>
  <wpt lat="47.10629" lon="11.31525">
    <ele>1220.36</ele>
    <name>straight_28</name>
  </wpt>
  <wpt lat="47.10618" lon="11.31491">
    <ele>1216.25</ele>
    <name>straight_29</name>
  </wpt>
  <wpt lat="47.10604" lon="11.3146">
    <ele>1211.21</ele>
    <name>straight_30</name>
  </wpt>
  <wpt lat="47.10583" lon="11.31428">
    <ele>1204.97</ele>
    <name>straight_31</name>
  </wpt>
  <wpt lat="47.10569" lon="11.31401">
    <ele>1199.94</ele>
    <name>straight_32</name>
  </wpt>
  <wpt lat="47.10563" lon="11.31387">
    <ele>1198.35</ele>
    <name>straight_33</name>
  </wpt>
  <wpt lat="47.10553" lon="11.31369">
    <ele>1198.28</ele>
    <name>straight_34</name>
  </wpt>
  <wpt lat="47.10557" lon="11.3135">
    <ele>1192.72</ele>
    <name>straight_1</name>
  </wpt>
  <wpt lat="47.1057" lon="11.31369">
    <ele>1191.59</ele>
    <name>straight_2</name>
  </wpt>
  <wpt lat="47.10585" lon="11.31379">
    <ele>1187.73</ele>
    <name>straight_3</name>
  </wpt>
  <wpt lat="47.10605" lon="11.314">
    <ele>1185.54</ele>
    <name>straight_4</name>
  </wpt>
  <wpt lat="47.10621" lon="11.31415">
    <ele>1184.22</ele>
    <name>straight_5</name>
  </wpt>
  <wpt lat="47.10636" lon="11.31443">
    <ele>1187.31</ele>
    <name>straight_6</name>
  </wpt>
  <wpt lat="47.10642" lon="11.31437">
    <ele>1182.21</ele>
    <name>straight_1</name>
  </wpt>
  <wpt lat="47.10632" lon="11.31386">
    <ele>1169.61</ele>
    <name>straight_2</name>
  </wpt>
  <wpt lat="47.10618" lon="11.31353">
    <ele>1165.5</ele>
    <name>straight_3</name>
  </wpt>
  <wpt lat="47.10601" lon="11.3133">
    <ele>1166.42</ele>
    <name>straight_4</name>
  </wpt>
  <wpt lat="47.10562" lon="11.31264">
    <ele>1158.64</ele>
    <name>straight_5</name>
  </wpt>
  <wpt lat="47.10559" lon="11.31247">
    <ele>1155.65</ele>
    <name>straight_1</name>
  </wpt>
  <wpt lat="47.10561" lon="11.31251">
    <ele>1155.43</ele>
    <name>straight_1</name>
  </wpt>
  <wpt lat="47.10559" lon="11.31247">
    <ele>1155.65</ele>
    <name>straight_2</name>
  </wpt>
  <wpt lat="47.10561" lon="11.31232">
    <ele>1152.21</ele>
    <name>straight_3</name>
  </wpt>
  <wpt lat="47.10562" lon="11.31227">
    <ele>1151.28</ele>
    <name>straight_4</name>
  </wpt>
  <wpt lat="47.10573" lon="11.31199">
    <ele>1147.04</ele>
    <name>straight_5</name>
  </wpt>
  <wpt lat="47.10585" lon="11.31147">
    <ele>1140.84</ele>
    <name>straight_6</name>
  </wpt>
  <wpt lat="47.10586" lon="11.31129">
    <ele>1137.28</ele>
    <name>straight_7</name>
  </wpt>
  <wpt lat="47.10582" lon="11.31123">
    <ele>1136.23</ele>
    <name>straight_8</name>
  </wpt>
  <wpt lat="47.10568" lon="11.31113">
    <ele>1132.58</ele>
    <name>straight_9</name>
  </wpt>
  <wpt lat="47.10519" lon="11.31129">
    <ele>1130.93</ele>
    <name>straight_10</name>
  </wpt>
  <wpt lat="47.105" lon="11.3113">
    <ele>1133.29</ele>
    <name>straight_11</name>
  </wpt>
  <wpt lat="47.10487" lon="11.31117">
    <ele>1132.1</ele>
    <name>straight_12</name>
  </wpt>
  <wpt lat="47.10483" lon="11.31091">
    <ele>1126.73</ele>
    <name>straight_13</name>
  </wpt>
  <wpt lat="47.10488" lon="11.31063">
    <ele>1121.28</ele>
    <name>straight_14</name>
  </wpt>
  <wpt lat="47.10501" lon="11.31018">
    <ele>1118.14</ele>
    <name>straight_15</name>
  </wpt>
  <wpt lat="47.10506" lon="11.30995">
    <ele>1117.24</ele>
    <name>straight_16</name>
  </wpt>
  <wpt lat="47.10528" lon="11.30955">
    <ele>1105.93</ele>
    <name>straight_17</name>
  </wpt>
  <wpt lat="47.10535" lon="11.30931">
    <ele>1104.13</ele>
    <name>straight_18</name>
  </wpt>
  <wpt lat="47.10573" lon="11.30858">
    <ele>1099.21</ele>
    <name>straight_19</name>
  </wpt>
  <wpt lat="47.1058" lon="11.30842">
    <ele>1099.35</ele>
    <name>straight_20</name>
  </wpt>
  <wpt lat="47.10581" lon="11.3083">
    <ele>1098.99</ele>
    <name>straight_21</name>
  </wpt>
  <wpt lat="47.10581" lon="11.30824">
    <ele>1098.14</ele>
    <name>straight_22</name>
  </wpt>
  <wpt lat="47.10559" lon="11.3079">
    <ele>1095.69</ele>
    <name>straight_23</name>
  </wpt>
  <wpt lat="47.10534" lon="11.3076">
    <ele>1095.31</ele>
    <name>straight_24</name>
  </wpt>
  <wpt lat="47.10517" lon="11.30731">
    <ele>1096.3</ele>
    <name>straight_25</name>
  </wpt>
  <wpt lat="47.10512" lon="11.30722">
    <ele>1096.46</ele>
    <name>straight_26</name>
  </wpt>
  <wpt lat="47.10502" lon="11.30692">
    <ele>1092.91</ele>
    <name>straight_27</name>
  </wpt>
  <wpt lat="47.10498" lon="11.30673">
    <ele>1088.33</ele>
    <name>straight_28</name>
  </wpt>
  <wpt lat="47.10498" lon="11.30668">
    <ele>1086.72</ele>
    <name>straight_29</name>
  </wpt>
  <wpt lat="47.10498" lon="11.30663">
    <ele>1085.0</ele>
    <name>straight_30</name>
  </wpt>
  <wpt lat="47.10501" lon="11.3066">
    <ele>1083.46</ele>
    <name>straight_31</name>
  </wpt>
  <wpt lat="47.10505" lon="11.30659">
    <ele>1082.34</ele>
    <name>straight_32</name>
  </wpt>
  <wpt lat="47.10513" lon="11.3066">
    <ele>1080.8</ele>
    <name>straight_33</name>
  </wpt>
  <wpt lat="47.10527" lon="11.30672">
    <ele>1080.34</ele>
    <name>straight_34</name>
  </wpt>
  <wpt lat="47.10543" lon="11.30691">
    <ele>1078.23</ele>
    <name>straight_35</name>
  </wpt>
  <wpt lat="47.10546" lon="11.307">
    <ele>1078.38</ele>
    <name>straight_36</name>
  </wpt>
  <wpt lat="47.10546" lon="11.30714">
    <ele>1080.46</ele>
    <name>straight_37</name>
  </wpt>
  <wpt lat="47.10549" lon="11.30722">
    <ele>1080.09</ele>
    <name>straight_38</name>
  </wpt>
  <wpt lat="47.10554" lon="11.30726">
    <ele>1078.11</ele>
    <name>straight_39</name>
  </wpt>
  <wpt lat="47.1056" lon="11.30727">
    <ele>1075.15</ele>
    <name>straight_40</name>
  </wpt>
  <wpt lat="47.10578" lon="11.30721">
    <ele>1065.09</ele>
    <name>straight_41</name>
  </wpt>
  <wpt lat="47.10585" lon="11.30721">
    <ele>1061.7</ele>
    <name>straight_42</name>
  </wpt>
  <wpt lat="47.10591" lon="11.30725">
    <ele>1059.26</ele>
    <name>straight_43</name>
  </wpt>
  <wpt lat="47.10609" lon="11.30749">
    <ele>1054.32</ele>
    <name>straight_44</name>
  </wpt>
  <wpt lat="47.10614" lon="11.30754">
    <ele>1052.84</ele>
    <name>straight_45</name>
  </wpt>
  <wpt lat="47.10644" lon="11.30786">
    <ele>1043.1</ele>
    <name>straight_46</name>
  </wpt>
  <wpt lat="47.10647" lon="11.30798">
    <ele>1043.41</ele>
    <name>straight_47</name>
  </wpt>
  <wpt lat="47.10644" lon="11.30835">
    <ele>1051.87</ele>
    <name>straight_48</name>
  </wpt>
  <wpt lat="47.10657" lon="11.30852">
    <ele>1045.82</ele>
    <name>straight_1</name>
  </wpt>
  <wpt lat="47.1066" lon="11.30845">
    <ele>1042.76</ele>
    <name>straight_2</name>
  </wpt>
  <wpt lat="47.10663" lon="11.3083">
    <ele>1038.33</ele>
    <name>straight_3</name>
  </wpt>
  <wpt lat="47.10665" lon="11.30824">
    <ele>1036.29</ele>
    <name>straight_4</name>
  </wpt>
  <wpt lat="47.10668" lon="11.30817">
    <ele>1033.79</ele>
    <name>straight_5</name>
  </wpt>
  <wpt lat="47.1067" lon="11.30787">
    <ele>1029.47</ele>
    <name>straight_6</name>
  </wpt>
  <wpt lat="47.10653" lon="11.30743">
    <ele>1030.22</ele>
    <name>straight_7</name>
  </wpt>
  <wpt lat="47.10651" lon="11.30727">
    <ele>1027.81</ele>
    <name>straight_1</name>
  </wpt>
  <wpt lat="47.10665" lon="11.30736">
    <ele>1024.01</ele>
    <name>straight_1</name>
  </wpt>
  <wpt lat="47.10648" lon="11.30704">
    <ele>1024.23</ele>
    <name>straight_2</name>
  </wpt>
  <wpt lat="47.10628" lon="11.30639">
    <ele>1019.81</ele>
    <name>straight_3</name>
  </wpt>
</gpx>