<?xml version="1.0" encoding="UTF-8"?>
<gpx xmlns="http://www.topografix.com/GPX/1/1" xmlns:xsi="http://www.w3.org/2001/XMLSchema-instance" xsi:schemaLocation="http://www.topografix.com/GPX/1/1 http://www.topografix.com/GPX/1/1/gpx.xsd" version="1.1" creator="gpx.py -- https://github.com/tkrajina/gpxpy">
  <trk>
    <trkseg>
      <trkpt lat="50.0996" lon="-122.95061">
        <ele>1022.743</ele>
        <time>2025-03-24T03:50:14-07:00</time>
      </trkpt>
      <trkpt lat="50.09982" lon="-122.9506">
        <ele>1020.472</ele>
        <time>2025-03-24T03:50:18-07:00</time>
      </trkpt>
      <trkpt lat="50.10016" lon="-122.95096">
        <ele>1017.203</ele>
        <time>2025-03-24T03:50:20-07:00</time>
      </trkpt>
      <trkpt lat="50.10029" lon="-122.9516">
        <ele>1010.813</ele>
        <time>2025-03-24T03:50:24-07:00</time>
      </trkpt>
      <trkpt lat="50.10021" lon="-122.95178">
        <ele>1010.033</ele>
        <time>2025-03-24T03:50:26-07:00</time>
      </trkpt>
      <trkpt lat="50.10004" lon="-122.95189">
        <ele>1006.7</ele>
        <time>2025-03-24T03:50:28-07:00</time>
      </trkpt>
      <trkpt lat="50.10004" lon="-122.95201">
        <ele>1004.711</ele>
        <time>2025-03-24T03:50:30-07:00</time>
      </trkpt>
      <trkpt lat="50.10032" lon="-122.95203">
        <ele>1003.449</ele>
        <time>2025-03-24T03:50:32-07:00</time>
      </trkpt>
      <trkpt lat="50.10055" lon="-122.95185">
        <ele>1004.583</ele>
        <time>2025-03-24T03:50:34-07:00</time>
      </trkpt>
      <trkpt lat="50.10061" lon="-122.95206">
        <ele>1000.152</ele>
        <time>2025-03-24T03:50:38-07:00</time>
      </trkpt>
      <trkpt lat="50.10035" lon="-122.95227">
        <ele>996.849</ele>
        <time>2025-03-24T03:50:42-07:00</time>
      </trkpt>
      <trkpt lat="50.10057" lon="-122.95232">
        <ele>998.441</ele>
        <time>2025-03-24T03:50:44-07:00</time>
      </trkpt>
      <trkpt lat="50.1009" lon="-122.95219">
        <ele>999.955</ele>
        <time>2025-03-24T03:50:48-07:00</time>
      </trkpt>
      <trkpt lat="50.10094" lon="-122.95233">
        <ele>995.982</ele>
        <time>2025-03-24T03:50:50-07:00</time>
      </trkpt>
      <trkpt lat="50.10088" lon="-122.95257">
        <ele>993.242</ele>
        <time>2025-03-24T03:50:52-07:00</time>
      </trkpt>
      <trkpt lat="50.10101" lon="-122.95268">
        <ele>991.461</ele>
        <time>2025-03-24T03:50:54-07:00</time>
      </trkpt>
      <trkpt lat="50.10116" lon="-122.95268">
        <ele>991.61</ele>
        <time>2025-03-24T03:50:56-07:00</time>
      </trkpt>
      <trkpt lat="50.10134" lon="-122.95249">
        <ele>989.093</ele>
        <time>2025-03-24T03:50:58-07:00</time>
      </trkpt>
      <trkpt lat="50.10148" lon="-122.95265">
        <ele>986.136</ele>
        <time>2025-03-24T03:51:01-07:00</time>
      </trkpt>
      <trkpt lat="50.10165" lon="-122.95249">
        <ele>984.251</ele>
        <time>2025-03-24T03:51:03-07:00</time>
      </trkpt>
      <trkpt lat="50.10168" lon="-122.95259">
        <ele>982.119</ele>
        <time>2025-03-24T03:51:05-07:00</time>
      </trkpt>
      <trkpt lat="50.10158" lon="-122.95291">
        <ele>977.153</ele>
        <time>2025-03-24T03:51:09-07:00</time>
      </trkpt>
      <trkpt lat="50.10188" lon="-122.95284">
        <ele>971.312</ele>
        <time>2025-03-24T03:51:13-07:00</time>
      </trkpt>
      <trkpt lat="50.10198" lon="-122.95291">
        <ele>970.339</ele>
        <time>2025-03-24T03:51:17-07:00</time>
      </trkpt>
      <trkpt lat="50.10183" lon="-122.95319">
        <ele>971.177</ele>
        <time>2025-03-24T03:51:22-07:00</time>
      </trkpt>
      <trkpt lat="50.10168" lon="-122.95324">
        <ele>968.259</ele>
        <time>2025-03-24T03:51:24-07:00</time>
      </trkpt>
      <trkpt lat="50.10163" lon="-122.95335">
        <ele>965.897</ele>
        <time>2025-03-24T03:51:26-07:00</time>
      </trkpt>
      <trkpt lat="50.10234" lon="-122.95326">
        <ele>960.784</ele>
        <time>2025-03-24T03:51:31-07:00</time>
      </trkpt>
      <trkpt lat="50.10252" lon="-122.95352">
        <ele>954.669</ele>
        <time>2025-03-24T03:51:35-07:00</time>
      </trkpt>
      <trkpt lat="50.10239" lon="-122.95362">
        <ele>949.32</ele>
        <time>2025-03-24T03:51:39-07:00</time>
      </trkpt>
      <trkpt lat="50.10242" lon="-122.95378">
        <ele>944.351</ele>
        <time>2025-03-24T03:51:41-07:00</time>
      </trkpt>
      <trkpt lat="50.10267" lon="-122.95378">
        <ele>944.388</ele>
        <time>2025-03-24T03:51:43-07:00</time>
      </trkpt>
      <trkpt lat="50.10266" lon="-122.95401">
        <ele>942.705</ele>
        <time>2025-03-24T03:51:46-07:00</time>
      </trkpt>
      <trkpt lat="50.10292" lon="-122.954">
        <ele>941.859</ele>
        <time>2025-03-24T03:51:47-07:00</time>
      </trkpt>
      <trkpt lat="50.1032" lon="-122.9537">
        <ele>936.185</ele>
        <time>2025-03-24T03:51:52-07:00</time>
      </trkpt>
      <trkpt lat="50.10326" lon="-122.95373">
        <ele>931.429</ele>
        <time>2025-03-24T03:51:54-07:00</time>
      </trkpt>
      <trkpt lat="50.1033" lon="-122.95411">
        <ele>929.148</ele>
        <time>2025-03-24T03:51:58-07:00</time>
      </trkpt>
      <trkpt lat="50.1035" lon="-122.9541">
        <ele>919.464</ele>
        <time>2025-03-24T03:52:04-07:00</time>
      </trkpt>
      <trkpt lat="50.10329" lon="-122.95481">
        <ele>912.619</ele>
        <time>2025-03-24T03:52:10-07:00</time>
      </trkpt>
      <trkpt lat="50.10361" lon="-122.95463">
        <ele>910.397</ele>
        <time>2025-03-24T03:52:14-07:00</time>
      </trkpt>
      <trkpt lat="50.10368" lon="-122.9547">
        <ele>905.13</ele>
        <time>2025-03-24T03:52:16-07:00</time>
      </trkpt>
      <trkpt lat="50.10343" lon="-122.95522">
        <ele>902.237</ele>
        <time>2025-03-24T03:52:20-07:00</time>
      </trkpt>
      <trkpt lat="50.10349" lon="-122.95567">
        <ele>901.873</ele>
        <time>2025-03-24T03:52:22-07:00</time>
      </trkpt>
      <trkpt lat="50.10357" lon="-122.95572">
        <ele>899.757</ele>
        <time>2025-03-24T03:52:24-07:00</time>
      </trkpt>
      <trkpt lat="50.10371" lon="-122.95563">
        <ele>896.468</ele>
        <time>2025-03-24T03:52:26-07:00</time>
      </trkpt>
      <trkpt lat="50.10386" lon="-122.95523">
        <ele>896.468</ele>
        <time>2025-03-24T03:52:28-07:00</time>
      </trkpt>
      <trkpt lat="50.10416" lon="-122.95482">
        <ele>896.468</ele>
        <time>2025-03-24T03:52:29-07:00</time>
      </trkpt>
    </trkseg>
  </trk>
</gpx>