<?xml version="1.0" encoding="UTF-8"?>
<gpx xmlns="http://www.topografix.com/GPX/1/1" xmlns:xsi="http://www.w3.org/2001/XMLSchema-instance" xsi:schemaLocation="http://www.topografix.com/GPX/1/1 http://www.topografix.com/GPX/1/1/gpx.xsd" version="1.1" creator="gpx.py -- https://github.com/tkrajina/gpxpy">
  <trk>
    <trkseg>
      <trkpt lat="50.08582" lon="-122.96416">
        <ele>1301.5</ele>
        <time>2025-03-24T04:06:10-07:00</time>
      </trkpt>
      <trkpt lat="50.08593" lon="-122.96456">
        <ele>1297.1</ele>
        <time>2025-03-24T04:06:13-07:00</time>
      </trkpt>
      <trkpt lat="50.08632" lon="-122.96489">
        <ele>1290.1</ele>
        <time>2025-03-24T04:06:18-07:00</time>
      </trkpt>
      <trkpt lat="50.08685" lon="-122.96488">
        <ele>1284.5</ele>
        <time>2025-03-24T04:06:24-07:00</time>
      </trkpt>
      <trkpt lat="50.08703" lon="-122.96478">
        <ele>1278.2</ele>
        <time>2025-03-24T04:06:27-07:00</time>
      </trkpt>
      <trkpt lat="50.08744" lon="-122.96472">
        <ele>1272.8</ele>
        <time>2025-03-24T04:06:33-07:00</time>
      </trkpt>
      <trkpt lat="50.08776" lon="-122.96453">
        <ele>1265.8</ele>
        <time>2025-03-24T04:06:39-07:00</time>
      </trkpt>
      <trkpt lat="50.08782" lon="-122.96496">
        <ele>1258.0</ele>
        <time>2025-03-24T04:06:46-07:00</time>
      </trkpt>
      <trkpt lat="50.08788" lon="-122.96501">
        <ele>1251.7</ele>
        <time>2025-03-24T04:06:48-07:00</time>
      </trkpt>
      <trkpt lat="50.08815" lon="-122.96474">
        <ele>1254.9</ele>
        <time>2025-03-24T04:06:54-07:00</time>
      </trkpt>
      <trkpt lat="50.08824" lon="-122.96493">
        <ele>1254.9</ele>
        <time>2025-03-24T04:06:57-07:00</time>
      </trkpt>
      <trkpt lat="50.08802" lon="-122.96532">
        <ele>1246.0</ele>
        <time>2025-03-24T04:07:04-07:00</time>
      </trkpt>
      <trkpt lat="50.08824" lon="-122.96548">
        <ele>1244.4</ele>
        <time>2025-03-24T04:07:09-07:00</time>
      </trkpt>
      <trkpt lat="50.08882" lon="-122.96549">
        <ele>1239.0</ele>
        <time>2025-03-24T04:07:20-07:00</time>
      </trkpt>
      <trkpt lat="50.08912" lon="-122.96537">
        <ele>1235.6</ele>
        <time>2025-03-24T04:07:25-07:00</time>
      </trkpt>
      <trkpt lat="50.08922" lon="-122.96525">
        <ele>1226.2</ele>
        <time>2025-03-24T04:07:27-07:00</time>
      </trkpt>
      <trkpt lat="50.08938" lon="-122.96475">
        <ele>1225.0</ele>
        <time>2025-03-24T04:07:33-07:00</time>
      </trkpt>
      <trkpt lat="50.08984" lon="-122.9648">
        <ele>1212.8</ele>
        <time>2025-03-24T04:07:41-07:00</time>
      </trkpt>
      <trkpt lat="50.08995" lon="-122.96466">
        <ele>1211.7</ele>
        <time>2025-03-24T04:07:44-07:00</time>
      </trkpt>
      <trkpt lat="50.09012" lon="-122.96475">
        <ele>1211.7</ele>
        <time>2025-03-24T04:07:46-07:00</time>
      </trkpt>
      <trkpt lat="50.09048" lon="-122.96536">
        <ele>1208.0</ele>
        <time>2025-03-24T04:07:54-07:00</time>
      </trkpt>
      <trkpt lat="50.09072" lon="-122.96537">
        <ele>1205.8</ele>
        <time>2025-03-24T04:07:57-07:00</time>
      </trkpt>
      <trkpt lat="50.09089" lon="-122.96527">
        <ele>1206.2</ele>
        <time>2025-03-24T04:08:00-07:00</time>
      </trkpt>
      <trkpt lat="50.091" lon="-122.96489">
        <ele>1204.1</ele>
        <time>2025-03-24T04:08:04-07:00</time>
      </trkpt>
      <trkpt lat="50.09098" lon="-122.9647">
        <ele>1200.0</ele>
        <time>2025-03-24T04:08:06-07:00</time>
      </trkpt>
      <trkpt lat="50.09068" lon="-122.96439">
        <ele>1197.6</ele>
        <time>2025-03-24T04:08:12-07:00</time>
      </trkpt>
      <trkpt lat="50.09074" lon="-122.96414">
        <ele>1200.8</ele>
        <time>2025-03-24T04:08:15-07:00</time>
      </trkpt>
      <trkpt lat="50.09155" lon="-122.96381">
        <ele>1192.1</ele>
        <time>2025-03-24T04:08:26-07:00</time>
      </trkpt>
      <trkpt lat="50.09169" lon="-122.96368">
        <ele>1189.1</ele>
        <time>2025-03-24T04:08:28-07:00</time>
      </trkpt>
      <trkpt lat="50.09213" lon="-122.96358">
        <ele>1184.7</ele>
        <time>2025-03-24T04:08:32-07:00</time>
      </trkpt>
      <trkpt lat="50.09243" lon="-122.96329">
        <ele>1178.1</ele>
        <time>2025-03-24T04:08:36-07:00</time>
      </trkpt>
      <trkpt lat="50.0928" lon="-122.96318">
        <ele>1169.2</ele>
        <time>2025-03-24T04:08:39-07:00</time>
      </trkpt>
      <trkpt lat="50.09292" lon="-122.96319">
        <ele>1169.2</ele>
        <time>2025-03-24T04:08:40-07:00</time>
      </trkpt>
      <trkpt lat="50.09308" lon="-122.96335">
        <ele>1167.0</ele>
        <time>2025-03-24T04:08:42-07:00</time>
      </trkpt>
      <trkpt lat="50.09332" lon="-122.96389">
        <ele>1164.9</ele>
        <time>2025-03-24T04:08:46-07:00</time>
      </trkpt>
      <trkpt lat="50.093" lon="-122.96465">
        <ele>1154.0</ele>
        <time>2025-03-24T04:08:52-07:00</time>
      </trkpt>
      <trkpt lat="50.09323" lon="-122.96475">
        <ele>1142.1</ele>
        <time>2025-03-24T04:08:55-07:00</time>
      </trkpt>
      <trkpt lat="50.09353" lon="-122.96465">
        <ele>1143.9</ele>
        <time>2025-03-24T04:08:58-07:00</time>
      </trkpt>
      <trkpt lat="50.09381" lon="-122.96465">
        <ele>1141.0</ele>
        <time>2025-03-24T04:09:00-07:00</time>
      </trkpt>
      <trkpt lat="50.09391" lon="-122.96457">
        <ele>1135.6</ele>
        <time>2025-03-24T04:09:02-07:00</time>
      </trkpt>
      <trkpt lat="50.09409" lon="-122.96459">
        <ele>1135.6</ele>
        <time>2025-03-24T04:09:05-07:00</time>
      </trkpt>
      <trkpt lat="50.09422" lon="-122.96451">
        <ele>1130.5</ele>
        <time>2025-03-24T04:09:08-07:00</time>
      </trkpt>
      <trkpt lat="50.09443" lon="-122.96463">
        <ele>1130.5</ele>
        <time>2025-03-24T04:09:13-07:00</time>
      </trkpt>
      <trkpt lat="50.09462" lon="-122.96443">
        <ele>1124.6</ele>
        <time>2025-03-24T04:09:16-07:00</time>
      </trkpt>
      <trkpt lat="50.09483" lon="-122.96393">
        <ele>1112.7</ele>
        <time>2025-03-24T04:09:20-07:00</time>
      </trkpt>
      <trkpt lat="50.09499" lon="-122.96374">
        <ele>1112.9</ele>
        <time>2025-03-24T04:09:23-07:00</time>
      </trkpt>
      <trkpt lat="50.09508" lon="-122.96317">
        <ele>1109.8</ele>
        <time>2025-03-24T04:09:27-07:00</time>
      </trkpt>
      <trkpt lat="50.09517" lon="-122.96301">
        <ele>1108.6</ele>
        <time>2025-03-24T04:09:29-07:00</time>
      </trkpt>
      <trkpt lat="50.09523" lon="-122.96297">
        <ele>1108.6</ele>
        <time>2025-03-24T04:09:30-07:00</time>
      </trkpt>
      <trkpt lat="50.09574" lon="-122.96311">
        <ele>1100.5</ele>
        <time>2025-03-24T04:09:33-07:00</time>
      </trkpt>
      <trkpt lat="50.09582" lon="-122.96298">
        <ele>1097.1</ele>
        <time>2025-03-24T04:09:34-07:00</time>
      </trkpt>
      <trkpt lat="50.09575" lon="-122.96222">
        <ele>1089.5</ele>
        <time>2025-03-24T04:09:36-07:00</time>
      </trkpt>
      <trkpt lat="50.09607" lon="-122.96187">
        <ele>1082.6</ele>
        <time>2025-03-24T04:09:40-07:00</time>
      </trkpt>
      <trkpt lat="50.09618" lon="-122.96127">
        <ele>1071.0</ele>
        <time>2025-03-24T04:09:42-07:00</time>
      </trkpt>
      <trkpt lat="50.09636" lon="-122.96085">
        <ele>1072.4</ele>
        <time>2025-03-24T04:09:43-07:00</time>
      </trkpt>
      <trkpt lat="50.09667" lon="-122.95868">
        <ele>1045.8</ele>
        <time>2025-03-24T04:09:50-07:00</time>
      </trkpt>
      <trkpt lat="50.09679" lon="-122.95846">
        <ele>1047.3</ele>
        <time>2025-03-24T04:09:52-07:00</time>
      </trkpt>
      <trkpt lat="50.09685" lon="-122.95855">
        <ele>1047.3</ele>
        <time>2025-03-24T04:09:54-07:00</time>
      </trkpt>
      <trkpt lat="50.09681" lon="-122.95882">
        <ele>1045.8</ele>
        <time>2025-03-24T04:09:55-07:00</time>
      </trkpt>
      <trkpt lat="50.09688" lon="-122.95892">
        <ele>1046.2</ele>
        <time>2025-03-24T04:09:57-07:00</time>
      </trkpt>
      <trkpt lat="50.09738" lon="-122.95745">
        <ele>1031.0</ele>
        <time>2025-03-24T04:10:01-07:00</time>
      </trkpt>
      <trkpt lat="50.09733" lon="-122.95576">
        <ele>1024.0</ele>
        <time>2025-03-24T04:10:04-07:00</time>
      </trkpt>
    </trkseg>
  </trk>
</gpx>