<?xml version="1.0"?>
<gpx version="1.1" creator="GDAL 3.9.0" xmlns:xsi="http://www.w3.org/2001/XMLSchema-instance" xmlns="http://www.topografix.com/GPX/1/1" xsi:schemaLocation="http://www.topografix.com/GPX/1/1 http://www.topografix.com/GPX/1/1/gpx.xsd">
<metadata>
<bounds minlat="47.317401507053184" minlon="13.200337884958055" maxlat="47.321874903682563" maxlon="13.219540307389172"/>                                       
</metadata>
<trk>
  <trkseg>
    <trkpt lat="47.317475970662599" lon="13.219540307389172">
        <ele>1269.1500244140625</ele>
    </trkpt>
    <trkpt lat="47.317635883041945" lon="13.219507242612149">
        <ele>1267.219970703125</ele>
    </trkpt>
    <trkpt lat="47.317779106055021" lon="13.219474592595709">
        <ele>1265.699951171875</ele>
    </trkpt>
    <trkpt lat="47.317882308547759" lon="13.219446169612509">
        <ele>1263.06005859375</ele>
    </trkpt>
    <trkpt lat="47.317922707431912" lon="13.219431815850671">
        <ele>1263.550048828125</ele>
    </trkpt>
    <trkpt lat="47.317960187023708" lon="13.219409596785612">
        <ele>1263.6700439453125</ele>
    </trkpt>
    <trkpt lat="47.317992243005307" lon="13.219387005290601">
        <ele>1264.1300048828125</ele>
    </trkpt>
    <trkpt lat="47.318018932057136" lon="13.21936058007077">
        <ele>1261.5699462890625</ele>
    </trkpt>
    <trkpt lat="47.318077504102305" lon="13.219295090320504">
        <ele>1261.4200439453125</ele>
    </trkpt>
    <trkpt lat="47.318105306115086" lon="13.219253585441903">
        <ele>1261.4200439453125</ele>
    </trkpt>
    <trkpt lat="47.318125480239104" lon="13.219215982067018">
        <ele>1260.72998046875</ele>
    </trkpt>
    <trkpt lat="47.31816262986613" lon="13.219123639802214">
        <ele>1258.969970703125</ele>
    </trkpt>
    <trkpt lat="47.318183271954595" lon="13.219062867652365">
        <ele>1260.0</ele>
    </trkpt>
    <trkpt lat="47.318203630053375" lon="13.218993591847351">
        <ele>1259.0899658203125</ele>
    </trkpt>
    <trkpt lat="47.318223704147009" lon="13.218915812378528">
        <ele>1259.0899658203125</ele>
    </trkpt>
    <trkpt lat="47.318243494218187" lon="13.218829529237505">
        <ele>1258.550048828125</ele>
    </trkpt>
    <trkpt lat="47.318257344962177" lon="13.218740923499247">
        <ele>1258.27001953125</ele>
    </trkpt>
    <trkpt lat="47.31826525637365" lon="13.21864999519172">
        <ele>1256.0899658203125</ele>
    </trkpt>
    <trkpt lat="47.318267228447176" lon="13.218556744344486">
        <ele>1255.6500244140625</ele>
    </trkpt>
    <trkpt lat="47.31825802162345" lon="13.218371719632474">
        <ele>1253.68994140625</ele>
    </trkpt>
    <trkpt lat="47.318251509800604" lon="13.218288390280588">
        <ele>1251.7099609375</ele>
    </trkpt>
    <trkpt lat="47.318243725721906" lon="13.218211182936708">
        <ele>1252.0400390625</ele>
    </trkpt>
    <trkpt lat="47.318234669399722" lon="13.218140097603664">
        <ele>1252.1600341796875</ele>
    </trkpt>
    <trkpt lat="47.318219005080202" lon="13.217993894860156">
        <ele>1250.5699462890625</ele>
    </trkpt>
    <trkpt lat="47.318206605176584" lon="13.217842315994707">
        <ele>1246.510009765625</ele>
    </trkpt>
    <trkpt lat="47.318205073172656" lon="13.217757731151831">
        <ele>1245.8199462890625</ele>
    </trkpt>
    <trkpt lat="47.31820780104794" lon="13.217665022895865">
        <ele>1248.0799560546875</ele>
    </trkpt>
    <trkpt lat="47.318214788782733" lon="13.217564191203227">
        <ele>1246.6199951171875</ele>
    </trkpt>
    <trkpt lat="47.31822603635549" lon="13.217455236046428">
        <ele>1244.2900390625</ele>
    </trkpt>
    <trkpt lat="47.318238200568331" lon="13.217357796345159">
        <ele>1243.6800537109375</ele>
    </trkpt>
    <trkpt lat="47.3182512814506" lon="13.217271872102248">
        <ele>1242.3599853515625</ele>
    </trkpt>
    <trkpt lat="47.318265279028203" lon="13.217197463321714">
        <ele>1241.030029296875</ele>
    </trkpt>
    <trkpt lat="47.318306808774892" lon="13.217012115563886">
        <ele>1240.68994140625</ele>
    </trkpt>
    <trkpt lat="47.318329140052377" lon="13.216894104057124">
        <ele>1238.5799560546875</ele>
    </trkpt>
    <trkpt lat="47.318334585065365" lon="13.216830321521055">
        <ele>1237.6300048828125</ele>
    </trkpt>
    <trkpt lat="47.318334844964582" lon="13.216761206849943">
        <ele>1237.050048828125</ele>
    </trkpt>
    <trkpt lat="47.318329919740442" lon="13.216686760064011">
        <ele>1237.1600341796875</ele>
    </trkpt>
    <trkpt lat="47.318319809382466" lon="13.216606981186612">
        <ele>1237.3199462890625</ele>
    </trkpt>
    <trkpt lat="47.318312999528665" lon="13.216522916388946">
        <ele>1237.6400146484375</ele>
    </trkpt>
    <trkpt lat="47.318309490169526" lon="13.216434565656987">
        <ele>1237.7900390625</ele>
    </trkpt>
    <trkpt lat="47.318309281295136" lon="13.216341928975091">
        <ele>1237.72998046875</ele>
    </trkpt>
    <trkpt lat="47.318314130164154" lon="13.216159176042625">
        <ele>1235.0400390625</ele>
    </trkpt>
    <trkpt lat="47.318313641805936" lon="13.216020792601306">
        <ele>1234.7099609375</ele>
    </trkpt>
    <trkpt lat="47.318305948558965" lon="13.215865991836667">
        <ele>1233.4599609375</ele>
    </trkpt>
    <trkpt lat="47.318299225593343" lon="13.215767555796885">
        <ele>1233.6700439453125</ele>
    </trkpt>
    <trkpt lat="47.318291782362081" lon="13.21570953266005">
        <ele>1230.9200439453125</ele>
    </trkpt>
    <trkpt lat="47.318280416780951" lon="13.215642227975597">
        <ele>1230.9000244140625</ele>
    </trkpt>
    <trkpt lat="47.318230176898155" lon="13.215401751569155">
        <ele>1229.9300537109375</ele>
    </trkpt>
    <trkpt lat="47.318217904040324" lon="13.215331574294463">
        <ele>1230.550048828125</ele>
    </trkpt>
    <trkpt lat="47.318209099942138" lon="13.215269242208381">
        <ele>1231.1300048828125</ele>
    </trkpt>
    <trkpt lat="47.318203764616399" lon="13.21521475529474">
        <ele>1227.1800537109375</ele>
    </trkpt>
    <trkpt lat="47.318196743254298" lon="13.2150867278629">
        <ele>1227.489990234375</ele>
    </trkpt>
    <trkpt lat="47.318193563302827" lon="13.214827007171191">
        <ele>1229.199951171875</ele>
    </trkpt>
    <trkpt lat="47.318191221592649" lon="13.214783986151994">
        <ele>1229.3800048828125</ele>
    </trkpt>
    <trkpt lat="47.318183878691258" lon="13.214762842522671">
        <ele>1229.3800048828125</ele>
    </trkpt>
    <trkpt lat="47.31817636552281" lon="13.214752576847685">
        <ele>1229.300048828125</ele>
    </trkpt>
    <trkpt lat="47.318162027163936" lon="13.214744433981339">
        <ele>1229.300048828125</ele>
    </trkpt>
    <trkpt lat="47.318146509282521" lon="13.214746419246184">
        <ele>1225.0400390625</ele>
    </trkpt>
    <trkpt lat="47.318137317707297" lon="13.214752978262878">
        <ele>1225.0400390625</ele>
    </trkpt>
    <trkpt lat="47.318129904803698" lon="13.214763455094936">
        <ele>1225.260009765625</ele>
    </trkpt>
    <trkpt lat="47.318118049986928" lon="13.214811481503784">
        <ele>1225.260009765625</ele>
    </trkpt>
    <trkpt lat="47.318099679671214" lon="13.214908268031033">
        <ele>1221.719970703125</ele>
    </trkpt>
    <trkpt lat="47.318090596773978" lon="13.214984031747903">
        <ele>1221.3800048828125</ele>
    </trkpt>
    <trkpt lat="47.31808243053878" lon="13.215081070900847">
        <ele>1220.969970703125</ele>
    </trkpt>
    <trkpt lat="47.318075180911599" lon="13.21519938548516">
        <ele>1220.260009765625</ele>
    </trkpt>
    <trkpt lat="47.318068847826538" lon="13.215338975498383">
        <ele>1215.489990234375</ele>
    </trkpt>
    <trkpt lat="47.318057340959449" lon="13.215470160177212">
        <ele>1215.3399658203125</ele>
    </trkpt>
    <trkpt lat="47.318040660339165" lon="13.215592939488651">
        <ele>1216.81005859375</ele>
    </trkpt>
    <trkpt lat="47.318018805992601" lon="13.215707313404616">
        <ele>1215.31005859375</ele>
    </trkpt>
    <trkpt lat="47.317991777944862" lon="13.215813281901942">
        <ele>1216.0699462890625</ele>
    </trkpt>
    <trkpt lat="47.317964506515295" lon="13.215928145778093">
        <ele>1213.8699951171875</ele>
    </trkpt>
    <trkpt lat="47.317936991677072" lon="13.216051905017796">
        <ele>1213.4000244140625</ele>
    </trkpt>
    <trkpt lat="47.317857935289979" lon="13.216437270569442">
        <ele>1207.030029296875</ele>
    </trkpt>
    <trkpt lat="47.317839344387664" lon="13.216518042806596">
        <ele>1206.0</ele>
    </trkpt>
    <trkpt lat="47.31782545901477" lon="13.216568426290431">
        <ele>1206.68994140625</ele>
    </trkpt>
    <trkpt lat="47.317806351388484" lon="13.216607726168927">
        <ele>1207.300048828125</ele>
    </trkpt>
    <trkpt lat="47.317784251684913" lon="13.216644267417648">
        <ele>1205.0999755859375</ele>
    </trkpt>
    <trkpt lat="47.317759652820556" lon="13.216675847168185">
        <ele>1206.449951171875</ele>
    </trkpt>
    <trkpt lat="47.31774697073282" lon="13.216687298259185">
        <ele>1204.449951171875</ele>
    </trkpt>
    <trkpt lat="47.317734033542621" lon="13.216695856829846">
        <ele>1204.449951171875</ele>
    </trkpt>
    <trkpt lat="47.317720841250598" lon="13.216701522882175">
        <ele>1204.449951171875</ele>
    </trkpt>
    <trkpt lat="47.317693561941837" lon="13.216705549460658">
        <ele>1204.72998046875</ele>
    </trkpt>
    <trkpt lat="47.317679474925342" lon="13.216703909990496">
        <ele>1204.72998046875</ele>
    </trkpt>
    <trkpt lat="47.317644037080996" lon="13.216692472412252">
        <ele>1205.6600341796875</ele>
    </trkpt>
    <trkpt lat="47.317633275067742" lon="13.216686157927667">
        <ele>1205.6600341796875</ele>
    </trkpt>
    <trkpt lat="47.317622045457895" lon="13.216672701963887">
        <ele>1203.3399658203125</ele>
    </trkpt>
    <trkpt lat="47.317606762191609" lon="13.216649374552528">
        <ele>1203.969970703125</ele>
    </trkpt>
    <trkpt lat="47.317599640030927" lon="13.216634217976566">
        <ele>1203.969970703125</ele>
    </trkpt>
    <trkpt lat="47.317588474245362" lon="13.216597128004251">
        <ele>1201.97998046875</ele>
    </trkpt>
    <trkpt lat="47.31758443061829" lon="13.216575194607167">
        <ele>1201.97998046875</ele>
    </trkpt>
    <trkpt lat="47.317583183712841" lon="13.216533746935399">
        <ele>1199.7900390625</ele>
    </trkpt>
    <trkpt lat="47.317586294542913" lon="13.216505672211763">
        <ele>1199.7900390625</ele>
    </trkpt>
    <trkpt lat="47.317618717859887" lon="13.216368559788776">
        <ele>1195.5799560546875</ele>
    </trkpt>
    <trkpt lat="47.317644560836946" lon="13.216279612874827">
        <ele>1192.75</ele>
    </trkpt>
    <trkpt lat="47.3176599168983" lon="13.21622013454326">
        <ele>1191.469970703125</ele>
    </trkpt>
    <trkpt lat="47.317672718079947" lon="13.216156419600235">
        <ele>1192.469970703125</ele>
    </trkpt>
    <trkpt lat="47.317679775692199" lon="13.216106389761491">
        <ele>1191.4599609375</ele>
    </trkpt>
    <trkpt lat="47.317681089753066" lon="13.216070045048742">
        <ele>1191.449951171875</ele>
    </trkpt>
    <trkpt lat="47.31767805104699" lon="13.215976161233083">
        <ele>1192.1500244140625</ele>
    </trkpt>
    <trkpt lat="47.31766745651052" lon="13.215854018270699">
        <ele>1191.43994140625</ele>
    </trkpt>
    <trkpt lat="47.317652489575373" lon="13.215734491538827">
        <ele>1188.0799560546875</ele>
    </trkpt>
    <trkpt lat="47.317634211432342" lon="13.215627872828808">
        <ele>1187.8699951171875</ele>
    </trkpt>
    <trkpt lat="47.317610848833226" lon="13.215528467603111">
        <ele>1186.4599609375</ele>
    </trkpt>
    <trkpt lat="47.317581810700361" lon="13.215434377701525">
        <ele>1186.030029296875</ele>
    </trkpt>
    <trkpt lat="47.317569669465527" lon="13.215383888896246">
        <ele>1185.1300048828125</ele>
    </trkpt>
    <trkpt lat="47.317560615497811" lon="13.215329291813559">
        <ele>1184.56005859375</ele>
    </trkpt>
    <trkpt lat="47.317554648791273" lon="13.215270586446042">
        <ele>1183.8699951171875</ele>
    </trkpt>
    <trkpt lat="47.317547747311963" lon="13.215151487291575">
        <ele>1182.3199462890625</ele>
    </trkpt>
    <trkpt lat="47.317542582717763" lon="13.215101729968355">
        <ele>1182.3199462890625</ele>
    </trkpt>
    <trkpt lat="47.31753627556558" lon="13.215058500816486">
        <ele>1181.530029296875</ele>
    </trkpt>
    <trkpt lat="47.317518985661948" lon="13.214981916746853">
        <ele>1178.969970703125</ele>
    </trkpt>
    <trkpt lat="47.317506754959709" lon="13.214938851554948">
        <ele>1177.5400390625</ele>
    </trkpt>
    <trkpt lat="47.317459103108533" lon="13.214790930471551">
        <ele>1173.77001953125</ele>
    </trkpt>
    <trkpt lat="47.317430043601703" lon="13.214677996456514">
        <ele>1169.5</ele>
    </trkpt>
    <trkpt lat="47.317417003014477" lon="13.214617306865387">
        <ele>1168.1400146484375</ele>
    </trkpt>
    <trkpt lat="47.317407900073036" lon="13.214546868756106">
        <ele>1167.0999755859375</ele>
    </trkpt>
    <trkpt lat="47.317402734759426" lon="13.214466682118042">
        <ele>1166.43994140625</ele>
    </trkpt>
    <trkpt lat="47.317401507053184" lon="13.214376746936212">
        <ele>1165.8699951171875</ele>
    </trkpt>
    <trkpt lat="47.317404216931379" lon="13.2142770631913">
        <ele>1164.8900146484375</ele>
    </trkpt>
    <trkpt lat="47.317409181302445" lon="13.214179820574827">
        <ele>1164.4599609375</ele>
    </trkpt>
    <trkpt lat="47.317416400172625" lon="13.214085019075062">
        <ele>1163.52001953125</ele>
    </trkpt>
    <trkpt lat="47.317425873547919" lon="13.213992658680887">
        <ele>1163.06005859375</ele>
    </trkpt>
    <trkpt lat="47.317486806778028" lon="13.21350405339016">
        <ele>1159.449951171875</ele>
    </trkpt>
    <trkpt lat="47.317496751108052" lon="13.213396894507465">
        <ele>1158.43994140625</ele>
    </trkpt>
    <trkpt lat="47.317503994377766" lon="13.213288099582643">
        <ele>1157.3800048828125</ele>
    </trkpt>
    <trkpt lat="47.317508536582523" lon="13.213177668631666">
        <ele>1156.8299560546875</ele>
    </trkpt>
    <trkpt lat="47.31751037771766" lon="13.213065601671016">
        <ele>1155.780029296875</ele>
    </trkpt>
    <trkpt lat="47.317514928653118" lon="13.212944916050171">
        <ele>1154.739990234375</ele>
    </trkpt>
    <trkpt lat="47.317522189361682" lon="13.212815611748463">
        <ele>1153.5400390625</ele>
    </trkpt>
    <trkpt lat="47.317532159814128" lon="13.212677688742557">
        <ele>1152.1500244140625</ele>
    </trkpt>
    <trkpt lat="47.317557398994936" lon="13.212365938643826">
        <ele>1149.2900390625</ele>
    </trkpt>
    <trkpt lat="47.317582153245361" lon="13.211979521990957">
        <ele>1146.2099609375</ele>
    </trkpt>
    <trkpt lat="47.317603964824464" lon="13.211565934580765">
        <ele>1143.02001953125</ele>
    </trkpt>
    <trkpt lat="47.317615462911149" lon="13.21126766420195">
        <ele>1140.969970703125</ele>
    </trkpt>
    <trkpt lat="47.317617344689928" lon="13.211161772981862">
        <ele>1139.9300537109375</ele>
    </trkpt>
    <trkpt lat="47.317624066507108" lon="13.211046976606918">
        <ele>1138.760009765625</ele>
    </trkpt>
    <trkpt lat="47.317635628336006" lon="13.210923275042347">
        <ele>1138.8900146484375</ele>
    </trkpt>
    <trkpt lat="47.317652030147627" lon="13.210790668248466">
        <ele>1138.5899658203125</ele>
    </trkpt>
    <trkpt lat="47.317717378884616" lon="13.21036368230361">
        <ele>1136.010009765625</ele>
    </trkpt>
    <trkpt lat="47.317739688539262" lon="13.210236259194057">
        <ele>1135.0999755859375</ele>
    </trkpt>
    <trkpt lat="47.317845819870641" lon="13.209669718119642">
        <ele>1130.6300048828125</ele>
    </trkpt>
    <trkpt lat="47.31786930601676" lon="13.209534208109572">
        <ele>1128.9000244140625</ele>
    </trkpt>
    <trkpt lat="47.317918220290352" lon="13.209221703456359">
        <ele>1123.3599853515625</ele>
    </trkpt>
    <trkpt lat="47.317933059112548" lon="13.2091440165169">
        <ele>1124.0699462890625</ele>
    </trkpt>
    <trkpt lat="47.317947879428992" lon="13.209078962661124">
        <ele>1122.760009765625</ele>
    </trkpt>
    <trkpt lat="47.317962681261228" lon="13.209026541899661">
        <ele>1121.300048828125</ele>
    </trkpt>
    <trkpt lat="47.317984782175856" lon="13.208964543323789">
        <ele>1120.260009765625</ele>
    </trkpt>
    <trkpt lat="47.318014182157221" lon="13.208892966895933">
        <ele>1118.8499755859375</ele>
    </trkpt>
    <trkpt lat="47.318050881187233" lon="13.208811812570596">
        <ele>1117.9200439453125</ele>
    </trkpt>
    <trkpt lat="47.318094879245329" lon="13.208721080294351">
        <ele>1115.6800537109375</ele>
    </trkpt>
    <trkpt lat="47.318139534297892" lon="13.208636515411882">
        <ele>1115.2900390625</ele>
    </trkpt>
    <trkpt lat="47.318184846358612" lon="13.208558117935594">
        <ele>1115.300048828125</ele>
    </trkpt>
    <trkpt lat="47.318230815440103" lon="13.208485887878366">
        <ele>1115.27001953125</ele>
    </trkpt>
    <trkpt lat="47.318539472267254" lon="13.208054512468667">
        <ele>1111.0999755859375</ele>
    </trkpt>
    <trkpt lat="47.318544110972894" lon="13.208043322964294">
        <ele>1111.0999755859375</ele>
    </trkpt>
    <trkpt lat="47.318546700257926" lon="13.208029941010734">
        <ele>1111.0999755859375</ele>
    </trkpt>
    <trkpt lat="47.318546304060327" lon="13.208012863312366">
        <ele>1111.0999755859375</ele>
    </trkpt>
    <trkpt lat="47.318543968881897" lon="13.208001348081776">
        <ele>1109.75</ele>
    </trkpt>
    <trkpt lat="47.318539796517491" lon="13.207990818054274">
        <ele>1109.75</ele>
    </trkpt>
    <trkpt lat="47.318534164584975" lon="13.207982111658806">
        <ele>1109.75</ele>
    </trkpt>
    <trkpt lat="47.318527198957327" lon="13.207975508371476">
        <ele>1109.75</ele>
    </trkpt>
    <trkpt lat="47.318519379475013" lon="13.207971537940679">
        <ele>1109.75</ele>
    </trkpt>
    <trkpt lat="47.318503102108942" lon="13.207971406964358">
        <ele>1108.8499755859375</ele>
    </trkpt>
    <trkpt lat="47.318496568653693" lon="13.207974421845019">
        <ele>1108.8499755859375</ele>
    </trkpt>
    <trkpt lat="47.318482991825682" lon="13.207986202633915">
        <ele>1108.8499755859375</ele>
    </trkpt>
    <trkpt lat="47.318344873465144" lon="13.208113340190708">
        <ele>1108.8199462890625</ele>
    </trkpt>
    <trkpt lat="47.318306757619148" lon="13.208145990975318">
        <ele>1109.1600341796875</ele>
    </trkpt>
    <trkpt lat="47.318292727933915" lon="13.20814687965791">
        <ele>1109.1600341796875</ele>
    </trkpt>
    <trkpt lat="47.318282569221694" lon="13.208142056139057">
        <ele>1107.81005859375</ele>
    </trkpt>
    <trkpt lat="47.318271174538481" lon="13.208128886856874">
        <ele>1106.02001953125</ele>
    </trkpt>
    <trkpt lat="47.318264474388627" lon="13.208110517018168">
        <ele>1106.02001953125</ele>
    </trkpt>
    <trkpt lat="47.31826301025243" lon="13.208094484329674">
        <ele>1106.02001953125</ele>
    </trkpt>
    <trkpt lat="47.318264970386231" lon="13.208078551139717">
        <ele>1106.02001953125</ele>
    </trkpt>
    <trkpt lat="47.318272887273402" lon="13.20806042827305">
        <ele>1104.4599609375</ele>
    </trkpt>
    <trkpt lat="47.318288588702892" lon="13.208032193204108">
        <ele>1105.5400390625</ele>
    </trkpt>
    <trkpt lat="47.318449526576025" lon="13.207793339458235">
        <ele>1104.0899658203125</ele>
    </trkpt>
    <trkpt lat="47.318485246709024" lon="13.207736599267864">
        <ele>1103.31005859375</ele>
    </trkpt>
    <trkpt lat="47.318487859308632" lon="13.207718754934261">
        <ele>1103.31005859375</ele>
    </trkpt>
    <trkpt lat="47.318487098641498" lon="13.207706239471371">
        <ele>1103.31005859375</ele>
    </trkpt>
    <trkpt lat="47.318484471925167" lon="13.207694590326639">
        <ele>1103.31005859375</ele>
    </trkpt>
    <trkpt lat="47.318480024450373" lon="13.207684261404088">
        <ele>1103.31005859375</ele>
    </trkpt>
    <trkpt lat="47.318474051570917" lon="13.207675855070566">
        <ele>1101.280029296875</ele>
    </trkpt>
    <trkpt lat="47.318462507699216" lon="13.207667515976846">
        <ele>1100.3900146484375</ele>
    </trkpt>
    <trkpt lat="47.31844848105905" lon="13.207666267067308">
        <ele>1100.3900146484375</ele>
    </trkpt>
    <trkpt lat="47.318431168687439" lon="13.207674304393008">
        <ele>1100.3900146484375</ele>
    </trkpt>
    <trkpt lat="47.318203294211948" lon="13.207798825335518">
        <ele>1098.0699462890625</ele>
    </trkpt>
    <trkpt lat="47.318111103708183" lon="13.207843739221497">
        <ele>1097.4599609375</ele>
    </trkpt>
    <trkpt lat="47.318038620007265" lon="13.207876117770445">
        <ele>1097.760009765625</ele>
    </trkpt>
    <trkpt lat="47.318028386941059" lon="13.207875626394761">
        <ele>1096.6500244140625</ele>
    </trkpt>
    <trkpt lat="47.318015417776628" lon="13.207868202624164">
        <ele>1096.719970703125</ele>
    </trkpt>
    <trkpt lat="47.318005650869935" lon="13.207854500018657">
        <ele>1096.719970703125</ele>
    </trkpt>
    <trkpt lat="47.318001147967578" lon="13.207840472463007">
        <ele>1096.719970703125</ele>
    </trkpt>
    <trkpt lat="47.318000147650892" lon="13.207827187959531">
        <ele>1096.719970703125</ele>
    </trkpt>
    <trkpt lat="47.318001180802192" lon="13.207811702330622">
        <ele>1096.719970703125</ele>
    </trkpt>
    <trkpt lat="47.318008477974601" lon="13.207791363956066">
        <ele>1095.699951171875</ele>
    </trkpt>
    <trkpt lat="47.318084135443634" lon="13.207715376006481">
        <ele>1094.8499755859375</ele>
    </trkpt>
    <trkpt lat="47.318324955298948" lon="13.207485411601901">
        <ele>1094.0899658203125</ele>
    </trkpt>
    <trkpt lat="47.318402398693763" lon="13.207408847868619">
        <ele>1091.3900146484375</ele>
    </trkpt>
    <trkpt lat="47.318416474247854" lon="13.207383590708947">
        <ele>1091.3900146484375</ele>
    </trkpt>
    <trkpt lat="47.318420016950711" lon="13.207366286760719">
        <ele>1091.3900146484375</ele>
    </trkpt>
    <trkpt lat="47.318419928091345" lon="13.207352983894362">
        <ele>1091.3900146484375</ele>
    </trkpt>
    <trkpt lat="47.318417549343501" lon="13.20734005877679">
        <ele>1088.780029296875</ele>
    </trkpt>
    <trkpt lat="47.318407501763069" lon="13.207319107833413">
        <ele>1088.780029296875</ele>
    </trkpt>
    <trkpt lat="47.318399784156" lon="13.207311807383048">
        <ele>1088.780029296875</ele>
    </trkpt>
    <trkpt lat="47.318391699469402" lon="13.207308110986887">
        <ele>1088.780029296875</ele>
    </trkpt>
    <trkpt lat="47.318365304705843" lon="13.207311456967727">
        <ele>1088.0699462890625</ele>
    </trkpt>
    <trkpt lat="47.31829920043338" lon="13.207338043858304">
        <ele>1087.969970703125</ele>
    </trkpt>
    <trkpt lat="47.31811264435693" lon="13.207419077339129">
        <ele>1090.449951171875</ele>
    </trkpt>
    <trkpt lat="47.318052134786811" lon="13.207442093675848">
        <ele>1088.3699951171875</ele>
    </trkpt>
    <trkpt lat="47.318039485145007" lon="13.20743687954424">
        <ele>1088.3699951171875</ele>
    </trkpt>
    <trkpt lat="47.318032143943604" lon="13.207429619503088">
        <ele>1088.3699951171875</ele>
    </trkpt>
    <trkpt lat="47.318026340332409" lon="13.207420079726701">
        <ele>1088.3699951171875</ele>
    </trkpt>
    <trkpt lat="47.318022295669707" lon="13.207408509357057">
        <ele>1086.050048828125</ele>
    </trkpt>
    <trkpt lat="47.318020346050062" lon="13.207396034453195">
        <ele>1086.050048828125</ele>
    </trkpt>
    <trkpt lat="47.31802165527661" lon="13.207376591886398">
        <ele>1086.050048828125</ele>
    </trkpt>
    <trkpt lat="47.318028693550993" lon="13.20735805470526">
        <ele>1086.050048828125</ele>
    </trkpt>
    <trkpt lat="47.31804491124165" lon="13.207338352220733">
        <ele>1084.0999755859375</ele>
    </trkpt>
    <trkpt lat="47.318172910852347" lon="13.207197325587835">
        <ele>1082.52001953125</ele>
    </trkpt>
    <trkpt lat="47.318250330833905" lon="13.207131830011081">
        <ele>1081.0</ele>
    </trkpt>
    <trkpt lat="47.318349279842401" lon="13.207061500888562">
        <ele>1078.469970703125</ele>
    </trkpt>
    <trkpt lat="47.318469757867724" lon="13.206986338107278">
        <ele>1076.9599609375</ele>
    </trkpt>
    <trkpt lat="47.318719039855345" lon="13.206846203887016">
        <ele>1075.1099853515625</ele>
    </trkpt>
    <trkpt lat="47.31882582247276" lon="13.206804288665356">
        <ele>1072.6199951171875</ele>
    </trkpt>
    <trkpt lat="47.318921964643799" lon="13.206790610135632">
        <ele>1072.1700439453125</ele>
    </trkpt>
    <trkpt lat="47.319122569137484" lon="13.206805318458377">
        <ele>1070.8499755859375</ele>
    </trkpt>
    <trkpt lat="47.319214245948672" lon="13.206815618275936">
        <ele>1072.81005859375</ele>
    </trkpt>
    <trkpt lat="47.319283408274764" lon="13.206827733166049">
        <ele>1071.469970703125</ele>
    </trkpt>
    <trkpt lat="47.31931543684491" lon="13.20683662500215">
        <ele>1071.469970703125</ele>
    </trkpt>
    <trkpt lat="47.319393782246252" lon="13.206878409514015">
        <ele>1068.5799560546875</ele>
    </trkpt>
    <trkpt lat="47.319409241665888" lon="13.206883665884082">
        <ele>1070.8299560546875</ele>
    </trkpt>
    <trkpt lat="47.319421809774738" lon="13.206885426032791">
        <ele>1068.4300537109375</ele>
    </trkpt>
    <trkpt lat="47.319442375138898" lon="13.206884460008718">
        <ele>1068.4300537109375</ele>
    </trkpt>
    <trkpt lat="47.319450372394193" lon="13.206881733834289">
        <ele>1068.4300537109375</ele>
    </trkpt>
    <trkpt lat="47.319466953034372" lon="13.206869656265631">
        <ele>1068.1199951171875</ele>
    </trkpt>
    <trkpt lat="47.319477081406582" lon="13.206853984594183">
        <ele>1068.1199951171875</ele>
    </trkpt>
    <trkpt lat="47.31949523732419" lon="13.20679722714655">
        <ele>1065.8800048828125</ele>
    </trkpt>
    <trkpt lat="47.319512024469645" lon="13.20675853165576">
        <ele>1067.3900146484375</ele>
    </trkpt>
    <trkpt lat="47.31954744792057" lon="13.206712665855893">
        <ele>1065.97998046875</ele>
    </trkpt>
    <trkpt lat="47.319624965078617" lon="13.206636399089701">
        <ele>1063.469970703125</ele>
    </trkpt>
    <trkpt lat="47.319679734788878" lon="13.206598165977519">
        <ele>1062.469970703125</ele>
    </trkpt>
    <trkpt lat="47.319745301379875" lon="13.206564662874877">
        <ele>1063.219970703125</ele>
    </trkpt>
    <trkpt lat="47.319821664855411" lon="13.206535889778765">
        <ele>1061.989990234375</ele>
    </trkpt>
    <trkpt lat="47.320063819371988" lon="13.206467182915596">
        <ele>1060.4100341796875</ele>
    </trkpt>
    <trkpt lat="47.320075930877159" lon="13.206459765060725">
        <ele>1060.4100341796875</ele>
    </trkpt>
    <trkpt lat="47.320081655519409" lon="13.206452295343087">
        <ele>1060.4100341796875</ele>
    </trkpt>
    <trkpt lat="47.320089166264474" lon="13.20643534708908">
        <ele>1060.300048828125</ele>
    </trkpt>
    <trkpt lat="47.320091512046922" lon="13.206422193610685">
        <ele>1060.300048828125</ele>
    </trkpt>
    <trkpt lat="47.320090370776192" lon="13.206401586166544">
        <ele>1057.93994140625</ele>
    </trkpt>
    <trkpt lat="47.32008358981934" lon="13.206382935749637">
        <ele>1057.8800048828125</ele>
    </trkpt>
    <trkpt lat="47.320072570144795" lon="13.206370095597302">
        <ele>1057.8800048828125</ele>
    </trkpt>
    <trkpt lat="47.320057176716752" lon="13.206362404213275">
        <ele>1057.8800048828125</ele>
    </trkpt>
    <trkpt lat="47.320032250599837" lon="13.206353986463613">
        <ele>1057.5999755859375</ele>
    </trkpt>
    <trkpt lat="47.319999484262723" lon="13.20634629977434">
        <ele>1054.6700439453125</ele>
    </trkpt>
    <trkpt lat="47.319786515083806" lon="13.206302917773815">
        <ele>1053.0</ele>
    </trkpt>
    <trkpt lat="47.31969984237945" lon="13.206277765549846">
        <ele>1050.3599853515625</ele>
    </trkpt>
    <trkpt lat="47.319616598388777" lon="13.206245308763071">
        <ele>1050.1800537109375</ele>
    </trkpt>
    <trkpt lat="47.319536783105733" lon="13.206205547441661">
        <ele>1047.47998046875</ele>
    </trkpt>
    <trkpt lat="47.319460396522899" lon="13.20615848161094">
        <ele>1047.469970703125</ele>
    </trkpt>
    <trkpt lat="47.319387403478331" lon="13.206123729257873">
        <ele>1046.06005859375</ele>
    </trkpt>
    <trkpt lat="47.319317803983303" lon="13.206101290324922">
        <ele>1043.550048828125</ele>
    </trkpt>
    <trkpt lat="47.319287314127067" lon="13.206093256118166">
        <ele>1043.550048828125</ele>
    </trkpt>
    <trkpt lat="47.319251598045135" lon="13.206091164759266">
        <ele>1044.949951171875</ele>
    </trkpt>
    <trkpt lat="47.319217814299989" lon="13.206095860113814">
        <ele>1045.760009765625</ele>
    </trkpt>
    <trkpt lat="47.319124073164268" lon="13.206124481113875">
        <ele>1047.4200439453125</ele>
    </trkpt>
    <trkpt lat="47.319086020500855" lon="13.206131874984306">
        <ele>1049.3199462890625</ele>
    </trkpt>
    <trkpt lat="47.319054907623453" lon="13.206128456267752">
        <ele>1049.3199462890625</ele>
    </trkpt>
    <trkpt lat="47.31903460027241" lon="13.206119027309327">
        <ele>1051.3800048828125</ele>
    </trkpt>
    <trkpt lat="47.319025497748207" lon="13.20611246561109">
        <ele>1051.3800048828125</ele>
    </trkpt>
    <trkpt lat="47.319013412324772" lon="13.206097591101024">
        <ele>1051.3800048828125</ele>
    </trkpt>
    <trkpt lat="47.319004565331227" lon="13.206078946438252">
        <ele>1050.1700439453125</ele>
    </trkpt>
    <trkpt lat="47.318998145617726" lon="13.206053264893058">
        <ele>1049.6400146484375</ele>
    </trkpt>
    <trkpt lat="47.318996523601101" lon="13.206033076819944">
        <ele>1049.6400146484375</ele>
    </trkpt>
    <trkpt lat="47.318998549002202" lon="13.20600977203493">
        <ele>1046.1500244140625</ele>
    </trkpt>
    <trkpt lat="47.31900415171819" lon="13.20598856175982">
        <ele>1046.1500244140625</ele>
    </trkpt>
    <trkpt lat="47.31901301901933" lon="13.20597151619989">
        <ele>1045.8299560546875</ele>
    </trkpt>
    <trkpt lat="47.319025321042446" lon="13.205956295052598">
        <ele>1045.8299560546875</ele>
    </trkpt>
    <trkpt lat="47.319036120828088" lon="13.205946127983905">
        <ele>1042.550048828125</ele>
    </trkpt>
    <trkpt lat="47.319058518964525" lon="13.205931892388698">
        <ele>1041.780029296875</ele>
    </trkpt>
  </trkseg>
</trk>
<trk>
  <trkseg>
    <trkpt lat="47.319258960309639" lon="13.205898548650993">
        <ele>1039.9300537109375</ele>
    </trkpt>
    <trkpt lat="47.319473425082649" lon="13.205632881242257">
        <ele>1034.6600341796875</ele>
    </trkpt>
    <trkpt lat="47.319584688174125" lon="13.205495531132714">
        <ele>1032.050048828125</ele>
    </trkpt>
    <trkpt lat="47.319664238056589" lon="13.205397943255528">
        <ele>1028.0999755859375</ele>
    </trkpt>
    <trkpt lat="47.319735904137161" lon="13.205310598966649">
        <ele>1028.530029296875</ele>
    </trkpt>
    <trkpt lat="47.319799686439652" lon="13.20523349834664">
        <ele>1027.4300537109375</ele>
    </trkpt>
    <trkpt lat="47.319859531291478" lon="13.20516541864783">
        <ele>1026.239990234375</ele>
    </trkpt>
    <trkpt lat="47.31991543870889" lon="13.20510635991595">
        <ele>1024.8299560546875</ele>
    </trkpt>
    <trkpt lat="47.319967408706006" lon="13.205056322192704">
        <ele>1023.44000244140625</ele>
    </trkpt>
    <trkpt lat="47.320015441294736" lon="13.205015305515783">
        <ele>1022.02001953125</ele>
    </trkpt>
    <trkpt lat="47.320063242150091" lon="13.204977755266155">
        <ele>1023.280029296875</ele>
    </trkpt>
    <trkpt lat="47.320110811275576" lon="13.2049436714537">
        <ele>1021.58001708984375</ele>
    </trkpt>
    <trkpt lat="47.320158148674203" lon="13.204913054088186">
        <ele>1021.92999267578125</ele>
    </trkpt>
    <trkpt lat="47.320205254348842" lon="13.204885903179287">
        <ele>1020.54998779296875</ele>
    </trkpt>
    <trkpt lat="47.320248300039012" lon="13.204863614592135">
        <ele>1020.510009765625</ele>
    </trkpt>
    <trkpt lat="47.320287285747696" lon="13.204846188343705">
        <ele>1020.40997314453125</ele>
    </trkpt>
    <trkpt lat="47.320322211477169" lon="13.204833624448742">
        <ele>1020.42999267578125</ele>
    </trkpt>
    <trkpt lat="47.320353077229136" lon="13.20482592291977">
        <ele>1018.8499755859375</ele>
    </trkpt>
    <trkpt lat="47.320392552756829" lon="13.204824612063012">
        <ele>1018.8499755859375</ele>
    </trkpt>
    <trkpt lat="47.320440638060276" lon="13.204829691892062">
        <ele>1020.53997802734375</ele>
    </trkpt>
    <trkpt lat="47.320497333138476" lon="13.20484116242676">
        <ele>1019.42999267578125</ele>
    </trkpt>
    <trkpt lat="47.320562637989219" lon="13.204859023693135">
        <ele>1018.47998046875</ele>
    </trkpt>
    <trkpt lat="47.320624002485459" lon="13.204883306794706">
        <ele>1016.65997314453125</ele>
    </trkpt>
    <trkpt lat="47.32068142662326" lon="13.2049140117484">
        <ele>1017.1099853515625</ele>
    </trkpt>
    <trkpt lat="47.320734910397576" lon="13.204951138568282">
        <ele>1016.04998779296875</ele>
    </trkpt>
    <trkpt lat="47.32078445380229" lon="13.204994687265543">
        <ele>1016.3900146484375</ele>
    </trkpt>
    <trkpt lat="47.320828573903519" lon="13.205035996569206">
        <ele>1016.52001953125</ele>
    </trkpt>
    <trkpt lat="47.320867270703737" lon="13.205075066461021">
        <ele>1015.4000244140625</ele>
    </trkpt>
    <trkpt lat="47.320907506757628" lon="13.205120544675397">
        <ele>1015.80999755859375</ele>
    </trkpt>
    <trkpt lat="47.320970169698654" lon="13.205198374539346">
        <ele>1016.22998046875</ele>
    </trkpt>
  </trkseg>
</trk>
<trk>
  <trkseg>
    <trkpt lat="47.321056157162786" lon="13.205290440304342">
        <ele>1015.77001953125</ele>
    </trkpt>
    <trkpt lat="47.321263871524131" lon="13.205340290298343">
        <ele>1011.32000732421875</ele>
    </trkpt>
    <trkpt lat="47.321381219600603" lon="13.20537951162965">
        <ele>1010.27001953125</ele>
    </trkpt>
    <trkpt lat="47.321477439511064" lon="13.205424720912864">
        <ele>1007.78997802734375</ele>
    </trkpt>
    <trkpt lat="47.3215756106135" lon="13.205481457128016">
        <ele>1005.46002197265625</ele>
    </trkpt>
    <trkpt lat="47.321675732890753" lon="13.205549720345438">
        <ele>1005.530029296875</ele>
    </trkpt>
    <trkpt lat="47.321752012940607" lon="13.205601117477419">
        <ele>1005.79998779296875</ele>
    </trkpt>
    <trkpt lat="47.321804450786544" lon="13.205635648381913">
        <ele>1006.8900146484375</ele>
    </trkpt>
    <trkpt lat="47.321833046444389" lon="13.205653312962362">
        <ele>1006.8900146484375</ele>
    </trkpt>
    <trkpt lat="47.321837799922235" lon="13.205654111167682">
        <ele>1006.239990234375</ele>
    </trkpt>
    <trkpt lat="47.321842454860388" lon="13.205653985013921">
        <ele>1006.239990234375</ele>
    </trkpt>
    <trkpt lat="47.321847011258797" lon="13.205652934500829">
        <ele>1006.239990234375</ele>
    </trkpt>
    <trkpt lat="47.32185146911749" lon="13.205650959628182">
        <ele>1006.239990234375</ele>
    </trkpt>
    <trkpt lat="47.321855828436398" lon="13.205648060395752">
        <ele>1006.239990234375</ele>
    </trkpt>
    <trkpt lat="47.321859837631173" lon="13.205644167207971">
        <ele>1006.239990234375</ele>
    </trkpt>
    <trkpt lat="47.321863496701702" lon="13.20563928006468">
        <ele>1006.239990234375</ele>
    </trkpt>
    <trkpt lat="47.321866805647865" lon="13.205633398965782">
        <ele>1006.239990234375</ele>
    </trkpt>
    <trkpt lat="47.321869764469525" lon="13.205626523911199">
        <ele>1006.239990234375</ele>
    </trkpt>
    <trkpt lat="47.321872050236962" lon="13.205620342697143">
        <ele>1006.239990234375</ele>
    </trkpt>
    <trkpt lat="47.321873662950289" lon="13.205614855323926">
        <ele>1004.219970703125</ele>
    </trkpt>
    <trkpt lat="47.321874602609626" lon="13.205610061791827">
        <ele>1004.219970703125</ele>
    </trkpt>
    <trkpt lat="47.321874869215037" lon="13.205605962101062">
        <ele>1004.219970703125</ele>
    </trkpt>
    <trkpt lat="47.321874903682563" lon="13.20560182865295">
        <ele>1004.219970703125</ele>
    </trkpt>
    <trkpt lat="47.32187470601216" lon="13.205597661447547">
        <ele>1004.219970703125</ele>
    </trkpt>
    <trkpt lat="47.321874276203864" lon="13.2055934604849">
        <ele>1004.219970703125</ele>
    </trkpt>
    <trkpt lat="47.321873614257633" lon="13.205589225765067">
        <ele>1004.219970703125</ele>
    </trkpt>
    <trkpt lat="47.32186886395386" lon="13.205576788169301">
        <ele>1004.219970703125</ele>
    </trkpt>
    <trkpt lat="47.321860025289901" lon="13.205556147702689">
        <ele>1004.219970703125</ele>
    </trkpt>
    <trkpt lat="47.321847098261287" lon="13.205527304374119">
        <ele>1002.09002685546875</ele>
    </trkpt>
    <trkpt lat="47.321830082861759" lon="13.205490258196265">
        <ele>1002.8599853515625</ele>
    </trkpt>
    <trkpt lat="47.321806920612374" lon="13.205445058269657">
        <ele>1000.75</ele>
    </trkpt>
    <trkpt lat="47.321777611503336" lon="13.205391704620698">
        <ele>999.5999755859375</ele>
    </trkpt>
    <trkpt lat="47.321742155523275" lon="13.205330197281501">
        <ele>998.97998046875</ele>
    </trkpt>
    <trkpt lat="47.321700552658953" lon="13.205260536289828">
        <ele>998.489990234375</ele>
    </trkpt>
    <trkpt lat="47.32166354043369" lon="13.205199134800827">
        <ele>997.08001708984375</ele>
    </trkpt>
    <trkpt lat="47.321631118860836" lon="13.205145992781231">
        <ele>996.8599853515625</ele>
    </trkpt>
    <trkpt lat="47.321603287951902" lon="13.20510111020206">
        <ele>997.8900146484375</ele>
    </trkpt>
    <trkpt lat="47.321580047716687" lon="13.205064487038628">
        <ele>996.34002685546875</ele>
    </trkpt>
    <trkpt lat="47.321556820281806" lon="13.205031087643532">
        <ele>997.47998046875</ele>
    </trkpt>
    <trkpt lat="47.321533605650117" lon="13.205000912012482">
        <ele>995.8499755859375</ele>
    </trkpt>
    <trkpt lat="47.321475023785197" lon="13.204926608123111">
        <ele>996.42999267578125</ele>
    </trkpt>
  </trkseg>
</trk>
<trk>
  <trkseg>
    <trkpt lat="47.321483647484868" lon="13.204813157829374">
        <ele>991.719970703125</ele>
    </trkpt>
    <trkpt lat="47.321411785424402" lon="13.204733120068829">
        <ele>991.78997802734375</ele>
    </trkpt>
    <trkpt lat="47.32134088992558" lon="13.20466152388234">
        <ele>992.1099853515625</ele>
    </trkpt>
    <trkpt lat="47.321281506666871" lon="13.204615230556133">
        <ele>988.6400146484375</ele>
    </trkpt>
    <trkpt lat="47.321246062922526" lon="13.20458295082042">
        <ele>989.15997314453125</ele>
    </trkpt>
    <trkpt lat="47.321222107239237" lon="13.204554864481102">
        <ele>987.71002197265625</ele>
    </trkpt>
    <trkpt lat="47.321201025586028" lon="13.204529585609622">
        <ele>988.8900146484375</ele>
    </trkpt>
    <trkpt lat="47.321164833151009" lon="13.204469142243935">
        <ele>987.46002197265625</ele>
    </trkpt>
    <trkpt lat="47.321143839894276" lon="13.204416629735595">
        <ele>988.54998779296875</ele>
    </trkpt>
    <trkpt lat="47.32112300729807" lon="13.204356090736971">
        <ele>986.1500244140625</ele>
    </trkpt>
    <trkpt lat="47.321100352707184" lon="13.204297522021237">
        <ele>989.8699951171875</ele>
    </trkpt>
    <trkpt lat="47.321075876124617" lon="13.204240923591907">
        <ele>986.8800048828125</ele>
    </trkpt>
    <trkpt lat="47.321049577553275" lon="13.204186295452077">
        <ele>987.27001953125</ele>
    </trkpt>
    <trkpt lat="47.321021456995922" lon="13.204133637604425">
        <ele>986.780029296875</ele>
    </trkpt>
    <trkpt lat="47.32099372899512" lon="13.2040834623911">
        <ele>983.95001220703125</ele>
    </trkpt>
    <trkpt lat="47.320966393554045" lon="13.204035769807067">
        <ele>986.260009765625</ele>
    </trkpt>
    <trkpt lat="47.320939450675873" lon="13.203990559847437">
        <ele>983.3499755859375</ele>
    </trkpt>
    <trkpt lat="47.320912900363531" lon="13.203947832507406">
        <ele>982.53997802734375</ele>
    </trkpt>
    <trkpt lat="47.320880172192204" lon="13.203898816220605">
        <ele>981.1400146484375</ele>
    </trkpt>
    <trkpt lat="47.320841266153785" lon="13.203843511015828">
        <ele>982.90997314453125</ele>
    </trkpt>
    <trkpt lat="47.320796182239064" lon="13.203781916926252">
        <ele>981.59002685546875</ele>
    </trkpt>
    <trkpt lat="47.320744920437775" lon="13.203714033989455">
        <ele>979.54998779296875</ele>
    </trkpt>
    <trkpt lat="47.320696200166878" lon="13.203653404417672">
        <ele>977.5</ele>
    </trkpt>
    <trkpt lat="47.320650021437892" lon="13.203600028182162">
        <ele>975.27001953125</ele>
    </trkpt>
    <trkpt lat="47.320606384260991" lon="13.203553905256276">
        <ele>972.80999755859375</ele>
    </trkpt>
    <trkpt lat="47.320565288644978" lon="13.203515035615457">
        <ele>973.97998046875</ele>
    </trkpt>
    <trkpt lat="47.320521990789352" lon="13.203481520696153">
        <ele>970.75</ele>
    </trkpt>
    <trkpt lat="47.320476490698795" lon="13.203453360489396">
        <ele>971.1300048828125</ele>
    </trkpt>
    <trkpt lat="47.320428788377164" lon="13.20343055498488">
        <ele>968.65997314453125</ele>
    </trkpt>
    <trkpt lat="47.320378883827566" lon="13.203413104170965">
        <ele>969.5</ele>
    </trkpt>
    <trkpt lat="47.32033753126106" lon="13.203396531403067">
        <ele>970.1300048828125</ele>
    </trkpt>
    <trkpt lat="47.320304730678153" lon="13.203380836671142">
        <ele>971.030029296875</ele>
    </trkpt>
    <trkpt lat="47.32028048207934" lon="13.203366019965994">
        <ele>968.6400146484375</ele>
    </trkpt>
    <trkpt lat="47.320264785465071" lon="13.203352081279265">
        <ele>968.6400146484375</ele>
    </trkpt>
    <trkpt lat="47.320244908828762" lon="13.203331855517343">
        <ele>970.34002685546875</ele>
    </trkpt>
    <trkpt lat="47.320220852167026" lon="13.203305342692065">
        <ele>967.91998291015625</ele>
    </trkpt>
    <trkpt lat="47.320184511295011" lon="13.203262771087669">
        <ele>970.03997802734375</ele>
    </trkpt>
  </trkseg>
</trk>
<trk>
  <trkseg>
    <trkpt lat="47.319210176233732" lon="13.202071881104125">
        <ele>965.0999755859375</ele>
    </trkpt>
    <trkpt lat="47.319286733049609" lon="13.201983572334861">
        <ele>962.8599853515625</ele>
    </trkpt>
    <trkpt lat="47.319365743754851" lon="13.201907457413045">
        <ele>959.55999755859375</ele>
    </trkpt>
    <trkpt lat="47.319446478457948" lon="13.201881539824806">
        <ele>958.27001953125</ele>
    </trkpt>
    <trkpt lat="47.319526805444639" lon="13.201862969824775">
        <ele>955.82000732421875</ele>
    </trkpt>
    <trkpt lat="47.319584675880712" lon="13.20186527213901">
        <ele>953.28997802734375</ele>
    </trkpt>
    <trkpt lat="47.319636735134317" lon="13.201882282475472">
        <ele>952.16998291015625</ele>
    </trkpt>
    <trkpt lat="47.319688792951354" lon="13.201898068406011">
        <ele>951.1199951171875</ele>
    </trkpt>
    <trkpt lat="47.319737112545326" lon="13.201921210495515">
        <ele>951.55999755859375</ele>
    </trkpt>
    <trkpt lat="47.319775461966039" lon="13.201930350043172">
        <ele>950.239990234375</ele>
    </trkpt>
    <trkpt lat="47.319796422436049" lon="13.201920252660621">
        <ele>950.239990234375</ele>
    </trkpt>
    <trkpt lat="47.319797597428405" lon="13.201919619265119">
        <ele>950.239990234375</ele>
    </trkpt>
    <trkpt lat="47.319810034275747" lon="13.201912183595692">
        <ele>947.6099853515625</ele>
    </trkpt>
    <trkpt lat="47.319812497716264" lon="13.20191037636906">
        <ele>947.6099853515625</ele>
    </trkpt>
    <trkpt lat="47.319814744793689" lon="13.201908037534034">
        <ele>947.6099853515625</ele>
    </trkpt>
    <trkpt lat="47.319818658018825" lon="13.201903263582942">
        <ele>947.6099853515625</ele>
    </trkpt>
    <trkpt lat="47.31982054416396" lon="13.201900599324931">
        <ele>947.6099853515625</ele>
    </trkpt>
    <trkpt lat="47.319823861406093" lon="13.201895178536862">
        <ele>947.6099853515625</ele>
    </trkpt>
    <trkpt lat="47.319825506733466" lon="13.201892047451604">
        <ele>947.6099853515625</ele>
    </trkpt>
    <trkpt lat="47.31982822799246" lon="13.201885979826629">
        <ele>947.6099853515625</ele>
    </trkpt>
    <trkpt lat="47.319829519812117" lon="13.20188257836972">
        <ele>947.6099853515625</ele>
    </trkpt>
    <trkpt lat="47.319831645087767" lon="13.201875863908004">
        <ele>947.6099853515625</ele>
    </trkpt>
    <trkpt lat="47.319832540327894" lon="13.201872429685229">
        <ele>947.6099853515625</ele>
    </trkpt>
    <trkpt lat="47.3198340696201" lon="13.201865068387036">
        <ele>947.6099853515625</ele>
    </trkpt>
    <trkpt lat="47.319834505644494" lon="13.201862524279331">
        <ele>947.6099853515625</ele>
    </trkpt>
    <trkpt lat="47.319835445195309" lon="13.201855611909719">
        <ele>947.6099853515625</ele>
    </trkpt>
    <trkpt lat="47.319835737436648" lon="13.201852525489048">
        <ele>946.219970703125</ele>
    </trkpt>
    <trkpt lat="47.319836087246109" lon="13.201846062048356">
        <ele>946.219970703125</ele>
    </trkpt>
    <trkpt lat="47.319836113077457" lon="13.201842413924728">
        <ele>946.219970703125</ele>
    </trkpt>
    <trkpt lat="47.319835873145664" lon="13.201836399413287">
        <ele>946.219970703125</ele>
    </trkpt>
    <trkpt lat="47.319835486739237" lon="13.20183228382175">
        <ele>946.219970703125</ele>
    </trkpt>
    <trkpt lat="47.319834657066274" lon="13.201826718239879">
        <ele>946.219970703125</ele>
    </trkpt>
    <trkpt lat="47.319834173686154" lon="13.201824117326922">
        <ele>946.219970703125</ele>
    </trkpt>
    <trkpt lat="47.319832994808429" lon="13.201818846682011">
        <ele>946.219970703125</ele>
    </trkpt>
    <trkpt lat="47.319832301020071" lon="13.20181622390265">
        <ele>946.219970703125</ele>
    </trkpt>
    <trkpt lat="47.319830772937692" lon="13.201811248194831">
        <ele>946.219970703125</ele>
    </trkpt>
    <trkpt lat="47.319829873134161" lon="13.201808697446234">
        <ele>946.219970703125</ele>
    </trkpt>
    <trkpt lat="47.319827995847135" lon="13.201804016675617">
        <ele>946.219970703125</ele>
    </trkpt>
    <trkpt lat="47.319826916139995" lon="13.201801630242846">
        <ele>946.219970703125</ele>
    </trkpt>
    <trkpt lat="47.319824689648414" lon="13.201797244409532">
        <ele>946.219970703125</ele>
    </trkpt>
    <trkpt lat="47.319822041726269" lon="13.201793060536442">
        <ele>946.219970703125</ele>
    </trkpt>
    <trkpt lat="47.31979501585792" lon="13.201757456902483">
        <ele>945.79998779296875</ele>
    </trkpt>
    <trkpt lat="47.319773217584277" lon="13.201735683171547">
        <ele>945.79998779296875</ele>
    </trkpt>
    <trkpt lat="47.319773090460707" lon="13.201735540067862">
        <ele>945.79998779296875</ele>
    </trkpt>
    <trkpt lat="47.319724024925137" lon="13.201696384689845">
        <ele>945.20001220703125</ele>
    </trkpt>
    <trkpt lat="47.31963125413526" lon="13.201632359711512">
        <ele>946.03997802734375</ele>
    </trkpt>
    <trkpt lat="47.319565656838535" lon="13.201581634144555">
        <ele>944.34002685546875</ele>
    </trkpt>
    <trkpt lat="47.319491272946301" lon="13.201517099748669">
        <ele>943.29998779296875</ele>
    </trkpt>
    <trkpt lat="47.319439012527162" lon="13.201463340619899">
        <ele>944.55999755859375</ele>
    </trkpt>
    <trkpt lat="47.319411949401292" lon="13.201426640488258">
        <ele>942.32000732421875</ele>
    </trkpt>
    <trkpt lat="47.319396769375047" lon="13.201391955813635">
        <ele>943.3900146484375</ele>
    </trkpt>
    <trkpt lat="47.319392070875722" lon="13.201358633442474">
        <ele>941.34002685546875</ele>
    </trkpt>
    <trkpt lat="47.319396635535831" lon="13.201313797676814">
        <ele>938.8699951171875</ele>
    </trkpt>
    <trkpt lat="47.319406263516221" lon="13.201287206216403">
        <ele>937.84002685546875</ele>
    </trkpt>
    <trkpt lat="47.319419752181098" lon="13.201275923641004">
        <ele>937.84002685546875</ele>
    </trkpt>
    <trkpt lat="47.319446060956153" lon="13.201270738159835">
        <ele>937.84002685546875</ele>
    </trkpt>
    <trkpt lat="47.319484827092246" lon="13.201273845714436">
        <ele>936.55999755859375</ele>
    </trkpt>
    <trkpt lat="47.319541862364439" lon="13.201289753887666">
        <ele>933.8699951171875</ele>
    </trkpt>
    <trkpt lat="47.319644075842447" lon="13.201342851183629">
        <ele>934.1199951171875</ele>
    </trkpt>
    <trkpt lat="47.31972858883347" lon="13.201377596481151">
        <ele>933.77001953125</ele>
    </trkpt>
    <trkpt lat="47.319804571245037" lon="13.201391688060053">
        <ele>936.969970703125</ele>
    </trkpt>
    <trkpt lat="47.319856173791507" lon="13.201387361874424">
        <ele>933.44000244140625</ele>
    </trkpt>
    <trkpt lat="47.319874636773399" lon="13.201377148307486">
        <ele>933.44000244140625</ele>
    </trkpt>
    <trkpt lat="47.319886398413708" lon="13.201361992641901">
        <ele>933.44000244140625</ele>
    </trkpt>
    <trkpt lat="47.319891655443826" lon="13.201342074852102">
        <ele>933.44000244140625</ele>
    </trkpt>
    <trkpt lat="47.319890515982436" lon="13.20131609846011">
        <ele>931.44000244140625</ele>
    </trkpt>
    <trkpt lat="47.319885144703335" lon="13.201295375922529">
        <ele>931.44000244140625</ele>
    </trkpt>
    <trkpt lat="47.319875323397852" lon="13.201275382355966">
        <ele>931.44000244140625</ele>
    </trkpt>
    <trkpt lat="47.319829345777109" lon="13.201215266492461">
        <ele>929.1400146484375</ele>
    </trkpt>
    <trkpt lat="47.319793113385813" lon="13.201179986969384">
        <ele>926.91998291015625</ele>
    </trkpt>
    <trkpt lat="47.319747270367024" lon="13.201142451680855">
        <ele>927.59002685546875</ele>
    </trkpt>
    <trkpt lat="47.319596685207941" lon="13.201008699351158">
        <ele>923.5</ele>
    </trkpt>
    <trkpt lat="47.319487051963421" lon="13.200920548015947">
        <ele>922.08001708984375</ele>
    </trkpt>
    <trkpt lat="47.319416120658822" lon="13.200870197122939">
        <ele>923.1199951171875</ele>
    </trkpt>
    <trkpt lat="47.319366324734929" lon="13.200850871854676">
        <ele>920.96002197265625</ele>
    </trkpt>
    <trkpt lat="47.319293315856939" lon="13.200835571563333">
        <ele>920.28997802734375</ele>
    </trkpt>
    <trkpt lat="47.319191085517289" lon="13.200831839649432">
        <ele>919.40997314453125</ele>
    </trkpt>
    <trkpt lat="47.319137152030947" lon="13.200840097973252">
        <ele>917.78997802734375</ele>
    </trkpt>
    <trkpt lat="47.319091258580023" lon="13.20085540607794">
        <ele>915.1400146484375</ele>
    </trkpt>
    <trkpt lat="47.319008018211271" lon="13.2008843310196">
        <ele>913.16998291015625</ele>
    </trkpt>
    <trkpt lat="47.318983937958556" lon="13.200885505981425">
        <ele>912.219970703125</ele>
    </trkpt>
    <trkpt lat="47.318968714443216" lon="13.20088060924655">
        <ele>912.219970703125</ele>
    </trkpt>
    <trkpt lat="47.31895957119503" lon="13.200874705193652">
        <ele>912.219970703125</ele>
    </trkpt>
    <trkpt lat="47.318951232143881" lon="13.200860209448706">
        <ele>908.25</ele>
    </trkpt>
    <trkpt lat="47.318945564529123" lon="13.200846289518042">
        <ele>908.25</ele>
    </trkpt>
    <trkpt lat="47.318944824205388" lon="13.200830826783578">
        <ele>908.25</ele>
    </trkpt>
    <trkpt lat="47.318951184955047" lon="13.200800173469377">
        <ele>908.25</ele>
    </trkpt>
    <trkpt lat="47.319086910055873" lon="13.200337884958055">
        <ele>901.1199951171875</ele>
    </trkpt>
  </trkseg>
</trk>
</gpx>
