<?xml version="1.0" encoding="UTF-8"?>
<gpx xmlns="http://www.topografix.com/GPX/1/1" xmlns:xsi="http://www.w3.org/2001/XMLSchema-instance" xsi:schemaLocation="http://www.topografix.com/GPX/1/1 http://www.topografix.com/GPX/1/1/gpx.xsd" version="1.1" creator="gpx.py -- https://github.com/tkrajina/gpxpy">
  <wpt lat="47.22493" lon="11.52832">
    <ele>2033.79</ele>
    <name>curve_1</name>
  </wpt>
  <wpt lat="47.22498" lon="11.52833">
    <ele>2033.23</ele>
    <name>curve_2</name>
  </wpt>
  <wpt lat="47.22503" lon="11.52831">
    <ele>2032.07</ele>
    <name>curve_3</name>
  </wpt>
  <wpt lat="47.22505" lon="11.52829">
    <ele>2031.37</ele>
    <name>curve_4</name>
  </wpt>
  <wpt lat="47.22507" lon="11.52822">
    <ele>2029.8</ele>
    <name>curve_5</name>
  </wpt>
  <wpt lat="47.22506" lon="11.52817">
    <ele>2029.13</ele>
    <name>curve_6</name>
  </wpt>
  <wpt lat="47.22482" lon="11.52776">
    <ele>2026.3</ele>
    <name>curve_1</name>
  </wpt>
  <wpt lat="47.2248" lon="11.5277">
    <ele>2025.57</ele>
    <name>curve_2</name>
  </wpt>
  <wpt lat="47.2248" lon="11.52766">
    <ele>2024.95</ele>
    <name>curve_3</name>
  </wpt>
  <wpt lat="47.22481" lon="11.52765">
    <ele>2024.73</ele>
    <name>curve_4</name>
  </wpt>
  <wpt lat="47.22483" lon="11.52764">
    <ele>2024.43</ele>
    <name>curve_5</name>
  </wpt>
  <wpt lat="47.22485" lon="11.52765">
    <ele>2024.43</ele>
    <name>curve_6</name>
  </wpt>
  <wpt lat="47.23075" lon="11.53293">
    <ele>1940.29</ele>
    <name>curve_1</name>
  </wpt>
  <wpt lat="47.23086" lon="11.53307">
    <ele>1938.52</ele>
    <name>curve_2</name>
  </wpt>
  <wpt lat="47.23089" lon="11.53283">
    <ele>1933.04</ele>
    <name>curve_3</name>
  </wpt>
  <wpt lat="47.23157" lon="11.53371">
    <ele>1917.58</ele>
    <name>curve_1</name>
  </wpt>
  <wpt lat="47.23167" lon="11.53392">
    <ele>1914.45</ele>
    <name>curve_2</name>
  </wpt>
  <wpt lat="47.2318" lon="11.53397">
    <ele>1909.21</ele>
    <name>curve_3</name>
  </wpt>
  <wpt lat="47.2318" lon="11.53268">
    <ele>1896.96</ele>
    <name>curve_1</name>
  </wpt>
  <wpt lat="47.2318" lon="11.53263">
    <ele>1896.3</ele>
    <name>curve_2</name>
  </wpt>
  <wpt lat="47.23182" lon="11.53259">
    <ele>1894.73</ele>
    <name>curve_3</name>
  </wpt>
  <wpt lat="47.23184" lon="11.53258">
    <ele>1893.53</ele>
    <name>curve_4</name>
  </wpt>
  <wpt lat="47.23188" lon="11.53259">
    <ele>1891.46</ele>
    <name>curve_5</name>
  </wpt>
  <wpt lat="47.23191" lon="11.53261">
    <ele>1890.04</ele>
    <name>curve_6</name>
  </wpt>
  <wpt lat="47.2367" lon="11.5322">
    <ele>1732.83</ele>
    <name>curve_1</name>
  </wpt>
  <wpt lat="47.23667" lon="11.532">
    <ele>1731.01</ele>
    <name>curve_2</name>
  </wpt>
  <wpt lat="47.23668" lon="11.53195">
    <ele>1729.86</ele>
    <name>curve_3</name>
  </wpt>
  <wpt lat="47.23671" lon="11.53193">
    <ele>1728.34</ele>
    <name>curve_4</name>
  </wpt>
  <wpt lat="47.23675" lon="11.53194">
    <ele>1726.76</ele>
    <name>curve_5</name>
  </wpt>
  <wpt lat="47.24069" lon="11.54059">
    <ele>1603.87</ele>
    <name>curve_1</name>
  </wpt>
  <wpt lat="47.2406" lon="11.54095">
    <ele>1601.56</ele>
    <name>curve_2</name>
  </wpt>
  <wpt lat="47.24106" lon="11.54012">
    <ele>1592.64</ele>
    <name>curve_1</name>
  </wpt>
  <wpt lat="47.24107" lon="11.54008">
    <ele>1591.9</ele>
    <name>curve_2</name>
  </wpt>
  <wpt lat="47.2412" lon="11.54009">
    <ele>1585.47</ele>
    <name>curve_3</name>
  </wpt>
  <wpt lat="47.24129" lon="11.54023">
    <ele>1581.01</ele>
    <name>curve_4</name>
  </wpt>
  <wpt lat="47.24143" lon="11.54089">
    <ele>1567.76</ele>
    <name>curve_1</name>
  </wpt>
  <wpt lat="47.24149" lon="11.5408">
    <ele>1565.29</ele>
    <name>curve_2</name>
  </wpt>
  <wpt lat="47.24157" lon="11.54097">
    <ele>1560.74</ele>
    <name>curve_3</name>
  </wpt>
</gpx>