<?xml version="1.0" encoding="UTF-8"?>
<gpx xmlns="http://www.topografix.com/GPX/1/1" xmlns:xsi="http://www.w3.org/2001/XMLSchema-instance" xsi:schemaLocation="http://www.topografix.com/GPX/1/1 http://www.topografix.com/GPX/1/1/gpx.xsd" version="1.1" creator="gpx.py -- https://github.com/tkrajina/gpxpy">
  <wpt lat="47.22457" lon="11.52821">
    <ele>2037.41</ele>
    <name>straight_1</name>
  </wpt>
  <wpt lat="47.22463" lon="11.52818">
    <ele>2035.86</ele>
    <name>straight_2</name>
  </wpt>
  <wpt lat="47.22469" lon="11.52817">
    <ele>2034.73</ele>
    <name>straight_3</name>
  </wpt>
  <wpt lat="47.22474" lon="11.52819">
    <ele>2034.32</ele>
    <name>straight_4</name>
  </wpt>
  <wpt lat="47.22493" lon="11.52832">
    <ele>2033.79</ele>
    <name>straight_5</name>
  </wpt>
  <wpt lat="47.22506" lon="11.52817">
    <ele>2029.13</ele>
    <name>straight_1</name>
  </wpt>
  <wpt lat="47.22482" lon="11.52776">
    <ele>2026.3</ele>
    <name>straight_2</name>
  </wpt>
  <wpt lat="47.22485" lon="11.52765">
    <ele>2024.43</ele>
    <name>straight_1</name>
  </wpt>
  <wpt lat="47.22501" lon="11.52785">
    <ele>2025.58</ele>
    <name>straight_2</name>
  </wpt>
  <wpt lat="47.22519" lon="11.528">
    <ele>2025.17</ele>
    <name>straight_3</name>
  </wpt>
  <wpt lat="47.22534" lon="11.52814">
    <ele>2024.75</ele>
    <name>straight_4</name>
  </wpt>
  <wpt lat="47.22541" lon="11.52817">
    <ele>2024.14</ele>
    <name>straight_5</name>
  </wpt>
  <wpt lat="47.22553" lon="11.52817">
    <ele>2022.46</ele>
    <name>straight_6</name>
  </wpt>
  <wpt lat="47.22558" lon="11.52819">
    <ele>2022.01</ele>
    <name>straight_7</name>
  </wpt>
  <wpt lat="47.22566" lon="11.52825">
    <ele>2021.76</ele>
    <name>straight_8</name>
  </wpt>
  <wpt lat="47.22576" lon="11.52833">
    <ele>2021.91</ele>
    <name>straight_9</name>
  </wpt>
  <wpt lat="47.22584" lon="11.52839">
    <ele>2022.26</ele>
    <name>straight_10</name>
  </wpt>
  <wpt lat="47.22601" lon="11.5284">
    <ele>2020.58</ele>
    <name>straight_11</name>
  </wpt>
  <wpt lat="47.22607" lon="11.52841">
    <ele>2020.23</ele>
    <name>straight_12</name>
  </wpt>
  <wpt lat="47.22617" lon="11.52846">
    <ele>2020.49</ele>
    <name>straight_13</name>
  </wpt>
  <wpt lat="47.2264" lon="11.52857">
    <ele>2020.19</ele>
    <name>straight_14</name>
  </wpt>
  <wpt lat="47.22645" lon="11.5286">
    <ele>2019.99</ele>
    <name>straight_15</name>
  </wpt>
  <wpt lat="47.2265" lon="11.52867">
    <ele>2020.39</ele>
    <name>straight_16</name>
  </wpt>
  <wpt lat="47.22657" lon="11.52884">
    <ele>2021.76</ele>
    <name>straight_17</name>
  </wpt>
  <wpt lat="47.22661" lon="11.5289">
    <ele>2021.75</ele>
    <name>straight_18</name>
  </wpt>
  <wpt lat="47.22681" lon="11.52919">
    <ele>2021.64</ele>
    <name>straight_19</name>
  </wpt>
  <wpt lat="47.22688" lon="11.52924">
    <ele>2020.83</ele>
    <name>straight_20</name>
  </wpt>
  <wpt lat="47.22704" lon="11.52931">
    <ele>2018.11</ele>
    <name>straight_21</name>
  </wpt>
  <wpt lat="47.2271" lon="11.52936">
    <ele>2017.5</ele>
    <name>straight_22</name>
  </wpt>
  <wpt lat="47.22717" lon="11.52944">
    <ele>2017.09</ele>
    <name>straight_23</name>
  </wpt>
  <wpt lat="47.22742" lon="11.52985">
    <ele>2015.76</ele>
    <name>straight_24</name>
  </wpt>
  <wpt lat="47.22748" lon="11.52998">
    <ele>2015.47</ele>
    <name>straight_25</name>
  </wpt>
  <wpt lat="47.22753" lon="11.5302">
    <ele>2017.01</ele>
    <name>straight_26</name>
  </wpt>
  <wpt lat="47.22755" lon="11.53025">
    <ele>2017.03</ele>
    <name>straight_27</name>
  </wpt>
  <wpt lat="47.22758" lon="11.53029">
    <ele>2016.49</ele>
    <name>straight_28</name>
  </wpt>
  <wpt lat="47.22778" lon="11.53049">
    <ele>2012.02</ele>
    <name>straight_29</name>
  </wpt>
  <wpt lat="47.22798" lon="11.53076">
    <ele>2009.39</ele>
    <name>straight_30</name>
  </wpt>
  <wpt lat="47.22817" lon="11.53097">
    <ele>2005.58</ele>
    <name>straight_31</name>
  </wpt>
  <wpt lat="47.22844" lon="11.53129">
    <ele>1999.57</ele>
    <name>straight_32</name>
  </wpt>
  <wpt lat="47.22851" lon="11.53136">
    <ele>1998.05</ele>
    <name>straight_33</name>
  </wpt>
  <wpt lat="47.22867" lon="11.53151">
    <ele>1995.25</ele>
    <name>straight_34</name>
  </wpt>
  <wpt lat="47.22894" lon="11.53172">
    <ele>1991.33</ele>
    <name>straight_35</name>
  </wpt>
  <wpt lat="47.22921" lon="11.53198">
    <ele>1987.28</ele>
    <name>straight_36</name>
  </wpt>
  <wpt lat="47.22945" lon="11.53223">
    <ele>1982.15</ele>
    <name>straight_37</name>
  </wpt>
  <wpt lat="47.22951" lon="11.53225">
    <ele>1980.09</ele>
    <name>straight_38</name>
  </wpt>
  <wpt lat="47.22956" lon="11.53219">
    <ele>1977.18</ele>
    <name>straight_39</name>
  </wpt>
  <wpt lat="47.22916" lon="11.53124">
    <ele>1972.52</ele>
    <name>straight_40</name>
  </wpt>
  <wpt lat="47.22914" lon="11.53103">
    <ele>1967.62</ele>
    <name>straight_41</name>
  </wpt>
  <wpt lat="47.22926" lon="11.53115">
    <ele>1966.79</ele>
    <name>straight_42</name>
  </wpt>
  <wpt lat="47.22951" lon="11.5313">
    <ele>1962.89</ele>
    <name>straight_43</name>
  </wpt>
  <wpt lat="47.2298" lon="11.53165">
    <ele>1958.82</ele>
    <name>straight_44</name>
  </wpt>
  <wpt lat="47.23004" lon="11.53193">
    <ele>1953.41</ele>
    <name>straight_45</name>
  </wpt>
  <wpt lat="47.23011" lon="11.5321">
    <ele>1953.15</ele>
    <name>straight_46</name>
  </wpt>
  <wpt lat="47.23018" lon="11.53227">
    <ele>1952.85</ele>
    <name>straight_47</name>
  </wpt>
  <wpt lat="47.23051" lon="11.53267">
    <ele>1945.12</ele>
    <name>straight_48</name>
  </wpt>
  <wpt lat="47.23075" lon="11.53293">
    <ele>1940.29</ele>
    <name>straight_49</name>
  </wpt>
  <wpt lat="47.23089" lon="11.53283">
    <ele>1933.04</ele>
    <name>straight_1</name>
  </wpt>
  <wpt lat="47.2307" lon="11.53241">
    <ele>1932.72</ele>
    <name>straight_2</name>
  </wpt>
  <wpt lat="47.2308" lon="11.5324">
    <ele>1928.6</ele>
    <name>straight_3</name>
  </wpt>
  <wpt lat="47.23089" lon="11.53251">
    <ele>1927.09</ele>
    <name>straight_4</name>
  </wpt>
  <wpt lat="47.23104" lon="11.53292">
    <ele>1929.45</ele>
    <name>straight_5</name>
  </wpt>
  <wpt lat="47.23148" lon="11.53341">
    <ele>1919.47</ele>
    <name>straight_6</name>
  </wpt>
  <wpt lat="47.23157" lon="11.53371">
    <ele>1917.58</ele>
    <name>straight_7</name>
  </wpt>
  <wpt lat="47.2318" lon="11.53397">
    <ele>1909.21</ele>
    <name>straight_1</name>
  </wpt>
  <wpt lat="47.2318" lon="11.53383">
    <ele>1908.53</ele>
    <name>straight_2</name>
  </wpt>
  <wpt lat="47.23182" lon="11.53366">
    <ele>1906.43</ele>
    <name>straight_3</name>
  </wpt>
  <wpt lat="47.23188" lon="11.53337">
    <ele>1900.78</ele>
    <name>straight_4</name>
  </wpt>
  <wpt lat="47.23187" lon="11.53325">
    <ele>1900.13</ele>
    <name>straight_5</name>
  </wpt>
  <wpt lat="47.2318" lon="11.53268">
    <ele>1896.96</ele>
    <name>straight_6</name>
  </wpt>
  <wpt lat="47.23191" lon="11.53261">
    <ele>1890.04</ele>
    <name>straight_1</name>
  </wpt>
  <wpt lat="47.23195" lon="11.53267">
    <ele>1888.53</ele>
    <name>straight_2</name>
  </wpt>
  <wpt lat="47.23206" lon="11.53291">
    <ele>1885.31</ele>
    <name>straight_3</name>
  </wpt>
  <wpt lat="47.23222" lon="11.53307">
    <ele>1878.35</ele>
    <name>straight_4</name>
  </wpt>
  <wpt lat="47.23224" lon="11.53311">
    <ele>1877.8</ele>
    <name>straight_5</name>
  </wpt>
  <wpt lat="47.23228" lon="11.53321">
    <ele>1877.01</ele>
    <name>straight_6</name>
  </wpt>
  <wpt lat="47.23233" lon="11.5335">
    <ele>1878.42</ele>
    <name>straight_7</name>
  </wpt>
  <wpt lat="47.23236" lon="11.53361">
    <ele>1878.64</ele>
    <name>straight_8</name>
  </wpt>
  <wpt lat="47.23238" lon="11.53365">
    <ele>1878.3</ele>
    <name>straight_9</name>
  </wpt>
  <wpt lat="47.23257" lon="11.53388">
    <ele>1873.16</ele>
    <name>straight_10</name>
  </wpt>
  <wpt lat="47.23263" lon="11.53399">
    <ele>1871.81</ele>
    <name>straight_11</name>
  </wpt>
  <wpt lat="47.23267" lon="11.53411">
    <ele>1871.08</ele>
    <name>straight_12</name>
  </wpt>
  <wpt lat="47.2327" lon="11.53417">
    <ele>1870.09</ele>
    <name>straight_13</name>
  </wpt>
  <wpt lat="47.23284" lon="11.53436">
    <ele>1864.59</ele>
    <name>straight_14</name>
  </wpt>
  <wpt lat="47.23293" lon="11.53451">
    <ele>1861.4</ele>
    <name>straight_15</name>
  </wpt>
  <wpt lat="47.23302" lon="11.53464">
    <ele>1858.61</ele>
    <name>straight_16</name>
  </wpt>
  <wpt lat="47.23312" lon="11.53477">
    <ele>1855.91</ele>
    <name>straight_17</name>
  </wpt>
  <wpt lat="47.23319" lon="11.53488">
    <ele>1854.24</ele>
    <name>straight_18</name>
  </wpt>
  <wpt lat="47.23323" lon="11.53498">
    <ele>1853.35</ele>
    <name>straight_19</name>
  </wpt>
  <wpt lat="47.23327" lon="11.53515">
    <ele>1852.2</ele>
    <name>straight_20</name>
  </wpt>
  <wpt lat="47.2333" lon="11.53522">
    <ele>1851.11</ele>
    <name>straight_21</name>
  </wpt>
  <wpt lat="47.23332" lon="11.53525">
    <ele>1850.38</ele>
    <name>straight_22</name>
  </wpt>
  <wpt lat="47.23343" lon="11.53533">
    <ele>1846.3</ele>
    <name>straight_23</name>
  </wpt>
  <wpt lat="47.23348" lon="11.53519">
    <ele>1844.81</ele>
    <name>straight_24</name>
  </wpt>
  <wpt lat="47.23355" lon="11.535">
    <ele>1842.1</ele>
    <name>straight_25</name>
  </wpt>
  <wpt lat="47.2337" lon="11.53473">
    <ele>1835.32</ele>
    <name>straight_26</name>
  </wpt>
  <wpt lat="47.23375" lon="11.53451">
    <ele>1832.43</ele>
    <name>straight_27</name>
  </wpt>
  <wpt lat="47.23367" lon="11.53399">
    <ele>1831.93</ele>
    <name>straight_28</name>
  </wpt>
  <wpt lat="47.23378" lon="11.53382">
    <ele>1828.49</ele>
    <name>straight_29</name>
  </wpt>
  <wpt lat="47.23398" lon="11.53368">
    <ele>1822.84</ele>
    <name>straight_30</name>
  </wpt>
  <wpt lat="47.23401" lon="11.53347">
    <ele>1820.75</ele>
    <name>straight_31</name>
  </wpt>
  <wpt lat="47.23401" lon="11.53345">
    <ele>1820.61</ele>
    <name>straight_32</name>
  </wpt>
  <wpt lat="47.23388" lon="11.53287">
    <ele>1819.4</ele>
    <name>straight_33</name>
  </wpt>
  <wpt lat="47.23398" lon="11.53281">
    <ele>1815.36</ele>
    <name>straight_34</name>
  </wpt>
  <wpt lat="47.23426" lon="11.53332">
    <ele>1811.84</ele>
    <name>straight_35</name>
  </wpt>
  <wpt lat="47.23443" lon="11.53352">
    <ele>1807.8</ele>
    <name>straight_36</name>
  </wpt>
  <wpt lat="47.23485" lon="11.5339">
    <ele>1798.88</ele>
    <name>straight_37</name>
  </wpt>
  <wpt lat="47.23493" lon="11.53422">
    <ele>1799.93</ele>
    <name>straight_38</name>
  </wpt>
  <wpt lat="47.23498" lon="11.53455">
    <ele>1798.91</ele>
    <name>straight_39</name>
  </wpt>
  <wpt lat="47.23491" lon="11.53508">
    <ele>1797.79</ele>
    <name>straight_40</name>
  </wpt>
  <wpt lat="47.2349" lon="11.53557">
    <ele>1792.12</ele>
    <name>straight_41</name>
  </wpt>
  <wpt lat="47.23501" lon="11.53556">
    <ele>1789.04</ele>
    <name>straight_42</name>
  </wpt>
  <wpt lat="47.23516" lon="11.53557">
    <ele>1785.25</ele>
    <name>straight_43</name>
  </wpt>
  <wpt lat="47.23542" lon="11.53563">
    <ele>1779.79</ele>
    <name>straight_44</name>
  </wpt>
  <wpt lat="47.23552" lon="11.53564">
    <ele>1778.01</ele>
    <name>straight_45</name>
  </wpt>
  <wpt lat="47.23562" lon="11.53562">
    <ele>1776.24</ele>
    <name>straight_46</name>
  </wpt>
  <wpt lat="47.23568" lon="11.53557">
    <ele>1775.18</ele>
    <name>straight_47</name>
  </wpt>
  <wpt lat="47.2357" lon="11.53555">
    <ele>1774.8</ele>
    <name>straight_48</name>
  </wpt>
  <wpt lat="47.23581" lon="11.53525">
    <ele>1773.28</ele>
    <name>straight_49</name>
  </wpt>
  <wpt lat="47.23642" lon="11.53457">
    <ele>1759.22</ele>
    <name>straight_50</name>
  </wpt>
  <wpt lat="47.23644" lon="11.53441">
    <ele>1758.31</ele>
    <name>straight_51</name>
  </wpt>
  <wpt lat="47.23639" lon="11.53412">
    <ele>1758.43</ele>
    <name>straight_52</name>
  </wpt>
  <wpt lat="47.23642" lon="11.53374">
    <ele>1748.62</ele>
    <name>straight_53</name>
  </wpt>
  <wpt lat="47.23638" lon="11.53323">
    <ele>1741.58</ele>
    <name>straight_54</name>
  </wpt>
  <wpt lat="47.2367" lon="11.53268">
    <ele>1735.23</ele>
    <name>straight_55</name>
  </wpt>
  <wpt lat="47.23673" lon="11.53258">
    <ele>1734.42</ele>
    <name>straight_56</name>
  </wpt>
  <wpt lat="47.23674" lon="11.53244">
    <ele>1733.65</ele>
    <name>straight_57</name>
  </wpt>
  <wpt lat="47.23674" lon="11.53235">
    <ele>1732.92</ele>
    <name>straight_58</name>
  </wpt>
  <wpt lat="47.2367" lon="11.5322">
    <ele>1732.83</ele>
    <name>straight_59</name>
  </wpt>
  <wpt lat="47.23675" lon="11.53194">
    <ele>1726.76</ele>
    <name>straight_1</name>
  </wpt>
  <wpt lat="47.2368" lon="11.53204">
    <ele>1725.93</ele>
    <name>straight_2</name>
  </wpt>
  <wpt lat="47.23693" lon="11.53239">
    <ele>1723.74</ele>
    <name>straight_3</name>
  </wpt>
  <wpt lat="47.23698" lon="11.53251">
    <ele>1721.8</ele>
    <name>straight_4</name>
  </wpt>
  <wpt lat="47.23716" lon="11.5329">
    <ele>1712.13</ele>
    <name>straight_5</name>
  </wpt>
  <wpt lat="47.23735" lon="11.53322">
    <ele>1704.75</ele>
    <name>straight_6</name>
  </wpt>
  <wpt lat="47.23744" lon="11.53345">
    <ele>1703.71</ele>
    <name>straight_7</name>
  </wpt>
  <wpt lat="47.23756" lon="11.53386">
    <ele>1705.3</ele>
    <name>straight_8</name>
  </wpt>
  <wpt lat="47.2376" lon="11.53395">
    <ele>1704.96</ele>
    <name>straight_9</name>
  </wpt>
  <wpt lat="47.23802" lon="11.53448">
    <ele>1690.69</ele>
    <name>straight_10</name>
  </wpt>
  <wpt lat="47.23818" lon="11.53474">
    <ele>1683.71</ele>
    <name>straight_11</name>
  </wpt>
  <wpt lat="47.23833" lon="11.53535">
    <ele>1677.82</ele>
    <name>straight_12</name>
  </wpt>
  <wpt lat="47.23851" lon="11.53569">
    <ele>1672.93</ele>
    <name>straight_13</name>
  </wpt>
  <wpt lat="47.23866" lon="11.53597">
    <ele>1670.65</ele>
    <name>straight_14</name>
  </wpt>
  <wpt lat="47.23879" lon="11.53608">
    <ele>1668.15</ele>
    <name>straight_15</name>
  </wpt>
  <wpt lat="47.23889" lon="11.53629">
    <ele>1666.19</ele>
    <name>straight_16</name>
  </wpt>
  <wpt lat="47.23891" lon="11.53659">
    <ele>1665.34</ele>
    <name>straight_17</name>
  </wpt>
  <wpt lat="47.23897" lon="11.53682">
    <ele>1662.03</ele>
    <name>straight_18</name>
  </wpt>
  <wpt lat="47.23909" lon="11.53692">
    <ele>1656.56</ele>
    <name>straight_19</name>
  </wpt>
  <wpt lat="47.23913" lon="11.53769">
    <ele>1648.2</ele>
    <name>straight_20</name>
  </wpt>
  <wpt lat="47.23929" lon="11.53834">
    <ele>1644.79</ele>
    <name>straight_21</name>
  </wpt>
  <wpt lat="47.23942" lon="11.53857">
    <ele>1640.29</ele>
    <name>straight_22</name>
  </wpt>
  <wpt lat="47.2396" lon="11.53879">
    <ele>1634.49</ele>
    <name>straight_23</name>
  </wpt>
  <wpt lat="47.23962" lon="11.53899">
    <ele>1634.07</ele>
    <name>straight_24</name>
  </wpt>
  <wpt lat="47.23955" lon="11.53916">
    <ele>1636.24</ele>
    <name>straight_25</name>
  </wpt>
  <wpt lat="47.2395" lon="11.53926">
    <ele>1637.75</ele>
    <name>straight_26</name>
  </wpt>
  <wpt lat="47.2398" lon="11.53941">
    <ele>1632.06</ele>
    <name>straight_27</name>
  </wpt>
  <wpt lat="47.24003" lon="11.53951">
    <ele>1626.35</ele>
    <name>straight_28</name>
  </wpt>
  <wpt lat="47.24034" lon="11.53972">
    <ele>1617.75</ele>
    <name>straight_29</name>
  </wpt>
  <wpt lat="47.24046" lon="11.5398">
    <ele>1614.33</ele>
    <name>straight_30</name>
  </wpt>
  <wpt lat="47.24059" lon="11.53995">
    <ele>1611.8</ele>
    <name>straight_31</name>
  </wpt>
  <wpt lat="47.24069" lon="11.54059">
    <ele>1603.87</ele>
    <name>straight_32</name>
  </wpt>
  <wpt lat="47.2406" lon="11.54095">
    <ele>1601.56</ele>
    <name>straight_1</name>
  </wpt>
  <wpt lat="47.24072" lon="11.54082">
    <ele>1599.73</ele>
    <name>straight_2</name>
  </wpt>
  <wpt lat="47.24086" lon="11.54056">
    <ele>1598.52</ele>
    <name>straight_3</name>
  </wpt>
  <wpt lat="47.24106" lon="11.54012">
    <ele>1592.64</ele>
    <name>straight_4</name>
  </wpt>
  <wpt lat="47.24129" lon="11.54023">
    <ele>1581.01</ele>
    <name>straight_1</name>
  </wpt>
  <wpt lat="47.2412" lon="11.54069">
    <ele>1581.18</ele>
    <name>straight_2</name>
  </wpt>
  <wpt lat="47.2412" lon="11.54087">
    <ele>1579.51</ele>
    <name>straight_3</name>
  </wpt>
  <wpt lat="47.24123" lon="11.54145">
    <ele>1573.2</ele>
    <name>straight_4</name>
  </wpt>
  <wpt lat="47.24133" lon="11.54135">
    <ele>1569.79</ele>
    <name>straight_5</name>
  </wpt>
  <wpt lat="47.24143" lon="11.54089">
    <ele>1567.76</ele>
    <name>straight_6</name>
  </wpt>
  <wpt lat="47.24157" lon="11.54097">
    <ele>1560.74</ele>
    <name>straight_1</name>
  </wpt>
  <wpt lat="47.24157" lon="11.54133">
    <ele>1559.54</ele>
    <name>straight_2</name>
  </wpt>
  <wpt lat="47.24163" lon="11.5415">
    <ele>1556.37</ele>
    <name>straight_3</name>
  </wpt>
  <wpt lat="47.24167" lon="11.54201">
    <ele>1550.21</ele>
    <name>straight_4</name>
  </wpt>
  <wpt lat="47.24195" lon="11.54238">
    <ele>1542.68</ele>
    <name>straight_5</name>
  </wpt>
</gpx>