<?xml version="1.0" encoding="UTF-8"?>
<gpx xmlns="http://www.topografix.com/GPX/1/1" xmlns:xsi="http://www.w3.org/2001/XMLSchema-instance" xsi:schemaLocation="http://www.topografix.com/GPX/1/1 http://www.topografix.com/GPX/1/1/gpx.xsd" version="1.1" creator="gpx.py -- https://github.com/tkrajina/gpxpy">
  <wpt lat="47.09876" lon="11.32217">
    <ele>1771.81</ele>
    <name>Hairpin Section 1 Start</name>
  </wpt>
  <wpt lat="47.0988" lon="11.3221">
    <ele>1768.15</ele>
    <name>Hairpin Section 1 End</name>
  </wpt>
  <wpt lat="47.09988" lon="11.32402">
    <ele>1743.17</ele>
    <name>Hairpin Section 2 Start</name>
  </wpt>
  <wpt lat="47.09997" lon="11.32414">
    <ele>1740.25</ele>
    <name>Hairpin Section 2 End</name>
  </wpt>
  <wpt lat="47.09912" lon="11.32037">
    <ele>1699.81</ele>
    <name>Hairpin Section 3 Start</name>
  </wpt>
  <wpt lat="47.09919" lon="11.32027">
    <ele>1694.02</ele>
    <name>Hairpin Section 3 End</name>
  </wpt>
  <wpt lat="47.10366" lon="11.32637">
    <ele>1589.9</ele>
    <name>Hairpin Section 4 Start</name>
  </wpt>
  <wpt lat="47.10372" lon="11.32627">
    <ele>1583.4</ele>
    <name>Hairpin Section 4 End</name>
  </wpt>
  <wpt lat="47.10276" lon="11.32295">
    <ele>1569.55</ele>
    <name>Hairpin Section 5 Start</name>
  </wpt>
  <wpt lat="47.10285" lon="11.32281">
    <ele>1560.62</ele>
    <name>Hairpin Section 5 End</name>
  </wpt>
  <wpt lat="47.1048" lon="11.32632">
    <ele>1520.07</ele>
    <name>Hairpin Section 6 Start</name>
  </wpt>
  <wpt lat="47.10484" lon="11.32625">
    <ele>1516.18</ele>
    <name>Hairpin Section 6 End</name>
  </wpt>
  <wpt lat="47.10342" lon="11.31916">
    <ele>1450.22</ele>
    <name>Hairpin Section 7 Start</name>
  </wpt>
  <wpt lat="47.10349" lon="11.31907">
    <ele>1444.92</ele>
    <name>Hairpin Section 7 End</name>
  </wpt>
  <wpt lat="47.10488" lon="11.32133">
    <ele>1419.95</ele>
    <name>Hairpin Section 8 Start</name>
  </wpt>
  <wpt lat="47.10495" lon="11.32126">
    <ele>1414.34</ele>
    <name>Hairpin Section 8 End</name>
  </wpt>
  <wpt lat="47.10429" lon="11.31855">
    <ele>1397.72</ele>
    <name>Hairpin Section 9 Start</name>
  </wpt>
  <wpt lat="47.10434" lon="11.31838">
    <ele>1390.81</ele>
    <name>Hairpin Section 9 End</name>
  </wpt>
  <wpt lat="47.10768" lon="11.32388">
    <ele>1317.72</ele>
    <name>Hairpin Section 10 Start</name>
  </wpt>
  <wpt lat="47.10772" lon="11.32386">
    <ele>1314.03</ele>
    <name>Hairpin Section 10 End</name>
  </wpt>
  <wpt lat="47.10553" lon="11.31369">
    <ele>1198.28</ele>
    <name>Hairpin Section 11 Start</name>
  </wpt>
  <wpt lat="47.10552" lon="11.3135">
    <ele>1194.85</ele>
    <name>Hairpin Section 11 End</name>
  </wpt>
  <wpt lat="47.10636" lon="11.31443">
    <ele>1187.31</ele>
    <name>Hairpin Section 12 Start</name>
  </wpt>
  <wpt lat="47.10642" lon="11.31437">
    <ele>1182.21</ele>
    <name>Hairpin Section 12 End</name>
  </wpt>
  <wpt lat="47.10562" lon="11.31264">
    <ele>1158.64</ele>
    <name>Hairpin Section 13 Start</name>
  </wpt>
  <wpt lat="47.10561" lon="11.31251">
    <ele>1155.43</ele>
    <name>Hairpin Section 13 End</name>
  </wpt>
  <wpt lat="47.10498" lon="11.30673">
    <ele>1088.33</ele>
    <name>Hairpin Section 14 Start</name>
  </wpt>
  <wpt lat="47.10513" lon="11.3066">
    <ele>1080.8</ele>
    <name>Hairpin Section 14 End</name>
  </wpt>
  <wpt lat="47.10546" lon="11.30714">
    <ele>1080.46</ele>
    <name>Hairpin Section 15 Start</name>
  </wpt>
  <wpt lat="47.10578" lon="11.30721">
    <ele>1065.09</ele>
    <name>Hairpin Section 15 End</name>
  </wpt>
  <wpt lat="47.10645" lon="11.3085">
    <ele>1053.13</ele>
    <name>Hairpin Section 16 Start</name>
  </wpt>
  <wpt lat="47.1066" lon="11.30845">
    <ele>1042.76</ele>
    <name>Hairpin Section 16 End</name>
  </wpt>
  <wpt lat="47.10653" lon="11.30743">
    <ele>1030.22</ele>
    <name>Hairpin Section 17 Start</name>
  </wpt>
  <wpt lat="47.10664" lon="11.30742">
    <ele>1025.54</ele>
    <name>Hairpin Section 17 End</name>
  </wpt>
</gpx>