<?xml version="1.0" encoding="UTF-8"?>
<gpx xmlns="http://www.topografix.com/GPX/1/1" xmlns:xsi="http://www.w3.org/2001/XMLSchema-instance" xsi:schemaLocation="http://www.topografix.com/GPX/1/1 http://www.topografix.com/GPX/1/1/gpx.xsd" version="1.1" creator="gpx.py -- https://github.com/tkrajina/gpxpy">
  <wpt lat="50.09806" lon="-122.95935">
    <ele>1002.3</ele>
    <name>Hairpin Section 1 Start</name>
  </wpt>
  <wpt lat="50.09818" lon="-122.95934">
    <ele>1002.3</ele>
    <name>Hairpin Section 1 End</name>
  </wpt>
  <wpt lat="50.09808" lon="-122.95842">
    <ele>1000.6</ele>
    <name>Hairpin Section 2 Start</name>
  </wpt>
  <wpt lat="50.09815" lon="-122.9584">
    <ele>1000.6</ele>
    <name>Hairpin Section 2 End</name>
  </wpt>
  <wpt lat="50.10094" lon="-122.95703">
    <ele>936.6</ele>
    <name>Hairpin Section 3 Start</name>
  </wpt>
  <wpt lat="50.1011" lon="-122.95713">
    <ele>936.6</ele>
    <name>Hairpin Section 3 End</name>
  </wpt>
  <wpt lat="50.10156" lon="-122.95782">
    <ele>923.4</ele>
    <name>Hairpin Section 4 Start</name>
  </wpt>
  <wpt lat="50.10162" lon="-122.9579">
    <ele>923.4</ele>
    <name>Hairpin Section 4 End</name>
  </wpt>
  <wpt lat="50.10189" lon="-122.95756">
    <ele>916.6</ele>
    <name>Hairpin Section 5 Start</name>
  </wpt>
  <wpt lat="50.10199" lon="-122.95755">
    <ele>912.4</ele>
    <name>Hairpin Section 5 End</name>
  </wpt>
  <wpt lat="50.102" lon="-122.95809">
    <ele>909.8</ele>
    <name>Hairpin Section 6 Start</name>
  </wpt>
  <wpt lat="50.10208" lon="-122.95802">
    <ele>910.0</ele>
    <name>Hairpin Section 6 End</name>
  </wpt>
  <wpt lat="50.10296" lon="-122.95759">
    <ele>900.7</ele>
    <name>Hairpin Section 7 Start</name>
  </wpt>
  <wpt lat="50.10303" lon="-122.95778">
    <ele>898.0</ele>
    <name>Hairpin Section 7 End</name>
  </wpt>
  <wpt lat="50.10246" lon="-122.95838">
    <ele>902.3</ele>
    <name>Hairpin Section 8 Start</name>
  </wpt>
  <wpt lat="50.10254" lon="-122.95856">
    <ele>897.6</ele>
    <name>Hairpin Section 8 End</name>
  </wpt>
</gpx>