<?xml version="1.0" encoding="UTF-8"?>
<gpx xmlns="http://www.topografix.com/GPX/1/1" xmlns:xsi="http://www.w3.org/2001/XMLSchema-instance" xsi:schemaLocation="http://www.topografix.com/GPX/1/1 http://www.topografix.com/GPX/1/1/gpx.xsd" version="1.1" creator="gpx.py -- https://github.com/tkrajina/gpxpy">
  <wpt lat="50.08767" lon="-122.96455">
    <ele>1265.8</ele>
    <name>Hairpin Section 1 Start</name>
  </wpt>
  <wpt lat="50.0878" lon="-122.96469">
    <ele>1258.0</ele>
    <name>Hairpin Section 1 End</name>
  </wpt>
  <wpt lat="50.0878" lon="-122.96482">
    <ele>1258.0</ele>
    <name>Hairpin Section 2 Start</name>
  </wpt>
  <wpt lat="50.08792" lon="-122.96499">
    <ele>1258.0</ele>
    <name>Hairpin Section 2 End</name>
  </wpt>
  <wpt lat="50.0881" lon="-122.96477">
    <ele>1254.9</ele>
    <name>Hairpin Section 3 Start</name>
  </wpt>
  <wpt lat="50.08824" lon="-122.96486">
    <ele>1254.9</ele>
    <name>Hairpin Section 3 End</name>
  </wpt>
  <wpt lat="50.08805" lon="-122.96519">
    <ele>1251.7</ele>
    <name>Hairpin Section 4 Start</name>
  </wpt>
  <wpt lat="50.08808" lon="-122.96541">
    <ele>1244.4</ele>
    <name>Hairpin Section 4 End</name>
  </wpt>
  <wpt lat="50.09312" lon="-122.96445">
    <ele>1149.3</ele>
    <name>Hairpin Section 5 Start</name>
  </wpt>
  <wpt lat="50.09306" lon="-122.96468">
    <ele>1149.3</ele>
    <name>Hairpin Section 5 End</name>
  </wpt>
  <wpt lat="50.09574" lon="-122.96311">
    <ele>1100.5</ele>
    <name>Hairpin Section 6 Start</name>
  </wpt>
  <wpt lat="50.09578" lon="-122.96265">
    <ele>1094.6</ele>
    <name>Hairpin Section 6 End</name>
  </wpt>
  <wpt lat="50.09674" lon="-122.9585">
    <ele>1047.3</ele>
    <name>Hairpin Section 7 Start</name>
  </wpt>
  <wpt lat="50.09685" lon="-122.95855">
    <ele>1047.3</ele>
    <name>Hairpin Section 7 End</name>
  </wpt>
  <wpt lat="50.09681" lon="-122.95882">
    <ele>1045.8</ele>
    <name>Hairpin Section 8 Start</name>
  </wpt>
  <wpt lat="50.0969" lon="-122.9589">
    <ele>1046.2</ele>
    <name>Hairpin Section 8 End</name>
  </wpt>
</gpx>