<?xml version="1.0" encoding="UTF-8"?>
<gpx xmlns="http://www.topografix.com/GPX/1/1" xmlns:xsi="http://www.w3.org/2001/XMLSchema-instance" xsi:schemaLocation="http://www.topografix.com/GPX/1/1 http://www.topografix.com/GPX/1/1/gpx.xsd" version="1.1" creator="gpx.py -- https://github.com/tkrajina/gpxpy">
  <wpt lat="47.22493" lon="11.52832">
    <ele>2033.79</ele>
    <name>Hairpin Section 1 Start</name>
  </wpt>
  <wpt lat="47.22506" lon="11.52817">
    <ele>2029.13</ele>
    <name>Hairpin Section 1 End</name>
  </wpt>
  <wpt lat="47.22482" lon="11.52776">
    <ele>2026.3</ele>
    <name>Hairpin Section 2 Start</name>
  </wpt>
  <wpt lat="47.22483" lon="11.52764">
    <ele>2024.43</ele>
    <name>Hairpin Section 2 End</name>
  </wpt>
  <wpt lat="47.22945" lon="11.53223">
    <ele>1982.15</ele>
    <name>Hairpin Section 3 Start</name>
  </wpt>
  <wpt lat="47.22916" lon="11.53124">
    <ele>1972.52</ele>
    <name>Hairpin Section 3 End</name>
  </wpt>
  <wpt lat="47.22914" lon="11.53103">
    <ele>1967.62</ele>
    <name>Hairpin Section 4 Start</name>
  </wpt>
  <wpt lat="47.22926" lon="11.53115">
    <ele>1966.79</ele>
    <name>Hairpin Section 4 End</name>
  </wpt>
  <wpt lat="47.23075" lon="11.53293">
    <ele>1940.29</ele>
    <name>Hairpin Section 5 Start</name>
  </wpt>
  <wpt lat="47.23089" lon="11.53283">
    <ele>1933.04</ele>
    <name>Hairpin Section 5 End</name>
  </wpt>
  <wpt lat="47.2307" lon="11.53241">
    <ele>1932.72</ele>
    <name>Hairpin Section 6 Start</name>
  </wpt>
  <wpt lat="47.2308" lon="11.5324">
    <ele>1928.6</ele>
    <name>Hairpin Section 6 End</name>
  </wpt>
  <wpt lat="47.23167" lon="11.53392">
    <ele>1914.45</ele>
    <name>Hairpin Section 7 Start</name>
  </wpt>
  <wpt lat="47.2318" lon="11.53383">
    <ele>1908.53</ele>
    <name>Hairpin Section 7 End</name>
  </wpt>
  <wpt lat="47.2318" lon="11.53268">
    <ele>1896.96</ele>
    <name>Hairpin Section 8 Start</name>
  </wpt>
  <wpt lat="47.23188" lon="11.53259">
    <ele>1891.46</ele>
    <name>Hairpin Section 8 End</name>
  </wpt>
  <wpt lat="47.2333" lon="11.53522">
    <ele>1851.11</ele>
    <name>Hairpin Section 9 Start</name>
  </wpt>
  <wpt lat="47.23348" lon="11.53519">
    <ele>1844.81</ele>
    <name>Hairpin Section 9 End</name>
  </wpt>
  <wpt lat="47.23388" lon="11.53287">
    <ele>1819.4</ele>
    <name>Hairpin Section 10 Start</name>
  </wpt>
  <wpt lat="47.23426" lon="11.53332">
    <ele>1811.84</ele>
    <name>Hairpin Section 10 End</name>
  </wpt>
  <wpt lat="47.23667" lon="11.532">
    <ele>1731.01</ele>
    <name>Hairpin Section 11 Start</name>
  </wpt>
  <wpt lat="47.23675" lon="11.53194">
    <ele>1726.76</ele>
    <name>Hairpin Section 11 End</name>
  </wpt>
  <wpt lat="47.23955" lon="11.53916">
    <ele>1636.24</ele>
    <name>Hairpin Section 12 Start</name>
  </wpt>
  <wpt lat="47.2398" lon="11.53941">
    <ele>1632.06</ele>
    <name>Hairpin Section 12 End</name>
  </wpt>
  <wpt lat="47.2406" lon="11.54095">
    <ele>1601.56</ele>
    <name>Hairpin Section 13 Start</name>
  </wpt>
  <wpt lat="47.24072" lon="11.54082">
    <ele>1599.73</ele>
    <name>Hairpin Section 13 End</name>
  </wpt>
  <wpt lat="47.24106" lon="11.54012">
    <ele>1592.64</ele>
    <name>Hairpin Section 14 Start</name>
  </wpt>
  <wpt lat="47.24129" lon="11.54023">
    <ele>1581.01</ele>
    <name>Hairpin Section 14 End</name>
  </wpt>
  <wpt lat="47.24123" lon="11.54145">
    <ele>1573.2</ele>
    <name>Hairpin Section 15 Start</name>
  </wpt>
  <wpt lat="47.24133" lon="11.54135">
    <ele>1569.79</ele>
    <name>Hairpin Section 15 End</name>
  </wpt>
  <wpt lat="47.24143" lon="11.54089">
    <ele>1567.76</ele>
    <name>Hairpin Section 16 Start</name>
  </wpt>
  <wpt lat="47.24157" lon="11.54097">
    <ele>1560.74</ele>
    <name>Hairpin Section 16 End</name>
  </wpt>
</gpx>