<?xml version="1.0" encoding="UTF-8"?>
<gpx xmlns="http://www.topografix.com/GPX/1/1" xmlns:xsi="http://www.w3.org/2001/XMLSchema-instance" xsi:schemaLocation="http://www.topografix.com/GPX/1/1 http://www.topografix.com/GPX/1/1/gpx.xsd" version="1.1" creator="gpx.py -- https://github.com/tkrajina/gpxpy">
  <wpt lat="47.12992" lon="11.40573">
    <ele>1626.29</ele>
    <name>Hairpin Section 1 Start</name>
  </wpt>
  <wpt lat="47.12988" lon="11.40576">
    <ele>1625.34</ele>
    <name>Hairpin Section 1 End</name>
  </wpt>
</gpx>