<?xml version="1.0" encoding="UTF-8"?>
<gpx xmlns="http://www.topografix.com/GPX/1/1" xmlns:xsi="http://www.w3.org/2001/XMLSchema-instance" xsi:schemaLocation="http://www.topografix.com/GPX/1/1 http://www.topografix.com/GPX/1/1/gpx.xsd" version="1.1" creator="gpx.py -- https://github.com/tkrajina/gpxpy">
  <wpt lat="47.31819356330283" lon="13.214827007171191">
    <name>Hairpin Section 1 Start</name>
  </wpt>
  <wpt lat="47.318124791827394" lon="13.214781373280577">
    <name>Hairpin Section 1 End</name>
  </wpt>
  <wpt lat="47.31852631215618" lon="13.208073454685858">
    <name>Hairpin Section 2 Start</name>
  </wpt>
  <wpt lat="47.318499681566216" lon="13.207972666296651">
    <name>Hairpin Section 2 End</name>
  </wpt>
  <wpt lat="47.31834487346514" lon="13.208113340190708">
    <name>Hairpin Section 3 Start</name>
  </wpt>
  <wpt lat="47.31826795576166" lon="13.208070753730677">
    <name>Hairpin Section 3 End</name>
  </wpt>
  <wpt lat="47.318449526576025" lon="13.207793339458235">
    <name>Hairpin Section 4 Start</name>
  </wpt>
  <wpt lat="47.31843116868744" lon="13.207674304393008">
    <name>Hairpin Section 4 End</name>
  </wpt>
  <wpt lat="47.31807657048967" lon="13.20785975829606">
    <name>Hairpin Section 5 Start</name>
  </wpt>
  <wpt lat="47.3180347633751" lon="13.20776390328995">
    <name>Hairpin Section 5 End</name>
  </wpt>
  <wpt lat="47.318375041700065" lon="13.207436653836407">
    <name>Hairpin Section 6 Start</name>
  </wpt>
  <wpt lat="47.31837421541343" lon="13.207309581953194">
    <name>Hairpin Section 6 End</name>
  </wpt>
  <wpt lat="47.318073782952766" lon="13.207434748653741">
    <name>Hairpin Section 7 Start</name>
  </wpt>
  <wpt lat="47.31804491124165" lon="13.207338352220733">
    <name>Hairpin Section 7 End</name>
  </wpt>
  <wpt lat="47.320050416860866" lon="13.206472099117807">
    <name>Hairpin Section 8 Start</name>
  </wpt>
  <wpt lat="47.32005717671675" lon="13.206362404213275">
    <name>Hairpin Section 8 End</name>
  </wpt>
  <wpt lat="47.319075577160206" lon="13.206090335211579">
    <name>Hairpin Section 9 Start</name>
  </wpt>
  <wpt lat="47.31906216181077" lon="13.205976927328143">
    <name>Hairpin Section 9 End</name>
  </wpt>
</gpx>