<?xml version="1.0" encoding="UTF-8"?>
<gpx xmlns="http://www.topografix.com/GPX/1/1" xmlns:xsi="http://www.w3.org/2001/XMLSchema-instance" xsi:schemaLocation="http://www.topografix.com/GPX/1/1 http://www.topografix.com/GPX/1/1/gpx.xsd" version="1.1" creator="gpx.py -- https://github.com/tkrajina/gpxpy">
  <wpt lat="47.319688792951354" lon="13.201898068406011">
    <ele>951.1199951171875</ele>
    <name>Hairpin Section 1 Start</name>
  </wpt>
  <wpt lat="47.319826916139995" lon="13.201801630242846">
    <ele>946.219970703125</ele>
    <name>Hairpin Section 1 End</name>
  </wpt>
  <wpt lat="47.3194912729463" lon="13.201517099748669">
    <ele>943.2999877929688</ele>
    <name>Hairpin Section 2 Start</name>
  </wpt>
  <wpt lat="47.31944606095615" lon="13.201270738159835">
    <ele>937.8400268554688</ele>
    <name>Hairpin Section 2 End</name>
  </wpt>
  <wpt lat="47.31972858883347" lon="13.201377596481151">
    <ele>933.77001953125</ele>
    <name>Hairpin Section 3 Start</name>
  </wpt>
  <wpt lat="47.31987532339785" lon="13.201275382355966">
    <ele>931.4400024414062</ele>
    <name>Hairpin Section 3 End</name>
  </wpt>
</gpx>