<?xml version="1.0" encoding="UTF-8"?>
<gpx xmlns="http://www.topografix.com/GPX/1/1" xmlns:xsi="http://www.w3.org/2001/XMLSchema-instance" xsi:schemaLocation="http://www.topografix.com/GPX/1/1 http://www.topografix.com/GPX/1/1/gpx.xsd" version="1.1" creator="gpx.py -- https://github.com/tkrajina/gpxpy">
  <wpt lat="50.10007" lon="-122.95186">
    <ele>1007.319</ele>
    <name>Hairpin Section 1 Start</name>
  </wpt>
  <wpt lat="50.10004" lon="-122.95201">
    <ele>1004.711</ele>
    <name>Hairpin Section 1 End</name>
  </wpt>
  <wpt lat="50.10052" lon="-122.95185">
    <ele>1005.172</ele>
    <name>Hairpin Section 2 Start</name>
  </wpt>
  <wpt lat="50.10062" lon="-122.952">
    <ele>1000.62</ele>
    <name>Hairpin Section 2 End</name>
  </wpt>
  <wpt lat="50.10038" lon="-122.95222">
    <ele>996.797</ele>
    <name>Hairpin Section 3 Start</name>
  </wpt>
  <wpt lat="50.10048" lon="-122.95233">
    <ele>998.12</ele>
    <name>Hairpin Section 3 End</name>
  </wpt>
  <wpt lat="50.10088" lon="-122.95218">
    <ele>1000.333</ele>
    <name>Hairpin Section 4 Start</name>
  </wpt>
  <wpt lat="50.10094" lon="-122.95233">
    <ele>995.982</ele>
    <name>Hairpin Section 4 End</name>
  </wpt>
  <wpt lat="50.10088" lon="-122.95253">
    <ele>994.235</ele>
    <name>Hairpin Section 5 Start</name>
  </wpt>
  <wpt lat="50.10111" lon="-122.95268">
    <ele>991.369</ele>
    <name>Hairpin Section 5 End</name>
  </wpt>
  <wpt lat="50.10164" lon="-122.9525">
    <ele>985.211</ele>
    <name>Hairpin Section 6 Start</name>
  </wpt>
  <wpt lat="50.10168" lon="-122.95259">
    <ele>982.119</ele>
    <name>Hairpin Section 6 End</name>
  </wpt>
  <wpt lat="50.1016" lon="-122.95273">
    <ele>979.17</ele>
    <name>Hairpin Section 7 Start</name>
  </wpt>
  <wpt lat="50.10162" lon="-122.95294">
    <ele>974.411</ele>
    <name>Hairpin Section 7 End</name>
  </wpt>
  <wpt lat="50.10186" lon="-122.95285">
    <ele>972.281</ele>
    <name>Hairpin Section 8 Start</name>
  </wpt>
  <wpt lat="50.10196" lon="-122.95295">
    <ele>970.203</ele>
    <name>Hairpin Section 8 End</name>
  </wpt>
  <wpt lat="50.10168" lon="-122.95324">
    <ele>968.259</ele>
    <name>Hairpin Section 9 Start</name>
  </wpt>
  <wpt lat="50.10163" lon="-122.95335">
    <ele>965.897</ele>
    <name>Hairpin Section 9 End</name>
  </wpt>
  <wpt lat="50.10251" lon="-122.9535">
    <ele>955.196</ele>
    <name>Hairpin Section 10 Start</name>
  </wpt>
  <wpt lat="50.1025" lon="-122.95357">
    <ele>950.694</ele>
    <name>Hairpin Section 10 End</name>
  </wpt>
  <wpt lat="50.1024" lon="-122.9536">
    <ele>949.79</ele>
    <name>Hairpin Section 11 Start</name>
  </wpt>
  <wpt lat="50.10242" lon="-122.95373">
    <ele>944.813</ele>
    <name>Hairpin Section 11 End</name>
  </wpt>
  <wpt lat="50.10267" lon="-122.95378">
    <ele>944.388</ele>
    <name>Hairpin Section 12 Start</name>
  </wpt>
  <wpt lat="50.10265" lon="-122.95399">
    <ele>943.608</ele>
    <name>Hairpin Section 12 End</name>
  </wpt>
  <wpt lat="50.10318" lon="-122.95372">
    <ele>937.01</ele>
    <name>Hairpin Section 13 Start</name>
  </wpt>
  <wpt lat="50.10328" lon="-122.95379">
    <ele>931.003</ele>
    <name>Hairpin Section 13 End</name>
  </wpt>
  <wpt lat="50.10329" lon="-122.95408">
    <ele>929.863</ele>
    <name>Hairpin Section 14 Start</name>
  </wpt>
  <wpt lat="50.10338" lon="-122.95409">
    <ele>923.916</ele>
    <name>Hairpin Section 14 End</name>
  </wpt>
  <wpt lat="50.1034" lon="-122.95407">
    <ele>923.506</ele>
    <name>Hairpin Section 15 Start</name>
  </wpt>
  <wpt lat="50.1035" lon="-122.95418">
    <ele>915.035</ele>
    <name>Hairpin Section 15 End</name>
  </wpt>
  <wpt lat="50.10333" lon="-122.9546">
    <ele>914.169</ele>
    <name>Hairpin Section 16 Start</name>
  </wpt>
  <wpt lat="50.10332" lon="-122.95482">
    <ele>912.484</ele>
    <name>Hairpin Section 16 End</name>
  </wpt>
  <wpt lat="50.10356" lon="-122.95467">
    <ele>911.13</ele>
    <name>Hairpin Section 17 Start</name>
  </wpt>
  <wpt lat="50.10367" lon="-122.95475">
    <ele>904.406</ele>
    <name>Hairpin Section 17 End</name>
  </wpt>
  <wpt lat="50.10349" lon="-122.95567">
    <ele>901.873</ele>
    <name>Hairpin Section 18 Start</name>
  </wpt>
  <wpt lat="50.10371" lon="-122.95563">
    <ele>896.468</ele>
    <name>Hairpin Section 18 End</name>
  </wpt>
</gpx>