<?xml version="1.0" encoding="UTF-8"?>
<gpx xmlns="http://www.topografix.com/GPX/1/1" xmlns:xsi="http://www.w3.org/2001/XMLSchema-instance" xsi:schemaLocation="http://www.topografix.com/GPX/1/1 http://www.topografix.com/GPX/1/1/gpx.xsd" version="1.1" creator="gpx.py -- https://github.com/tkrajina/gpxpy">
  <wpt lat="50.10428" lon="-122.9531">
    <ele>898.5</ele>
    <name>Hairpin Section 1 Start</name>
  </wpt>
  <wpt lat="50.10435" lon="-122.95285">
    <ele>899.2</ele>
    <name>Hairpin Section 1 End</name>
  </wpt>
  <wpt lat="50.10409" lon="-122.94873">
    <ele>883.2</ele>
    <name>Hairpin Section 2 Start</name>
  </wpt>
  <wpt lat="50.1042" lon="-122.9488">
    <ele>867.6</ele>
    <name>Hairpin Section 2 End</name>
  </wpt>
  <wpt lat="50.10434" lon="-122.94912">
    <ele>872.9</ele>
    <name>Hairpin Section 3 Start</name>
  </wpt>
  <wpt lat="50.10445" lon="-122.94914">
    <ele>858.1</ele>
    <name>Hairpin Section 3 End</name>
  </wpt>
  <wpt lat="50.10318" lon="-122.94534">
    <ele>845.6</ele>
    <name>Hairpin Section 4 Start</name>
  </wpt>
  <wpt lat="50.10321" lon="-122.94519">
    <ele>844.2</ele>
    <name>Hairpin Section 4 End</name>
  </wpt>
  <wpt lat="50.10395" lon="-122.94648">
    <ele>827.8</ele>
    <name>Hairpin Section 5 Start</name>
  </wpt>
  <wpt lat="50.10395" lon="-122.94613">
    <ele>827.1</ele>
    <name>Hairpin Section 5 End</name>
  </wpt>
  <wpt lat="50.10384" lon="-122.94533">
    <ele>831.0</ele>
    <name>Hairpin Section 6 Start</name>
  </wpt>
  <wpt lat="50.104" lon="-122.94537">
    <ele>824.6</ele>
    <name>Hairpin Section 6 End</name>
  </wpt>
  <wpt lat="50.10533" lon="-122.94754">
    <ele>803.4</ele>
    <name>Hairpin Section 7 Start</name>
  </wpt>
  <wpt lat="50.10535" lon="-122.94734">
    <ele>800.6</ele>
    <name>Hairpin Section 7 End</name>
  </wpt>
</gpx>