<?xml version="1.0" encoding="UTF-8"?>
<gpx xmlns="http://www.topografix.com/GPX/1/1" xmlns:xsi="http://www.w3.org/2001/XMLSchema-instance" xsi:schemaLocation="http://www.topografix.com/GPX/1/1 http://www.topografix.com/GPX/1/1/gpx.xsd" version="1.1" creator="gpx.py -- https://github.com/tkrajina/gpxpy">
  <wpt lat="50.07678" lon="-122.96297">
    <ele>1433.3</ele>
    <name>Hairpin Section 1 Start</name>
  </wpt>
  <wpt lat="50.07688" lon="-122.96282">
    <ele>1433.3</ele>
    <name>Hairpin Section 1 End</name>
  </wpt>
  <wpt lat="50.07689" lon="-122.9628">
    <ele>1433.3</ele>
    <name>Hairpin Section 2 Start</name>
  </wpt>
  <wpt lat="50.07696" lon="-122.96299">
    <ele>1427.0</ele>
    <name>Hairpin Section 2 End</name>
  </wpt>
  <wpt lat="50.07651" lon="-122.9639">
    <ele>1425.2</ele>
    <name>Hairpin Section 3 Start</name>
  </wpt>
  <wpt lat="50.07662" lon="-122.96387">
    <ele>1430.2</ele>
    <name>Hairpin Section 3 End</name>
  </wpt>
  <wpt lat="50.07727" lon="-122.96348">
    <ele>1415.3</ele>
    <name>Hairpin Section 4 Start</name>
  </wpt>
  <wpt lat="50.07737" lon="-122.96352">
    <ele>1415.3</ele>
    <name>Hairpin Section 4 End</name>
  </wpt>
  <wpt lat="50.07703" lon="-122.96392">
    <ele>1407.0</ele>
    <name>Hairpin Section 5 Start</name>
  </wpt>
  <wpt lat="50.07708" lon="-122.96413">
    <ele>1407.0</ele>
    <name>Hairpin Section 5 End</name>
  </wpt>
  <wpt lat="50.07741" lon="-122.96393">
    <ele>1405.2</ele>
    <name>Hairpin Section 6 Start</name>
  </wpt>
  <wpt lat="50.07741" lon="-122.964">
    <ele>1405.2</ele>
    <name>Hairpin Section 6 End</name>
  </wpt>
  <wpt lat="50.07727" lon="-122.96424">
    <ele>1401.9</ele>
    <name>Hairpin Section 7 Start</name>
  </wpt>
  <wpt lat="50.07733" lon="-122.96436">
    <ele>1401.9</ele>
    <name>Hairpin Section 7 End</name>
  </wpt>
  <wpt lat="50.07775" lon="-122.96396">
    <ele>1401.0</ele>
    <name>Hairpin Section 8 Start</name>
  </wpt>
  <wpt lat="50.07785" lon="-122.96423">
    <ele>1388.8</ele>
    <name>Hairpin Section 8 End</name>
  </wpt>
  <wpt lat="50.07794" lon="-122.96371">
    <ele>1394.0</ele>
    <name>Hairpin Section 9 Start</name>
  </wpt>
  <wpt lat="50.07803" lon="-122.96372">
    <ele>1394.0</ele>
    <name>Hairpin Section 9 End</name>
  </wpt>
  <wpt lat="50.07805" lon="-122.9641">
    <ele>1391.3</ele>
    <name>Hairpin Section 10 Start</name>
  </wpt>
  <wpt lat="50.07809" lon="-122.96425">
    <ele>1378.1</ele>
    <name>Hairpin Section 10 End</name>
  </wpt>
  <wpt lat="50.07818" lon="-122.96384">
    <ele>1384.3</ele>
    <name>Hairpin Section 11 Start</name>
  </wpt>
  <wpt lat="50.07822" lon="-122.96388">
    <ele>1384.3</ele>
    <name>Hairpin Section 11 End</name>
  </wpt>
  <wpt lat="50.07826" lon="-122.96423">
    <ele>1378.1</ele>
    <name>Hairpin Section 12 Start</name>
  </wpt>
  <wpt lat="50.07845" lon="-122.96413">
    <ele>1370.0</ele>
    <name>Hairpin Section 12 End</name>
  </wpt>
  <wpt lat="50.0785" lon="-122.96384">
    <ele>1371.7</ele>
    <name>Hairpin Section 13 Start</name>
  </wpt>
  <wpt lat="50.07856" lon="-122.96386">
    <ele>1371.7</ele>
    <name>Hairpin Section 13 End</name>
  </wpt>
  <wpt lat="50.07853" lon="-122.96422">
    <ele>1368.4</ele>
    <name>Hairpin Section 14 Start</name>
  </wpt>
  <wpt lat="50.07856" lon="-122.9643">
    <ele>1368.4</ele>
    <name>Hairpin Section 14 End</name>
  </wpt>
  <wpt lat="50.07866" lon="-122.96389">
    <ele>1359.4</ele>
    <name>Hairpin Section 15 Start</name>
  </wpt>
  <wpt lat="50.07871" lon="-122.96391">
    <ele>1359.4</ele>
    <name>Hairpin Section 15 End</name>
  </wpt>
  <wpt lat="50.07782" lon="-122.9659">
    <ele>1345.6</ele>
    <name>Hairpin Section 16 Start</name>
  </wpt>
  <wpt lat="50.07794" lon="-122.96605">
    <ele>1345.6</ele>
    <name>Hairpin Section 16 End</name>
  </wpt>
  <wpt lat="50.07911" lon="-122.96494">
    <ele>1340.6</ele>
    <name>Hairpin Section 17 Start</name>
  </wpt>
  <wpt lat="50.07927" lon="-122.96494">
    <ele>1328.0</ele>
    <name>Hairpin Section 17 End</name>
  </wpt>
  <wpt lat="50.07906" lon="-122.96588">
    <ele>1324.7</ele>
    <name>Hairpin Section 18 Start</name>
  </wpt>
  <wpt lat="50.07908" lon="-122.96609">
    <ele>1324.7</ele>
    <name>Hairpin Section 18 End</name>
  </wpt>
  <wpt lat="50.07911" lon="-122.96608">
    <ele>1324.7</ele>
    <name>Hairpin Section 19 Start</name>
  </wpt>
  <wpt lat="50.07918" lon="-122.96612">
    <ele>1309.5</ele>
    <name>Hairpin Section 19 End</name>
  </wpt>
  <wpt lat="50.0791" lon="-122.96632">
    <ele>1317.4</ele>
    <name>Hairpin Section 20 Start</name>
  </wpt>
  <wpt lat="50.079" lon="-122.96645">
    <ele>1311.3</ele>
    <name>Hairpin Section 20 End</name>
  </wpt>
  <wpt lat="50.07943" lon="-122.96606">
    <ele>1315.0</ele>
    <name>Hairpin Section 21 Start</name>
  </wpt>
  <wpt lat="50.0795" lon="-122.96592">
    <ele>1302.5</ele>
    <name>Hairpin Section 21 End</name>
  </wpt>
  <wpt lat="50.07949" lon="-122.966">
    <ele>1302.5</ele>
    <name>Hairpin Section 22 Start</name>
  </wpt>
  <wpt lat="50.07952" lon="-122.96612">
    <ele>1297.0</ele>
    <name>Hairpin Section 22 End</name>
  </wpt>
  <wpt lat="50.07954" lon="-122.96608">
    <ele>1302.5</ele>
    <name>Hairpin Section 23 Start</name>
  </wpt>
  <wpt lat="50.07967" lon="-122.96604">
    <ele>1302.5</ele>
    <name>Hairpin Section 23 End</name>
  </wpt>
  <wpt lat="50.0791" lon="-122.96729">
    <ele>1291.3</ele>
    <name>Hairpin Section 24 Start</name>
  </wpt>
  <wpt lat="50.07904" lon="-122.96738">
    <ele>1291.3</ele>
    <name>Hairpin Section 24 End</name>
  </wpt>
  <wpt lat="50.07992" lon="-122.96725">
    <ele>1273.8</ele>
    <name>Hairpin Section 25 Start</name>
  </wpt>
  <wpt lat="50.08004" lon="-122.96717">
    <ele>1268.9</ele>
    <name>Hairpin Section 25 End</name>
  </wpt>
  <wpt lat="50.08002" lon="-122.96724">
    <ele>1264.8</ele>
    <name>Hairpin Section 26 Start</name>
  </wpt>
  <wpt lat="50.08006" lon="-122.96739">
    <ele>1264.8</ele>
    <name>Hairpin Section 26 End</name>
  </wpt>
  <wpt lat="50.08015" lon="-122.96733">
    <ele>1264.8</ele>
    <name>Hairpin Section 27 Start</name>
  </wpt>
  <wpt lat="50.08026" lon="-122.96729">
    <ele>1264.8</ele>
    <name>Hairpin Section 27 End</name>
  </wpt>
  <wpt lat="50.08004" lon="-122.96767">
    <ele>1261.4</ele>
    <name>Hairpin Section 28 Start</name>
  </wpt>
  <wpt lat="50.07995" lon="-122.96787">
    <ele>1265.8</ele>
    <name>Hairpin Section 28 End</name>
  </wpt>
  <wpt lat="50.08003" lon="-122.96785">
    <ele>1257.7</ele>
    <name>Hairpin Section 29 Start</name>
  </wpt>
  <wpt lat="50.08016" lon="-122.9679">
    <ele>1257.7</ele>
    <name>Hairpin Section 29 End</name>
  </wpt>
  <wpt lat="50.08001" lon="-122.9682">
    <ele>1251.4</ele>
    <name>Hairpin Section 30 Start</name>
  </wpt>
  <wpt lat="50.07996" lon="-122.96837">
    <ele>1254.9</ele>
    <name>Hairpin Section 30 End</name>
  </wpt>
  <wpt lat="50.08143" lon="-122.9675">
    <ele>1238.5</ele>
    <name>Hairpin Section 31 Start</name>
  </wpt>
  <wpt lat="50.08153" lon="-122.96754">
    <ele>1231.5</ele>
    <name>Hairpin Section 31 End</name>
  </wpt>
  <wpt lat="50.08142" lon="-122.96765">
    <ele>1231.5</ele>
    <name>Hairpin Section 32 Start</name>
  </wpt>
  <wpt lat="50.08139" lon="-122.96781">
    <ele>1225.2</ele>
    <name>Hairpin Section 32 End</name>
  </wpt>
  <wpt lat="50.08156" lon="-122.96776">
    <ele>1231.5</ele>
    <name>Hairpin Section 33 Start</name>
  </wpt>
  <wpt lat="50.08165" lon="-122.96778">
    <ele>1225.2</ele>
    <name>Hairpin Section 33 End</name>
  </wpt>
  <wpt lat="50.08153" lon="-122.96797">
    <ele>1225.2</ele>
    <name>Hairpin Section 34 Start</name>
  </wpt>
  <wpt lat="50.08147" lon="-122.96804">
    <ele>1225.2</ele>
    <name>Hairpin Section 34 End</name>
  </wpt>
  <wpt lat="50.08156" lon="-122.96804">
    <ele>1225.2</ele>
    <name>Hairpin Section 35 Start</name>
  </wpt>
  <wpt lat="50.08167" lon="-122.96806">
    <ele>1212.8</ele>
    <name>Hairpin Section 35 End</name>
  </wpt>
  <wpt lat="50.08156" lon="-122.96815">
    <ele>1219.0</ele>
    <name>Hairpin Section 36 Start</name>
  </wpt>
  <wpt lat="50.08148" lon="-122.96828">
    <ele>1219.0</ele>
    <name>Hairpin Section 36 End</name>
  </wpt>
  <wpt lat="50.0818" lon="-122.96814">
    <ele>1212.8</ele>
    <name>Hairpin Section 37 Start</name>
  </wpt>
  <wpt lat="50.08189" lon="-122.96817">
    <ele>1212.8</ele>
    <name>Hairpin Section 37 End</name>
  </wpt>
  <wpt lat="50.08163" lon="-122.96856">
    <ele>1214.6</ele>
    <name>Hairpin Section 38 Start</name>
  </wpt>
  <wpt lat="50.08158" lon="-122.96876">
    <ele>1202.8</ele>
    <name>Hairpin Section 38 End</name>
  </wpt>
  <wpt lat="50.08229" lon="-122.96841">
    <ele>1196.3</ele>
    <name>Hairpin Section 39 Start</name>
  </wpt>
  <wpt lat="50.08243" lon="-122.9683">
    <ele>1200.6</ele>
    <name>Hairpin Section 39 End</name>
  </wpt>
</gpx>