<?xml version="1.0" encoding="UTF-8"?>
<gpx xmlns="http://www.topografix.com/GPX/1/1" xmlns:xsi="http://www.w3.org/2001/XMLSchema-instance" xsi:schemaLocation="http://www.topografix.com/GPX/1/1 http://www.topografix.com/GPX/1/1/gpx.xsd" version="1.1" creator="gpx.py -- https://github.com/tkrajina/gpxpy">
  <wpt lat="47.23704" lon="11.49335">
    <ele>1342.34</ele>
    <name>Hairpin Section 1 Start</name>
  </wpt>
  <wpt lat="47.23715" lon="11.49338">
    <ele>1338.72</ele>
    <name>Hairpin Section 1 End</name>
  </wpt>
  <wpt lat="47.2391" lon="11.49924">
    <ele>1277.52</ele>
    <name>Hairpin Section 2 Start</name>
  </wpt>
  <wpt lat="47.23921" lon="11.49918">
    <ele>1271.33</ele>
    <name>Hairpin Section 2 End</name>
  </wpt>
  <wpt lat="47.23927" lon="11.49103">
    <ele>1202.01</ele>
    <name>Hairpin Section 3 Start</name>
  </wpt>
  <wpt lat="47.23937" lon="11.49089">
    <ele>1195.01</ele>
    <name>Hairpin Section 3 End</name>
  </wpt>
  <wpt lat="47.24192" lon="11.4975">
    <ele>1125.58</ele>
    <name>Hairpin Section 4 Start</name>
  </wpt>
  <wpt lat="47.24199" lon="11.49755">
    <ele>1122.5</ele>
    <name>Hairpin Section 4 End</name>
  </wpt>
</gpx>