<?xml version="1.0" encoding="UTF-8"?>
<gpx xmlns="http://www.topografix.com/GPX/1/1" xmlns:xsi="http://www.w3.org/2001/XMLSchema-instance" xsi:schemaLocation="http://www.topografix.com/GPX/1/1 http://www.topografix.com/GPX/1/1/gpx.xsd" version="1.1" creator="gpx.py -- https://github.com/tkrajina/gpxpy">
  <wpt lat="50.05649" lon="-122.95546">
    <ele>2132.6</ele>
    <name>Hairpin Section 1 Start</name>
  </wpt>
  <wpt lat="50.05646" lon="-122.95566">
    <ele>2121.7</ele>
    <name>Hairpin Section 1 End</name>
  </wpt>
  <wpt lat="50.05661" lon="-122.95649">
    <ele>2094.8</ele>
    <name>Hairpin Section 2 Start</name>
  </wpt>
  <wpt lat="50.05654" lon="-122.95668">
    <ele>2088.6</ele>
    <name>Hairpin Section 2 End</name>
  </wpt>
  <wpt lat="50.05659" lon="-122.95669">
    <ele>2088.6</ele>
    <name>Hairpin Section 3 Start</name>
  </wpt>
  <wpt lat="50.05662" lon="-122.95678">
    <ele>2088.6</ele>
    <name>Hairpin Section 3 End</name>
  </wpt>
  <wpt lat="50.05647" lon="-122.95683">
    <ele>2088.6</ele>
    <name>Hairpin Section 4 Start</name>
  </wpt>
  <wpt lat="50.05636" lon="-122.9569">
    <ele>2077.8</ele>
    <name>Hairpin Section 4 End</name>
  </wpt>
  <wpt lat="50.05637" lon="-122.95858">
    <ele>2062.7</ele>
    <name>Hairpin Section 5 Start</name>
  </wpt>
  <wpt lat="50.05625" lon="-122.95853">
    <ele>2062.7</ele>
    <name>Hairpin Section 5 End</name>
  </wpt>
  <wpt lat="50.05626" lon="-122.95832">
    <ele>2064.8</ele>
    <name>Hairpin Section 6 Start</name>
  </wpt>
  <wpt lat="50.05614" lon="-122.95823">
    <ele>2064.8</ele>
    <name>Hairpin Section 6 End</name>
  </wpt>
  <wpt lat="50.05613" lon="-122.95854">
    <ele>2062.7</ele>
    <name>Hairpin Section 7 Start</name>
  </wpt>
  <wpt lat="50.05606" lon="-122.95856">
    <ele>2048.5</ele>
    <name>Hairpin Section 7 End</name>
  </wpt>
  <wpt lat="50.05603" lon="-122.95851">
    <ele>2048.5</ele>
    <name>Hairpin Section 8 Start</name>
  </wpt>
  <wpt lat="50.05593" lon="-122.95852">
    <ele>2048.5</ele>
    <name>Hairpin Section 8 End</name>
  </wpt>
  <wpt lat="50.05592" lon="-122.95929">
    <ele>2039.8</ele>
    <name>Hairpin Section 9 Start</name>
  </wpt>
  <wpt lat="50.05589" lon="-122.95948">
    <ele>2037.0</ele>
    <name>Hairpin Section 9 End</name>
  </wpt>
  <wpt lat="50.05587" lon="-122.95941">
    <ele>2039.8</ele>
    <name>Hairpin Section 10 Start</name>
  </wpt>
  <wpt lat="50.05582" lon="-122.95945">
    <ele>2024.2</ele>
    <name>Hairpin Section 10 End</name>
  </wpt>
  <wpt lat="50.05585" lon="-122.95994">
    <ele>2035.4</ele>
    <name>Hairpin Section 11 Start</name>
  </wpt>
  <wpt lat="50.0558" lon="-122.96">
    <ele>2022.6</ele>
    <name>Hairpin Section 11 End</name>
  </wpt>
  <wpt lat="50.05519" lon="-122.95866">
    <ele>2005.0</ele>
    <name>Hairpin Section 12 Start</name>
  </wpt>
  <wpt lat="50.05506" lon="-122.9586">
    <ele>2007.6</ele>
    <name>Hairpin Section 12 End</name>
  </wpt>
  <wpt lat="50.05509" lon="-122.95853">
    <ele>2007.6</ele>
    <name>Hairpin Section 13 Start</name>
  </wpt>
  <wpt lat="50.05505" lon="-122.95837">
    <ele>2007.6</ele>
    <name>Hairpin Section 13 End</name>
  </wpt>
  <wpt lat="50.05729" lon="-122.96729">
    <ele>1953.2</ele>
    <name>Hairpin Section 14 Start</name>
  </wpt>
  <wpt lat="50.05741" lon="-122.96766">
    <ele>1948.3</ele>
    <name>Hairpin Section 14 End</name>
  </wpt>
  <wpt lat="50.05898" lon="-122.96854">
    <ele>1925.8</ele>
    <name>Hairpin Section 15 Start</name>
  </wpt>
  <wpt lat="50.05906" lon="-122.96868">
    <ele>1917.1</ele>
    <name>Hairpin Section 15 End</name>
  </wpt>
  <wpt lat="50.0569" lon="-122.9697">
    <ele>1891.4</ele>
    <name>Hairpin Section 16 Start</name>
  </wpt>
  <wpt lat="50.05684" lon="-122.96991">
    <ele>1884.9</ele>
    <name>Hairpin Section 16 End</name>
  </wpt>
  <wpt lat="50.05685" lon="-122.97001">
    <ele>1883.3</ele>
    <name>Hairpin Section 17 Start</name>
  </wpt>
  <wpt lat="50.05669" lon="-122.9701">
    <ele>1883.3</ele>
    <name>Hairpin Section 17 End</name>
  </wpt>
  <wpt lat="50.05645" lon="-122.97258">
    <ele>1854.4</ele>
    <name>Hairpin Section 18 Start</name>
  </wpt>
  <wpt lat="50.05636" lon="-122.97263">
    <ele>1846.4</ele>
    <name>Hairpin Section 18 End</name>
  </wpt>
  <wpt lat="50.0592" lon="-122.97623">
    <ele>1788.5</ele>
    <name>Hairpin Section 19 Start</name>
  </wpt>
  <wpt lat="50.05923" lon="-122.9761">
    <ele>1782.9</ele>
    <name>Hairpin Section 19 End</name>
  </wpt>
  <wpt lat="50.05894" lon="-122.9758">
    <ele>1789.1</ele>
    <name>Hairpin Section 20 Start</name>
  </wpt>
  <wpt lat="50.05892" lon="-122.97564">
    <ele>1789.1</ele>
    <name>Hairpin Section 20 End</name>
  </wpt>
  <wpt lat="50.0596" lon="-122.97586">
    <ele>1773.4</ele>
    <name>Hairpin Section 21 Start</name>
  </wpt>
  <wpt lat="50.05971" lon="-122.97599">
    <ele>1773.4</ele>
    <name>Hairpin Section 21 End</name>
  </wpt>
  <wpt lat="50.05969" lon="-122.97588">
    <ele>1773.4</ele>
    <name>Hairpin Section 22 Start</name>
  </wpt>
  <wpt lat="50.05977" lon="-122.97592">
    <ele>1759.3</ele>
    <name>Hairpin Section 22 End</name>
  </wpt>
  <wpt lat="50.05997" lon="-122.97632">
    <ele>1767.7</ele>
    <name>Hairpin Section 23 Start</name>
  </wpt>
  <wpt lat="50.06007" lon="-122.97639">
    <ele>1761.2</ele>
    <name>Hairpin Section 23 End</name>
  </wpt>
  <wpt lat="50.05976" lon="-122.97544">
    <ele>1744.0</ele>
    <name>Hairpin Section 24 Start</name>
  </wpt>
  <wpt lat="50.05984" lon="-122.97533">
    <ele>1744.0</ele>
    <name>Hairpin Section 24 End</name>
  </wpt>
  <wpt lat="50.05998" lon="-122.97558">
    <ele>1751.2</ele>
    <name>Hairpin Section 25 Start</name>
  </wpt>
  <wpt lat="50.06002" lon="-122.97544">
    <ele>1732.8</ele>
    <name>Hairpin Section 25 End</name>
  </wpt>
  <wpt lat="50.06002" lon="-122.9754">
    <ele>1732.8</ele>
    <name>Hairpin Section 26 Start</name>
  </wpt>
  <wpt lat="50.06012" lon="-122.97544">
    <ele>1732.8</ele>
    <name>Hairpin Section 26 End</name>
  </wpt>
  <wpt lat="50.06031" lon="-122.97563">
    <ele>1730.0</ele>
    <name>Hairpin Section 27 Start</name>
  </wpt>
  <wpt lat="50.0604" lon="-122.97559">
    <ele>1730.0</ele>
    <name>Hairpin Section 27 End</name>
  </wpt>
  <wpt lat="50.07161" lon="-122.9665">
    <ele>1603.8</ele>
    <name>Hairpin Section 28 Start</name>
  </wpt>
  <wpt lat="50.07169" lon="-122.96636">
    <ele>1587.8</ele>
    <name>Hairpin Section 28 End</name>
  </wpt>
  <wpt lat="50.07159" lon="-122.96601">
    <ele>1593.0</ele>
    <name>Hairpin Section 29 Start</name>
  </wpt>
  <wpt lat="50.07167" lon="-122.96599">
    <ele>1583.4</ele>
    <name>Hairpin Section 29 End</name>
  </wpt>
  <wpt lat="50.0719" lon="-122.96631">
    <ele>1587.8</ele>
    <name>Hairpin Section 30 Start</name>
  </wpt>
  <wpt lat="50.07199" lon="-122.96624">
    <ele>1578.0</ele>
    <name>Hairpin Section 30 End</name>
  </wpt>
  <wpt lat="50.07192" lon="-122.96605">
    <ele>1583.4</ele>
    <name>Hairpin Section 31 Start</name>
  </wpt>
  <wpt lat="50.072" lon="-122.96584">
    <ele>1575.6</ele>
    <name>Hairpin Section 31 End</name>
  </wpt>
  <wpt lat="50.07252" lon="-122.96656">
    <ele>1563.7</ele>
    <name>Hairpin Section 32 Start</name>
  </wpt>
  <wpt lat="50.07267" lon="-122.9665">
    <ele>1563.7</ele>
    <name>Hairpin Section 32 End</name>
  </wpt>
  <wpt lat="50.07263" lon="-122.96554">
    <ele>1554.5</ele>
    <name>Hairpin Section 33 Start</name>
  </wpt>
  <wpt lat="50.07274" lon="-122.96542">
    <ele>1554.5</ele>
    <name>Hairpin Section 33 End</name>
  </wpt>
  <wpt lat="50.07294" lon="-122.96605">
    <ele>1545.3</ele>
    <name>Hairpin Section 34 Start</name>
  </wpt>
  <wpt lat="50.07304" lon="-122.96605">
    <ele>1545.3</ele>
    <name>Hairpin Section 34 End</name>
  </wpt>
  <wpt lat="50.07308" lon="-122.96566">
    <ele>1527.4</ele>
    <name>Hairpin Section 35 Start</name>
  </wpt>
  <wpt lat="50.07315" lon="-122.96571">
    <ele>1527.4</ele>
    <name>Hairpin Section 35 End</name>
  </wpt>
  <wpt lat="50.07345" lon="-122.96637">
    <ele>1523.1</ele>
    <name>Hairpin Section 36 Start</name>
  </wpt>
  <wpt lat="50.07354" lon="-122.96637">
    <ele>1523.1</ele>
    <name>Hairpin Section 36 End</name>
  </wpt>
  <wpt lat="50.07345" lon="-122.96599">
    <ele>1518.8</ele>
    <name>Hairpin Section 37 Start</name>
  </wpt>
  <wpt lat="50.07351" lon="-122.96581">
    <ele>1514.6</ele>
    <name>Hairpin Section 37 End</name>
  </wpt>
  <wpt lat="50.07354" lon="-122.96587">
    <ele>1518.8</ele>
    <name>Hairpin Section 38 Start</name>
  </wpt>
  <wpt lat="50.0736" lon="-122.96586">
    <ele>1518.8</ele>
    <name>Hairpin Section 38 End</name>
  </wpt>
  <wpt lat="50.07346" lon="-122.96533">
    <ele>1510.7</ele>
    <name>Hairpin Section 39 Start</name>
  </wpt>
  <wpt lat="50.07358" lon="-122.96518">
    <ele>1510.6</ele>
    <name>Hairpin Section 39 End</name>
  </wpt>
  <wpt lat="50.07383" lon="-122.96507">
    <ele>1498.7</ele>
    <name>Hairpin Section 40 Start</name>
  </wpt>
  <wpt lat="50.07388" lon="-122.96493">
    <ele>1503.5</ele>
    <name>Hairpin Section 40 End</name>
  </wpt>
  <wpt lat="50.07389" lon="-122.965">
    <ele>1494.6</ele>
    <name>Hairpin Section 41 Start</name>
  </wpt>
  <wpt lat="50.074" lon="-122.9649">
    <ele>1494.6</ele>
    <name>Hairpin Section 41 End</name>
  </wpt>
</gpx>