<?xml version="1.0" encoding="UTF-8"?>
<gpx xmlns="http://www.topografix.com/GPX/1/1" xmlns:xsi="http://www.w3.org/2001/XMLSchema-instance" xsi:schemaLocation="http://www.topografix.com/GPX/1/1 http://www.topografix.com/GPX/1/1/gpx.xsd" version="1.1" creator="gpx.py -- https://github.com/tkrajina/gpxpy">
  <wpt lat="47.28274" lon="12.29227">
    <ele>2096.07</ele>
    <name>Hairpin Section 1 Start</name>
  </wpt>
  <wpt lat="47.28243" lon="12.29261">
    <ele>2091.71</ele>
    <name>Hairpin Section 1 End</name>
  </wpt>
  <wpt lat="47.28209" lon="12.29528">
    <ele>2047.87</ele>
    <name>Hairpin Section 2 Start</name>
  </wpt>
  <wpt lat="47.28193" lon="12.29534">
    <ele>2042.28</ele>
    <name>Hairpin Section 2 End</name>
  </wpt>
  <wpt lat="47.28122" lon="12.29411">
    <ele>2045.49</ele>
    <name>Hairpin Section 3 Start</name>
  </wpt>
  <wpt lat="47.28113" lon="12.29419">
    <ele>2040.86</ele>
    <name>Hairpin Section 3 End</name>
  </wpt>
  <wpt lat="47.28064" lon="12.29559">
    <ele>2021.4</ele>
    <name>Hairpin Section 4 Start</name>
  </wpt>
  <wpt lat="47.28047" lon="12.29563">
    <ele>2016.94</ele>
    <name>Hairpin Section 4 End</name>
  </wpt>
  <wpt lat="47.28028" lon="12.29613">
    <ele>2002.81</ele>
    <name>Hairpin Section 5 Start</name>
  </wpt>
  <wpt lat="47.28029" lon="12.29628">
    <ele>1999.23</ele>
    <name>Hairpin Section 5 End</name>
  </wpt>
  <wpt lat="47.27999" lon="12.29641">
    <ele>1990.89</ele>
    <name>Hairpin Section 6 Start</name>
  </wpt>
  <wpt lat="47.27988" lon="12.29656">
    <ele>1986.88</ele>
    <name>Hairpin Section 6 End</name>
  </wpt>
  <wpt lat="47.28166" lon="12.31026">
    <ele>1848.03</ele>
    <name>Hairpin Section 7 Start</name>
  </wpt>
  <wpt lat="47.28159" lon="12.31037">
    <ele>1841.17</ele>
    <name>Hairpin Section 7 End</name>
  </wpt>
  <wpt lat="47.28032" lon="12.30867">
    <ele>1826.42</ele>
    <name>Hairpin Section 8 Start</name>
  </wpt>
  <wpt lat="47.28021" lon="12.30864">
    <ele>1822.58</ele>
    <name>Hairpin Section 8 End</name>
  </wpt>
  <wpt lat="47.28336" lon="12.3183">
    <ele>1739.4</ele>
    <name>Hairpin Section 9 Start</name>
  </wpt>
  <wpt lat="47.28327" lon="12.31846">
    <ele>1733.25</ele>
    <name>Hairpin Section 9 End</name>
  </wpt>
  <wpt lat="47.27645" lon="12.30986">
    <ele>1632.11</ele>
    <name>Hairpin Section 10 Start</name>
  </wpt>
  <wpt lat="47.27632" lon="12.30991">
    <ele>1628.96</ele>
    <name>Hairpin Section 10 End</name>
  </wpt>
  <wpt lat="47.28076" lon="12.3237">
    <ele>1496.46</ele>
    <name>Hairpin Section 11 Start</name>
  </wpt>
  <wpt lat="47.28074" lon="12.3239">
    <ele>1490.57</ele>
    <name>Hairpin Section 11 End</name>
  </wpt>
  <wpt lat="47.27341" lon="12.31425">
    <ele>1383.63</ele>
    <name>Hairpin Section 12 Start</name>
  </wpt>
  <wpt lat="47.27327" lon="12.31431">
    <ele>1378.27</ele>
    <name>Hairpin Section 12 End</name>
  </wpt>
  <wpt lat="47.27558" lon="12.32538">
    <ele>1282.05</ele>
    <name>Hairpin Section 13 Start</name>
  </wpt>
  <wpt lat="47.27544" lon="12.32554">
    <ele>1274.41</ele>
    <name>Hairpin Section 13 End</name>
  </wpt>
  <wpt lat="47.26985" lon="12.31906">
    <ele>1170.14</ele>
    <name>Hairpin Section 14 Start</name>
  </wpt>
  <wpt lat="47.26973" lon="12.31911">
    <ele>1162.15</ele>
    <name>Hairpin Section 14 End</name>
  </wpt>
  <wpt lat="47.27291" lon="12.32898">
    <ele>1094.6</ele>
    <name>Hairpin Section 15 Start</name>
  </wpt>
  <wpt lat="47.27285" lon="12.32918">
    <ele>1087.68</ele>
    <name>Hairpin Section 15 End</name>
  </wpt>
  <wpt lat="47.27223" lon="12.32896">
    <ele>1076.21</ele>
    <name>Hairpin Section 16 Start</name>
  </wpt>
  <wpt lat="47.27211" lon="12.32904">
    <ele>1070.59</ele>
    <name>Hairpin Section 16 End</name>
  </wpt>
  <wpt lat="47.27269" lon="12.3295">
    <ele>1073.24</ele>
    <name>Hairpin Section 17 Start</name>
  </wpt>
  <wpt lat="47.2727" lon="12.32968">
    <ele>1065.75</ele>
    <name>Hairpin Section 17 End</name>
  </wpt>
  <wpt lat="47.27005" lon="12.32741">
    <ele>1029.96</ele>
    <name>Hairpin Section 18 Start</name>
  </wpt>
  <wpt lat="47.26989" lon="12.32748">
    <ele>1021.73</ele>
    <name>Hairpin Section 18 End</name>
  </wpt>
  <wpt lat="47.27143" lon="12.33005">
    <ele>1009.57</ele>
    <name>Hairpin Section 19 Start</name>
  </wpt>
  <wpt lat="47.27114" lon="12.33009">
    <ele>1000.89</ele>
    <name>Hairpin Section 19 End</name>
  </wpt>
  <wpt lat="47.26973" lon="12.32869">
    <ele>986.41</ele>
    <name>Hairpin Section 20 Start</name>
  </wpt>
  <wpt lat="47.26956" lon="12.32865">
    <ele>980.31</ele>
    <name>Hairpin Section 20 End</name>
  </wpt>
  <wpt lat="47.27212" lon="12.3329">
    <ele>937.63</ele>
    <name>Hairpin Section 21 Start</name>
  </wpt>
  <wpt lat="47.27217" lon="12.33312">
    <ele>930.24</ele>
    <name>Hairpin Section 21 End</name>
  </wpt>
  <wpt lat="47.26785" lon="12.33021">
    <ele>894.0</ele>
    <name>Hairpin Section 22 Start</name>
  </wpt>
  <wpt lat="47.26771" lon="12.33025">
    <ele>888.07</ele>
    <name>Hairpin Section 22 End</name>
  </wpt>
  <wpt lat="47.27028" lon="12.33494">
    <ele>854.3</ele>
    <name>Hairpin Section 23 Start</name>
  </wpt>
  <wpt lat="47.27022" lon="12.3351">
    <ele>847.1399857937365</ele>
    <name>Hairpin Section 23 End</name>
  </wpt>
  <wpt lat="47.27043916699549" lon="12.33616173013013">
    <ele>841.2161802647637</ele>
    <name>Hairpin Section 24 Start</name>
  </wpt>
  <wpt lat="47.2702753" lon="12.3363024">
    <ele>840.86</ele>
    <name>Hairpin Section 24 End</name>
  </wpt>
</gpx>