<?xml version="1.0" encoding="UTF-8"?>
<gpx xmlns="http://www.topografix.com/GPX/1/1" xmlns:xsi="http://www.w3.org/2001/XMLSchema-instance" xsi:schemaLocation="http://www.topografix.com/GPX/1/1 http://www.topografix.com/GPX/1/1/gpx.xsd" version="1.1" creator="gpx.py -- https://github.com/tkrajina/gpxpy">
  <wpt lat="47.12992" lon="11.40573">
    <ele>1626.29</ele>
    <name>straight_1</name>
  </wpt>
  <wpt lat="47.12988" lon="11.40576">
    <ele>1625.34</ele>
    <name>straight_2</name>
  </wpt>
  <wpt lat="47.12976" lon="11.40594">
    <ele>1621.02</ele>
    <name>straight_3</name>
  </wpt>
  <wpt lat="47.12967" lon="11.40615">
    <ele>1616.9</ele>
    <name>straight_4</name>
  </wpt>
  <wpt lat="47.12955" lon="11.40638">
    <ele>1612.86</ele>
    <name>straight_5</name>
  </wpt>
  <wpt lat="47.12946" lon="11.4065">
    <ele>1610.73</ele>
    <name>straight_6</name>
  </wpt>
  <wpt lat="47.12886" lon="11.40705">
    <ele>1598.34</ele>
    <name>straight_7</name>
  </wpt>
  <wpt lat="47.12868" lon="11.40718">
    <ele>1595.83</ele>
    <name>straight_8</name>
  </wpt>
  <wpt lat="47.12843" lon="11.40728">
    <ele>1593.08</ele>
    <name>straight_9</name>
  </wpt>
  <wpt lat="47.12788" lon="11.40741">
    <ele>1583.93</ele>
    <name>straight_10</name>
  </wpt>
  <wpt lat="47.12768" lon="11.40741">
    <ele>1580.28</ele>
    <name>straight_11</name>
  </wpt>
  <wpt lat="47.12696" lon="11.40716">
    <ele>1566.62</ele>
    <name>straight_12</name>
  </wpt>
  <wpt lat="47.12632" lon="11.40672">
    <ele>1563.43</ele>
    <name>straight_13</name>
  </wpt>
  <wpt lat="47.12626" lon="11.4067">
    <ele>1563.28</ele>
    <name>straight_14</name>
  </wpt>
  <wpt lat="47.1262" lon="11.40675">
    <ele>1562.05</ele>
    <name>straight_15</name>
  </wpt>
  <wpt lat="47.12614" lon="11.40686">
    <ele>1559.98</ele>
    <name>straight_16</name>
  </wpt>
  <wpt lat="47.12612" lon="11.40694">
    <ele>1558.69</ele>
    <name>straight_17</name>
  </wpt>
  <wpt lat="47.12611" lon="11.40738">
    <ele>1552.48</ele>
    <name>straight_18</name>
  </wpt>
  <wpt lat="47.12622" lon="11.40822">
    <ele>1542.46</ele>
    <name>straight_19</name>
  </wpt>
  <wpt lat="47.12623" lon="11.4085">
    <ele>1538.4</ele>
    <name>straight_20</name>
  </wpt>
  <wpt lat="47.12616" lon="11.40881">
    <ele>1532.52</ele>
    <name>straight_21</name>
  </wpt>
  <wpt lat="47.12608" lon="11.40901">
    <ele>1528.88</ele>
    <name>straight_22</name>
  </wpt>
  <wpt lat="47.12596" lon="11.40917">
    <ele>1526.4</ele>
    <name>straight_23</name>
  </wpt>
  <wpt lat="47.12566" lon="11.40936">
    <ele>1526.97</ele>
    <name>straight_24</name>
  </wpt>
  <wpt lat="47.12562" lon="11.40948">
    <ele>1526.16</ele>
    <name>straight_25</name>
  </wpt>
  <wpt lat="47.12562" lon="11.4096">
    <ele>1524.46</ele>
    <name>straight_26</name>
  </wpt>
  <wpt lat="47.12567" lon="11.40987">
    <ele>1519.97</ele>
    <name>straight_27</name>
  </wpt>
  <wpt lat="47.12578" lon="11.41013">
    <ele>1516.51</ele>
    <name>straight_28</name>
  </wpt>
  <wpt lat="47.12615" lon="11.41051">
    <ele>1517.68</ele>
    <name>straight_29</name>
  </wpt>
  <wpt lat="47.1262" lon="11.41057">
    <ele>1517.76</ele>
    <name>straight_30</name>
  </wpt>
  <wpt lat="47.12628" lon="11.4107">
    <ele>1517.2</ele>
    <name>straight_31</name>
  </wpt>
  <wpt lat="47.12632" lon="11.41091">
    <ele>1515.41</ele>
    <name>straight_32</name>
  </wpt>
  <wpt lat="47.12624" lon="11.4111">
    <ele>1513.6</ele>
    <name>straight_33</name>
  </wpt>
  <wpt lat="47.12621" lon="11.41117">
    <ele>1512.91</ele>
    <name>straight_34</name>
  </wpt>
  <wpt lat="47.12618" lon="11.41134">
    <ele>1511.33</ele>
    <name>straight_35</name>
  </wpt>
  <wpt lat="47.12613" lon="11.41148">
    <ele>1509.64</ele>
    <name>straight_36</name>
  </wpt>
  <wpt lat="47.1261" lon="11.41163">
    <ele>1508.07</ele>
    <name>straight_37</name>
  </wpt>
  <wpt lat="47.1262" lon="11.41195">
    <ele>1504.54</ele>
    <name>straight_38</name>
  </wpt>
  <wpt lat="47.12623" lon="11.41205">
    <ele>1502.5</ele>
    <name>straight_39</name>
  </wpt>
  <wpt lat="47.12644" lon="11.41243">
    <ele>1487.94</ele>
    <name>straight_40</name>
  </wpt>
  <wpt lat="47.12651" lon="11.41262">
    <ele>1482.18</ele>
    <name>straight_41</name>
  </wpt>
  <wpt lat="47.12657" lon="11.41312">
    <ele>1475.62</ele>
    <name>straight_42</name>
  </wpt>
  <wpt lat="47.12664" lon="11.4135">
    <ele>1472.14</ele>
    <name>straight_43</name>
  </wpt>
  <wpt lat="47.12672" lon="11.41384">
    <ele>1470.73</ele>
    <name>straight_44</name>
  </wpt>
  <wpt lat="47.12685" lon="11.41415">
    <ele>1470.59</ele>
    <name>straight_45</name>
  </wpt>
  <wpt lat="47.12722" lon="11.41461">
    <ele>1466.44</ele>
    <name>straight_46</name>
  </wpt>
  <wpt lat="47.12772" lon="11.41495">
    <ele>1463.26</ele>
    <name>straight_47</name>
  </wpt>
  <wpt lat="47.12787" lon="11.41525">
    <ele>1462.37</ele>
    <name>straight_48</name>
  </wpt>
  <wpt lat="47.12798" lon="11.41547">
    <ele>1460.22</ele>
    <name>straight_49</name>
  </wpt>
  <wpt lat="47.12815" lon="11.41573">
    <ele>1454.56</ele>
    <name>straight_50</name>
  </wpt>
  <wpt lat="47.12823" lon="11.41588">
    <ele>1451.84</ele>
    <name>straight_51</name>
  </wpt>
  <wpt lat="47.12828" lon="11.41612">
    <ele>1449.92</ele>
    <name>straight_52</name>
  </wpt>
  <wpt lat="47.12825" lon="11.41663">
    <ele>1448.58</ele>
    <name>straight_53</name>
  </wpt>
  <wpt lat="47.12827" lon="11.4172">
    <ele>1442.51</ele>
    <name>straight_54</name>
  </wpt>
  <wpt lat="47.12836" lon="11.41777">
    <ele>1441.15</ele>
    <name>straight_55</name>
  </wpt>
  <wpt lat="47.12848" lon="11.41803">
    <ele>1440.98</ele>
    <name>straight_56</name>
  </wpt>
  <wpt lat="47.12877" lon="11.41818">
    <ele>1432.04</ele>
    <name>straight_57</name>
  </wpt>
  <wpt lat="47.12905" lon="11.41853">
    <ele>1422.05</ele>
    <name>straight_58</name>
  </wpt>
  <wpt lat="47.12929" lon="11.41869">
    <ele>1419.76</ele>
    <name>straight_59</name>
  </wpt>
  <wpt lat="47.12942" lon="11.41886">
    <ele>1419.47</ele>
    <name>straight_60</name>
  </wpt>
  <wpt lat="47.12945" lon="11.41924">
    <ele>1416.43</ele>
    <name>straight_61</name>
  </wpt>
  <wpt lat="47.12939" lon="11.41976">
    <ele>1411.53</ele>
    <name>straight_62</name>
  </wpt>
  <wpt lat="47.12937" lon="11.42012">
    <ele>1406.93</ele>
    <name>straight_63</name>
  </wpt>
  <wpt lat="47.12931" lon="11.42095">
    <ele>1395.09</ele>
    <name>straight_64</name>
  </wpt>
  <wpt lat="47.12938" lon="11.42135">
    <ele>1394.04</ele>
    <name>straight_65</name>
  </wpt>
  <wpt lat="47.12962" lon="11.4217">
    <ele>1389.46</ele>
    <name>straight_66</name>
  </wpt>
  <wpt lat="47.12982" lon="11.42203">
    <ele>1379.74</ele>
    <name>straight_67</name>
  </wpt>
  <wpt lat="47.13" lon="11.42245">
    <ele>1365.25</ele>
    <name>straight_68</name>
  </wpt>
  <wpt lat="47.13002" lon="11.42259">
    <ele>1361.93</ele>
    <name>straight_69</name>
  </wpt>
  <wpt lat="47.12999" lon="11.42286">
    <ele>1357.06</ele>
    <name>straight_70</name>
  </wpt>
  <wpt lat="47.13002" lon="11.42321">
    <ele>1351.87</ele>
    <name>straight_71</name>
  </wpt>
  <wpt lat="47.13001" lon="11.42346">
    <ele>1348.02</ele>
    <name>straight_72</name>
  </wpt>
  <wpt lat="47.13007" lon="11.42381">
    <ele>1342.67</ele>
    <name>straight_73</name>
  </wpt>
  <wpt lat="47.13006" lon="11.42399">
    <ele>1339.97</ele>
    <name>straight_74</name>
  </wpt>
  <wpt lat="47.13009" lon="11.42551">
    <ele>1322.36</ele>
    <name>straight_75</name>
  </wpt>
  <wpt lat="47.13011" lon="11.42582">
    <ele>1318.28</ele>
    <name>straight_76</name>
  </wpt>
  <wpt lat="47.13029" lon="11.4266">
    <ele>1316.39</ele>
    <name>straight_77</name>
  </wpt>
  <wpt lat="47.13022" lon="11.42702">
    <ele>1308.79</ele>
    <name>straight_78</name>
  </wpt>
  <wpt lat="47.13025" lon="11.42743">
    <ele>1303.57</ele>
    <name>straight_79</name>
  </wpt>
  <wpt lat="47.13028" lon="11.42817">
    <ele>1298.3</ele>
    <name>straight_80</name>
  </wpt>
  <wpt lat="47.13048" lon="11.42879">
    <ele>1290.81</ele>
    <name>straight_81</name>
  </wpt>
  <wpt lat="47.13067" lon="11.42951">
    <ele>1275.0</ele>
    <name>straight_82</name>
  </wpt>
  <wpt lat="47.13079" lon="11.42972">
    <ele>1270.73</ele>
    <name>straight_83</name>
  </wpt>
  <wpt lat="47.13094" lon="11.42999">
    <ele>1266.86</ele>
    <name>straight_84</name>
  </wpt>
  <wpt lat="47.131" lon="11.43013">
    <ele>1265.96</ele>
    <name>straight_85</name>
  </wpt>
  <wpt lat="47.13109" lon="11.43046">
    <ele>1266.59</ele>
    <name>straight_86</name>
  </wpt>
  <wpt lat="47.13113" lon="11.43082">
    <ele>1266.86</ele>
    <name>straight_87</name>
  </wpt>
  <wpt lat="47.13125" lon="11.43114">
    <ele>1267.58</ele>
    <name>straight_88</name>
  </wpt>
  <wpt lat="47.13131" lon="11.43172">
    <ele>1261.34</ele>
    <name>straight_89</name>
  </wpt>
  <wpt lat="47.13132" lon="11.43201">
    <ele>1255.31</ele>
    <name>straight_90</name>
  </wpt>
  <wpt lat="47.13127" lon="11.4325">
    <ele>1244.04</ele>
    <name>straight_91</name>
  </wpt>
  <wpt lat="47.13132" lon="11.43279">
    <ele>1239.56</ele>
    <name>straight_92</name>
  </wpt>
  <wpt lat="47.13141" lon="11.43299">
    <ele>1235.99</ele>
    <name>straight_93</name>
  </wpt>
  <wpt lat="47.13161" lon="11.43326">
    <ele>1230.97</ele>
    <name>straight_94</name>
  </wpt>
  <wpt lat="47.13167" lon="11.43341">
    <ele>1228.56</ele>
    <name>straight_95</name>
  </wpt>
  <wpt lat="47.13173" lon="11.43372">
    <ele>1222.65</ele>
    <name>straight_96</name>
  </wpt>
  <wpt lat="47.13184" lon="11.43391">
    <ele>1219.73</ele>
    <name>straight_97</name>
  </wpt>
  <wpt lat="47.13212" lon="11.43425">
    <ele>1217.35</ele>
    <name>straight_98</name>
  </wpt>
  <wpt lat="47.13246" lon="11.43449">
    <ele>1213.83</ele>
    <name>straight_99</name>
  </wpt>
  <wpt lat="47.13281" lon="11.43495">
    <ele>1202.08</ele>
    <name>straight_100</name>
  </wpt>
  <wpt lat="47.13317" lon="11.43525">
    <ele>1198.25</ele>
    <name>straight_101</name>
  </wpt>
</gpx>